Site Identifier,Site Type,LAT Trimmed,LON Trimmed,Formatted_Address,City,Suburb,Postcode
1638,Openserve Property,-26.87,26.66,"Desmond Tutu Street, Klerksdorp, South Africa",Klerksdorp,N/A,
UK06195-X1,Openserve Property,-31.01,23,"unnamed road, Ubuntu Ward 4, Ubuntu Local Municipality, South Africa",Ubuntu Local Municipality,Ubuntu Ward 4,N/A
1385,Openserve Property,-25.75,28.16,"Schutte Street, Pretoria-West, Pretoria, 1083, South Africa",Pretoria,Pretoria-West,1083
1784,Openserve Property,-25.77,28.33,"Lynnwood Road, Wapadrand Security Village, Gauteng, 0050, South Africa",N/A,Wapadrand Security Village,0050
1862,Openserve Property,-29.68,31.01,"Rustic Manor Primary School, Capemanor Close, Caneside, Phoenix, 4068, South Africa",Phoenix,Caneside,4068
177,Openserve Property,-33.9,25.14,"Street, Kouga Nu, South Africa",Kouga Nu,N/A,
669,Openserve Property,-33.88,18.69,"Cross Road, Bracken Heights, Western Cape, 7560, South Africa",N/A,Bracken Heights,7560
709,Openserve Property,-33.83,18.65,"Chenoweth, Cape Town Ward 112, Durbanville, 7550, South Africa",Durbanville,Cape Town Ward 112,7550
403,Openserve Property,-29.8,30.98,"26 Courdan Place, Newlands West, South Africa",Newlands West,N/A,
806,Openserve Property,-33.93,18.51,"20 Ajax Way, Cape Town, South Africa",Cape Town,N/A,
188,Openserve Property,-28.75,32.06,"Albizia Avenue, Arboretum, Richards Bay, 3900, South Africa",Richards Bay,Arboretum,3900
950,Openserve Property,-26.35,28.43,"89 Prinsep Avenue, Nigel, South Africa",Nigel,N/A,
1859,Openserve Property,-29.81,31,"Durban, South Africa",Durban,N/A,
418,Openserve Property,-29,30.02,"D385, Umtshezi Ward 9, Umtshezi Local Municipality, South Africa",Umtshezi Local Municipality,Umtshezi Ward 9,N/A
2187,Openserve Property,-34.03,18.5,"38 Blackbird Crescent, Grassy Park, South Africa",Grassy Park,N/A,
334,Openserve Property,-29.93,30.97,"Barrier Lane, Mobeni East, Durban, 4061, South Africa",Durban,Mobeni East,4061
23,Openserve Property,-27.46,23.43,"Duiker Road, Ga-Segonyana Ward 1, Ga-Segonyana Local Municipality, 8461, South Africa",Ga-Segonyana Local Municipality,Ga-Segonyana Ward 1,8461
486,Openserve Property,-29.09,26.25,"2 Rotterdam Street, Mangaung Ward 44, Bloemfontein, 9313, South Africa",Bloemfontein,Mangaung Ward 44,9313
1608,Openserve Property,-25.01,28,"unnamed road, Mnukubyane, Moretele Local Municipality, South Africa",Moretele Local Municipality,Mnukubyane,N/A
440,Openserve Property,-29.82,30.84,"Hepplewhite Road, Ashley, KwaZulu-Natal, 3608, South Africa",N/A,Ashley,3608
1721,Openserve Property,-26.57,27.94,"12 Nadia Street, Vereeniging, South Africa",Vereeniging,N/A,
141,Openserve Property,-33.95,25.56,"95 Hord Street, Port Elizaberth, South Africa",Port Elizaberth,N/A,
333,Openserve Property,-29.93,30.92,"591 Pasadena Crescent, Chatsworth, South Africa",Chatsworth,N/A,
426,Openserve Property,-29.96,30.85,"Street, Umlazi, South Africa",Umlazi,N/A,
322,Openserve Property,-29.88,30.92,"4 Purity Lane, Queensburgh, South Africa",Queensburgh,N/A,
314,Openserve Property,-29.44,30.1,"Lidgetton West, South Africa",Lidgetton West,N/A,
1416,Openserve Property,-25.77,28.28,"82 Clearwater Road, Lynnwood Glen, Pretoria, 0081, South Africa",Pretoria,Lynnwood Glen,0081
1742,Openserve Property,-25.95,29.24,"Emalahleni Ward 19, Emalahleni Local Municipality, 1032, South Africa",Emalahleni Local Municipality,Emalahleni Ward 19,1032
2242,Openserve Property,-33.87,18.62,"47 Kommandeur Street, Bellville, South Africa",Bellville,N/A,
661,Openserve Property,-33.95,18.59,"Swan Road, Bishop Lavis, Elsiesriver, 7490, South Africa",Elsiesriver,Bishop Lavis,7490
2179,Openserve Property,-34.14,18.43,"134 Main Road, Fish Hoek, South Africa",Fish Hoek,N/A,
9598,Openserve Property,-33.87,18.64,"Pasita Road, Bellville, South Africa",Bellville,N/A,
5799,Openserve Property,-25.27,27.23,"P53, Moses Kotane Ward 15, Moses Kotane Local Municipality, 0314, South Africa",Moses Kotane Local Municipality,Moses Kotane Ward 15,0314
1771,Openserve Property,-25.86,28.19,"Centurion, South Africa",Centurion,N/A,
1318,Openserve Property,-25.51,27.1,"R565, Rustenburg Ward 1, Rustenburg Local Municipality, South Africa",Rustenburg Local Municipality,Rustenburg Ward 1,N/A
19,Openserve Property,-27.92,24.84,"Jan Kempdorp, South Africa",Jan Kempdorp,N/A,
214,Openserve Property,-29.91,30.9,"18 Florence Nightingale Drive, Chatsworth, South Africa",Chatsworth,N/A,
1682,Openserve Property,-25.67,28.26,"unnamed road, Derdepoort Tuindorp, Pretoria, 0017, South Africa",Pretoria,Derdepoort Tuindorp,0017
1823,Openserve Property,-28.18,30.15,"5 Tungsten Street, Glencoe, South Africa",Glencoe,N/A,
1783,Openserve Property,-26.83,26.68,"31 Flamboyant Street, Klerksdorp, South Africa",Klerksdorp,N/A,
1538,Openserve Property,-25.66,28.08,"7370 Longmore Road, Pretoria, South Africa",Pretoria,N/A,
1271,Openserve Property,-23.88,29.47,"226 Bayman Street, Polokwane, South Africa",Polokwane,N/A,
5837,Openserve Property,-32.79,26.84,"Alice, South Africa",Alice,N/A,
447,Openserve Property,-28.77,32.01,"Geleiergang Street, Alton, Richards Bay, South Africa",Richards Bay,Alton,N/A
6371,Openserve Property,-28.54,28.86,"Tebang, South Africa",Tebang,N/A,
438,Openserve Property,-29.92,31,"86 Wentworth Road, Durban, South Africa",Durban,N/A,
757,Openserve Property,-33.92,18.68,"School Street, Soneike, Kuilsrivier, 7580, South Africa",Kuilsrivier,Soneike,7580
659,Openserve Property,-33.89,18.65,"56 Peperdruif Street, Bellville, South Africa",Bellville,N/A,
2175,Openserve Property,-34,18.73,"Stasis Road, Kuils River, South Africa",Kuils River,N/A,
275,Openserve Property,-30.26,30.19,"R612, Highflats, South Africa",Highflats,N/A,
68,Openserve Property,-32.75,25.8,"unnamed road, Blue Crane Route Ward 6, Blue Crane Route Local Municipality, South Africa",Blue Crane Route Local Municipality,Blue Crane Route Ward 6,N/A
12350,Openserve Property,-29.81,30.98,"84017 Track, Kennedy Road, Durban, 4091, South Africa",Durban,Kennedy Road,4091
263,Openserve Property,-29.03,31.59,"R66, uMlalazi Ward 19, uMlalazi Local Municipality, South Africa",uMlalazi Local Municipality,uMlalazi Ward 19,N/A
3240,Openserve Property,-23.01,29.01,"Blouberg Local Municipality, Capricorn District Municipality, South Africa",N/A,Blouberg Local Municipality,N/A
1840,Openserve Property,-29.01,30.01,"Umtshezi Ward 9, Umtshezi Local Municipality, Uthukela District Municipality, South Africa",Umtshezi Local Municipality,Umtshezi Ward 9,N/A
332,Openserve Property,-27.62,32.03,"unnamed road, Jozini Ward 20, Jozini Local Municipality, 3965, South Africa",Jozini Local Municipality,Jozini Ward 20,3965
499,Openserve Property,-28.87,27.88,"Veldt Street, Setsoto Ward 15, Setsoto Local Municipality, 9730, South Africa",Setsoto Local Municipality,Setsoto Ward 15,9730
7651,Openserve Property,-29.86,30.86,"38 Wiltshire Road, Pinetown, South Africa",Pinetown,N/A,
5192,Openserve Property,-25.87,28,"Centurion, South Africa",Centurion,N/A,
1040,Openserve Property,-26.35,28.2,"6160 Dlomo Road, Vosloorus, South Africa",Vosloorus,N/A,
778,Openserve Property,-33.79,20.13,"Van Riebeeck Street, Langeberg Local Municipality, 6720, South Africa",Langeberg Local Municipality,N/A,6720
12008,Openserve Property,-25.81,25.63,"Nelson Mandela Drive, Molelwane, Mahikeng, 2790, South Africa",Mahikeng,Molelwane,2790
1543,Openserve Property,-26.62,30.66,"109 Lanyon Street, Amsterdam, South Africa",Amsterdam,N/A,
6107,Openserve Property,-26.28,25.11,"unnamed road, Ratlou Ward 13, Ratlou Local Municipality, South Africa",Ratlou Local Municipality,Ratlou Ward 13,N/A
1782,Openserve Property,-26.76,27.12,"unnamed road, Tlokwe Ward 2, Potchefstroom, 3747, South Africa",Potchefstroom,Tlokwe Ward 2,3747
1838,Openserve Property,-29.01,30,"Umtshezi Ward 9, Umtshezi Local Municipality, Uthukela District Municipality, South Africa",Umtshezi Local Municipality,Umtshezi Ward 9,N/A
935,Openserve Property,-26.21,27.66,"1 Sneeuberg Street, Randfontein, South Africa",Randfontein,N/A,
17,Openserve Property,-28.71,24.75,"2 Maureen Street, Kimberley, South Africa",Kimberley,N/A,
11502,Openserve Property,-25.86,25.64,"30 Carrington Street, Mafikeng, South Africa",Mafikeng,N/A,
11189,Openserve Property,-31.6,28.8,"Null Road, Mthatha, South Africa",Mthatha,N/A,
6,Openserve Property,-28.18,23.55,"Johanna van der Merwe Street, Kgatelopele Ward 2, Kgatelopele Local Municipality, South Africa",Kgatelopele Local Municipality,Kgatelopele Ward 2,N/A
385,Openserve Property,-29.65,30.34,"Pietermaritzburg, South Africa",Pietermaritzburg,N/A,
1700,Openserve Property,-23.9,29.45,"Landdros Mare Street, Polokwane Ward 23, Polokwane, 0750, South Africa",Polokwane,Polokwane Ward 23,0750
1677,Openserve Property,-22.35,30.04,"Campbell Street, Bergview Oos, Musina, South Africa",Musina,Bergview Oos,N/A
411,Openserve Property,-30.82,30.4,"4 Clive Road, Margate, South Africa",Margate,N/A,
1355,Openserve Property,-25.71,28.31,"John Sidney Drive, Eersterust, Gauteng, 0021, South Africa",N/A,Eersterust,0021
59,Openserve Property,-33.02,27.85,"24 Bishop Road, East London, South Africa",East London,N/A,
25142,Openserve Property,-27.2,25.3,"353 Phutiyagae Street, Schweizer-reneke, South Africa",Schweizer-reneke,N/A,
482,Openserve Property,-30.72,25.1,"Cambell Street, Colesberg, South Africa",Colesberg,N/A,
261,Openserve Property,-29.9,31.03,"Benjamin Road, Fynnland, Durban, 4052, South Africa",Durban,Fynnland,4052
4112,Openserve Property,-26.48,27.85,"Stretford, South Africa",Stretford,N/A,
1827,Openserve Property,-29.63,30.43,"The Msunduzi Nu, South Africa",The Msunduzi Nu,N/A,
1861,Openserve Property,-27.72,29.96,"66 Kobalt Road, Newcastle, South Africa",Newcastle,N/A,
4680,Openserve Property,-22.01,30.02,No result found,No result found,No result found,No result found
2883,Openserve Property,-33.89,18.56,"18 Louwtjie Rothman Street, Goodwood, South Africa",Goodwood,N/A,
2098,Openserve Property,-33.96,18.7,"Erika Road, Blackheath, Western Cape, 7580, South Africa",N/A,Blackheath,7580
90,Openserve Property,-33.93,25.42,"Old Cape Road, Nelson Mandela Bay Nu, South Africa",Nelson Mandela Bay Nu,N/A,
358,Openserve Property,-29.78,30.95,"Cornfield Crescent, Newlands, Durban, 7090, South Africa",Durban,Newlands,7090
176,Openserve Property,-33.98,25.49,"Sonop Street, Port Elizaberth, South Africa",Port Elizaberth,N/A,
1545,Openserve Property,-26.63,27.94,"18 Mint Street, Vereeniging, South Africa",Vereeniging,N/A,
852,Openserve Property,-34.02,20.44,"21 Buitekant Street, Swellendam, South Africa",Swellendam,N/A,
2237,Openserve Property,-33.99,19.29,"9 Victoria Street, Villiersdorp, South Africa",Villiersdorp,N/A,
24776,Openserve Property,-32.99,27.91,"4A Chamberlain Road, East London, South Africa",East London,N/A,
1377,Openserve Property,-25.44,31.68,"Sentrum Street, Nkomazi Ward 29, Nkomazi, South Africa",Nkomazi,Nkomazi Ward 29,N/A
1842,Openserve Property,-28.57,29.79,"Ladysmith, South Africa",Ladysmith,N/A,
1345,Openserve Property,-25.91,27.04,"Railway Street, Kgetlengrivier Ward 3, Kgetleng River Local Municipality, South Africa",Kgetleng River Local Municipality,Kgetlengrivier Ward 3,N/A
427,Openserve Property,-30.31,30.66,"Umzinto, South Africa",Umzinto,N/A,
1544,Openserve Property,-23.88,29.44,"25 Doornkraal Street, Polokwane, South Africa",Polokwane,N/A,
1646,Openserve Property,-23.9,29.5,"Thabo Mbeki Street, Polokwane Ward 20, Polokwane, 0787, South Africa",Polokwane,Polokwane Ward 20,0787
1760,Openserve Property,-26.87,26.63,"unnamed road, Freemanville, Klerksdorp, 2572, South Africa",Klerksdorp,Freemanville,2572
6265,Openserve Property,-22.23,30,"unnamed road, Arton Villa, Musina Local Municipality, South Africa",Musina Local Municipality,Arton Villa,N/A
1500,Openserve Property,-25.83,25.82,"Mahikeng Ward 28, Mahikeng Local Municipality, Ngaka Modiri Molema District Municipality, South Africa",Mahikeng Local Municipality,Mahikeng Ward 28,N/A
792,Openserve Property,-34.1,18.38,"Street, Noordhoek, South Africa",Noordhoek,N/A,
1542,Openserve Property,-26.31,27.76,"Westonaria Nu, South Africa",Westonaria Nu,N/A,
424,Openserve Property,-29.01,31,"unnamed road, Maphumulo Ward 2, Maphumulo Local Municipality, South Africa",Maphumulo Local Municipality,Maphumulo Ward 2,N/A
762,Openserve Property,-32.97,18.15,"2nd Street, Langebaanweg, South Africa",Langebaanweg,N/A,
10775,Openserve Property,-28.77,31.89,"35 Sigma Crescent, Empangeni, South Africa",Empangeni,N/A,
4,Openserve Property,-28.76,24.73,"Kimberley, South Africa",Kimberley,N/A,
1337,Openserve Property,-25.26,29.14,"unnamed road, Elias Motsoaledi Ward 9, Elias Motsoaledi Local Municipality, 1030, South Africa",Elias Motsoaledi Local Municipality,Elias Motsoaledi Ward 9,1030
2108,Openserve Property,-26.37,28.92,"10 Smits Street, Leandra, South Africa",Leandra,N/A,
5131,Openserve Property,-30.3,27.08,"Reichenberg Street, Mohokare Ward 5, Mohokare Local Municipality, South Africa",Mohokare Local Municipality,Mohokare Ward 5,N/A
2169,Openserve Property,-33.69,18.99,"Goniwe Street, Drakenstein Ward 16, Paarl, 7320, South Africa",Paarl,Drakenstein Ward 16,7320
12953,Openserve Property,-29.99,30.7,"Nungwane, South Africa",Nungwane,N/A,
5137,Openserve Property,-28.03,27.85,"S213, Nketoana Ward 5, Nketoana Local Municipality, South Africa",Nketoana Local Municipality,Nketoana Ward 5,N/A
1730,Openserve Property,-26.58,27.83,"Dingaka Street, Sebokeng Unit 19, Emfuleni Local Municipality, 1983, South Africa",Emfuleni Local Municipality,Sebokeng Unit 19,1983
2201,Openserve Property,-34.03,18.62,"31 Lantana Street, Mitchells Plain, South Africa",Mitchells Plain,N/A,
4885,Openserve Property,-29.86,30.86,"38 Wiltshire Road, Pinetown, South Africa",Pinetown,N/A,
557,Openserve Property,-29.75,31.02,"Kwamashu, South Africa",Kwamashu,N/A,
2217,Openserve Property,-34.01,18.63,"Tennyson Street, Mandalay, Western Cape, 7785, South Africa",N/A,Mandalay,7785
9953,Openserve Property,-26.18,26.13,"1190 Ifamu Street, Boikhutso, South Africa",Boikhutso,N/A,
1867,Openserve Property,-30.71,30.48,"Commercial Road, Hibiscus Coast Ward 16, Hibiscus Coast Local Municipality, 4241, South Africa",Hibiscus Coast Local Municipality,Hibiscus Coast Ward 16,4241
1526,Openserve Property,-25.33,31.02,"Pater Graham Street, Mbombela Ward 30, Mbombela, 1240, South Africa",Mbombela,Mbombela Ward 30,1240
1726,Openserve Property,-25.6,28,"6074 Makoto Street, Ga-rankuwa, South Africa",Ga-rankuwa,N/A,
1681,Openserve Property,-26.71,27.04,"Daniel Street, Promosa, Potchefstroom, 2539, South Africa",Potchefstroom,Promosa,2539
1763,Openserve Property,-25.79,29.5,"Street, Middelburg, South Africa",Middelburg,N/A,
3737,Openserve Property,-25.67,31.86,"Kamaqhekeza, South Africa",Kamaqhekeza,N/A,
101,Openserve Property,-34.05,23.1,"673 Harker Street, Knysna, South Africa",Knysna,N/A,
43544,Openserve Property,-33.32,27.34,"unnamed road, Ngqushwa Ward 11, Ngqushwa Local Municipality, South Africa",Ngqushwa Local Municipality,Ngqushwa Ward 11,N/A
28163,Openserve Property,-27.64,25.57,"Unknown Street, Boitumelong, South Africa",Boitumelong,N/A,
6103,Openserve Property,-29,25,"Letsemeng Ward 3, Letsemeng Local Municipality, Xhariep District Municipality, South Africa",Letsemeng Local Municipality,Letsemeng Ward 3,N/A
361,Openserve Property,-26.91,31.65,No result found,No result found,No result found,No result found
429,Openserve Property,-27.66,30.33,"15 Generaal Street, Utrecht, South Africa",Utrecht,N/A,
1789,Openserve Property,-25.64,27.23,"6A Mangaan Street, Rustenburg, South Africa",Rustenburg,N/A,
915,Openserve Property,-26.2,28.42,"Cloverfield Road, Dersley, Gauteng, 1520, South Africa",N/A,Dersley,1520
1716,Openserve Property,-25.38,30.98,"Solomon Street, Mbombela Ward 30, Mbombela, South Africa",Mbombela,Mbombela Ward 30,N/A
809,Openserve Property,-33.29,19.33,"Joubert Street, Witzenberg Ward 4, Witzenberg Local Municipality, South Africa",Witzenberg Local Municipality,Witzenberg Ward 4,N/A
3913,Openserve Property,-26.34,28.2,"Igologola Street, Ekurhuleni Ward 95, Gauteng, 1475, South Africa",N/A,Ekurhuleni Ward 95,1475
431,Openserve Property,-31.01,30.25,"Street, Port Edward, South Africa",Port Edward,N/A,
126,Openserve Property,-33.96,22.48,"54 Meyer Street, George, South Africa",George,N/A,
1915,Openserve Property,-27.03,28.6,"Frankfort Street, Mafube Ward 4, Mafube Local Municipality, 9840, South Africa",Mafube Local Municipality,Mafube Ward 4,9840
1889,Openserve Property,-28.29,29.02,"8 Street, Tshiame, South Africa",Tshiame,N/A,
1252,Openserve Property,-32.58,27.89,"14 Camp Street, Komga, South Africa",Komga,N/A,
76,Openserve Property,-24.15,28.98,"Dudu Madisha Drive, Mogalakwena Ward 27, Mogalakwena Local Municipality, 0728, South Africa",Mogalakwena Local Municipality,Mogalakwena Ward 27,0728
518,Openserve Property,-29.53,27.14,"Anderson Street, Hobhouse, South Africa",Hobhouse,N/A,
1832,Openserve Property,-30.76,30.41,"P200, Hibiscus Coast Ward 20, Hibiscus Coast Local Municipality, 4240, South Africa",Hibiscus Coast Local Municipality,Hibiscus Coast Ward 20,4240
1328,Openserve Property,-26.04,29.33,"unnamed road, Springbok, Emalahleni Local Municipality, 1451, South Africa",Emalahleni Local Municipality,Springbok,1451
1637,Openserve Property,-26.42,29.1,"9 Joel Road, Kinross, South Africa",Kinross,N/A,
1607,Openserve Property,-33.83,20.05,"11 Kort Street, Ashton, South Africa",Ashton,N/A,
162,Openserve Property,-33.99,22.48,"King Street, Lawaaikamp, George, 6519, South Africa",George,Lawaaikamp,6519
2332,Openserve Property,-28.54,24.53,"0 Street, Barkly West, South Africa",Barkly West,N/A,
5099,Openserve Property,-30,24.74,"39 Madelifie Street, Vanderkloof, South Africa",Vanderkloof,N/A,
9943,Openserve Property,-31.55,29.02,"Null, Mareweni, South Africa",Mareweni,N/A,
1539,Openserve Property,-26.87,26.58,"60 Nieuwehoudt Avenue, Klerksdorp, South Africa",Klerksdorp,N/A,
2339,Openserve Property,-28.02,23,"Tsantsabane Ward 6, Tsantsabane Local Municipality, ZF Mgcawu District Municipality, South Africa",Tsantsabane Local Municipality,Tsantsabane Ward 6,N/A
323,Openserve Property,-29.15,31.41,"Mandeni, South Africa",Mandeni,N/A,
1692,Openserve Property,-25.02,30,"Greater Tubatse Ward 31, Greater Tubatse Local Municipality, 1133, South Africa",Greater Tubatse Local Municipality,Greater Tubatse Ward 31,1133
1685,Openserve Property,-27.16,30.86,"unnamed road, Mkhondo Ward 9, Mkhondo Local Municipality, South Africa",Mkhondo Local Municipality,Mkhondo Ward 9,N/A
11190,Openserve Property,-31.61,28.75,"18 C K Madikizela Street, Mthatha, South Africa",Mthatha,N/A,
3914,Openserve Property,-26.35,28.22,"6781 Montinyane Street, Vosloorus, South Africa",Vosloorus,N/A,
6076,Openserve Property,-30.03,30.91,"Durban, South Africa",Durban,N/A,
7866,Openserve Property,-32.95,27.69,"627 Street, Mdantsane, South Africa",Mdantsane,N/A,
111,Openserve Property,-33.15,27.7,"Harmony Street, Buffalo City Ward 31, Kidd's Beach, South Africa",Kidd's Beach,Buffalo City Ward 31,N/A
5901,Openserve Property,-26.21,30.99,"Houtbos, South Africa",Houtbos,N/A,
1548,Openserve Property,-25.96,30.56,"Badplaas, South Africa",Badplaas,N/A,
1322,Openserve Property,-25.8,27.89,"Madibeng Nu, South Africa",Madibeng Nu,N/A,
73,Openserve Property,-32.97,27.83,"53 Klein Road, East London, South Africa",East London,N/A,
9705,Openserve Property,-29.01,26,"Mangaung Metropolitan Municipality, South Africa",N/A,N/A,N/A
5130,Openserve Property,-30.21,26.53,"Smithfield, South Africa",Smithfield,N/A,
1628,Openserve Property,-25.18,31.11,"Swalala, South Africa",Swalala,N/A,
1291,Openserve Property,-32.62,24.69,"unnamed road, Blue Crane Route Ward 4, Blue Crane Route Local Municipality, South Africa",Blue Crane Route Local Municipality,Blue Crane Route Ward 4,N/A
92,Openserve Property,-34.04,22.22,"Groot Brakrivier, South Africa",Groot Brakrivier,N/A,
2983,Openserve Property,-24.6,31.07,"Acornhoek, South Africa",Acornhoek,N/A,
533,Openserve Property,-29.41,25,"Luckhoff Road, Letsemeng Ward 5, Letsemeng Local Municipality, South Africa",Letsemeng Local Municipality,Letsemeng Ward 5,N/A
6405,Openserve Property,-30.86,29.85,"Null Street, Bizana, South Africa",Bizana,N/A,
506,Openserve Property,-28.94,26.33,"Mangaung Nu, South Africa",Mangaung Nu,N/A,
749,Openserve Property,-33.7,18.7,"Stillerust Road, Cape Town Ward 105, Western Cape, 7303, South Africa",N/A,Cape Town Ward 105,7303
4733,Openserve Property,-25.21,29.02,"Matshiding, South Africa",Matshiding,N/A,
2468,Openserve Property,-23.01,30.01,"Makhado Nu, South Africa",Makhado Nu,N/A,
558,Openserve Property,-28.9,27.88,"unnamed road, Setsoto Ward 14, Setsoto Local Municipality, South Africa",Setsoto Local Municipality,Setsoto Ward 14,N/A
1082,Openserve Property,-28.42,24.3,"Buys Street, Delportshoop, Dikgatlong Local Municipality, 8377, South Africa",Dikgatlong Local Municipality,Delportshoop,8377
1674,Openserve Property,-25.09,30.42,"Church Street, Thaba Chweu Ward 1, Thaba Chweu Local Municipality, 1120, South Africa",Thaba Chweu Local Municipality,Thaba Chweu Ward 1,1120
79,Openserve Property,-33.03,27.89,"Rayon Road, Buffalo City Ward 46, East London, 5208, South Africa",East London,Buffalo City Ward 46,5208
4103,Openserve Property,-25.66,27.26,"62 Dawes Street, Rustenburg, South Africa",Rustenburg,N/A,
30,Openserve Property,-28.45,21.21,"unnamed road, ǁKhara Hais Ward 10, Upington, 8815, South Africa",Upington,ǁKhara Hais Ward 10,8815
8796,Openserve Property,-28.74,32.08,"23 Pitpit Place, Richards Bay, South Africa",Richards Bay,N/A,
5245,Openserve Property,-30.07,30.84,"1 10146 Street, Illovo North, South Africa",Illovo North,N/A,
2243,Openserve Property,-33.84,19.02,"Street, Drakenstein Nu, South Africa",Drakenstein Nu,N/A,
2191,Openserve Property,-33.06,18.35,"20 Sand Street, Hopefield, South Africa",Hopefield,N/A,
4027,Openserve Property,-26.54,27.82,"unnamed road, Beverley Hills, Emfuleni Local Municipality, 1985, South Africa",Emfuleni Local Municipality,Beverley Hills,1985
636,Openserve Property,-29.73,27,"R26;R702, Naledi Ward 3, Naledi Local Municipality, 9944, South Africa",Naledi Local Municipality,Naledi Ward 3,9944
1834,Openserve Property,-28.72,32.04,"Gibbum Grove, Brackenham, Richards Bay, 3900, South Africa",Richards Bay,Brackenham,3900
1683,Openserve Property,-26.76,27.06,"D2036, Tlokwe Ward 2, Potchefstroom, 2539, South Africa",Potchefstroom,Tlokwe Ward 2,2539
1507,Openserve Property,-25.65,26.69,"Street, Swartruggens, South Africa",Swartruggens,N/A,
3824,Openserve Property,-24.71,29.41,"Elandskraal, South Africa",Elandskraal,N/A,
1794,Openserve Property,-27.72,29.92,"Loerie Avenue, Aviary Hill, Newcastle, 2955, South Africa",Newcastle,Aviary Hill,2955
871,Openserve Property,-34.67,20.23,"Street, Arniston, South Africa",Arniston,N/A,
2190,Openserve Property,-34.07,19.37,"unnamed road, Theewaterskloof Ward 5, Theewaterskloof Local Municipality, South Africa",Theewaterskloof Local Municipality,Theewaterskloof Ward 5,N/A
1632,Openserve Property,-26.02,26,"Ditsobotla Ward 10, Ditsobotla Local Municipality, Ngaka Modiri Molema District Municipality, South Africa",Ditsobotla Local Municipality,Ditsobotla Ward 10,N/A
2912,Openserve Property,-25.3,28.94,"unnamed road, Kwaggafontein, Thembisile Hani Local Municipality, 0458, South Africa",Thembisile Hani Local Municipality,Kwaggafontein,0458
1852,Openserve Property,-30.88,30.35,"760/15 Ridge Road, Margate, South Africa",Margate,N/A,
1389,Openserve Property,-25.54,31.33,"Nkomazi Nu, South Africa",Nkomazi Nu,N/A,
2981,Openserve Property,-25.52,31.35,"242 Misty Street, Matsulu, South Africa",Matsulu,N/A,
5950,Openserve Property,-22.91,30.23,"Mandala, South Africa",Mandala,N/A,
4114,Openserve Property,-26.73,27.59,"Vaaloewer Drive, Vaal Oewer, Emfuleni Local Municipality, 1911, South Africa",Emfuleni Local Municipality,Vaal Oewer,1911
1115,Openserve Property,-29.35,21.15,"Hope Street, Kai !Garib Ward 9, Kai !Garib Local Municipality, 8900, South Africa",Kai !Garib Local Municipality,Kai !Garib Ward 9,8900
53,Openserve Property,-33.95,22.42,"34 Oakland Village, George, South Africa",George,N/A,
155,Openserve Property,-31.91,26.92,"4 Watt Road, Queenstown, South Africa",Queenstown,N/A,
25131,Openserve Property,-31.92,26.86,"92 Oleander Drive, Queenstown, South Africa",Queenstown,N/A,
725,Openserve Property,-33.3,19.04,"521 Main Street, Gouda, South Africa",Gouda,N/A,
2225,Openserve Property,-34.2,18.37,"Beach Road, Scarborough, Western Cape, South Africa",N/A,Scarborough,N/A
9949,Openserve Property,-32.27,28.51,"unnamed road, Willowvale, Mbhashe Local Municipality, South Africa",Mbhashe Local Municipality,Willowvale,N/A
5980,Openserve Property,-30.53,27.37,"Street, Tienbank, South Africa",Tienbank,N/A,
110,Openserve Property,-34.01,23.42,"Keurboomstrand, South Africa",Keurboomstrand,N/A,
2238,Openserve Property,-34.41,19.28,"117 11th Street, Hermanus, South Africa",Hermanus,N/A,
1667,Openserve Property,-27.32,26,"Potgieter Street, Lebaleng, Maquassi Hills Local Municipality, South Africa",Maquassi Hills Local Municipality,Lebaleng,N/A
1380,Openserve Property,-26.16,29.71,"Beukes Street, Hendrina, South Africa",Hendrina,N/A,
423,Openserve Property,-29.67,31.12,"North Beach Road, Umdloti / eMdloti, 4350, South Africa",Umdloti / eMdloti,Umdloti / eMdloti,4350
2701,Openserve Property,-31.04,23.13,"Ubuntu Nu, South Africa",Ubuntu Nu,N/A,
1770,Openserve Property,-25.49,29.03,"R544, Thembisile Hani Ward 8, Thembisile Hani Local Municipality, South Africa",Thembisile Hani Local Municipality,Thembisile Hani Ward 8,N/A
4177,Openserve Property,-26.36,28.22,"Street, Vosloorus, South Africa",Vosloorus,N/A,
2197,Openserve Property,-31.78,18.63,"Gordon Street, Klawer, South Africa",Klawer,N/A,
1808,Openserve Property,-30.2,30.75,"12 300129 Street, Craigieburn, South Africa",Craigieburn,N/A,
1202,Openserve Property,-28.75,32.03,"Bronze Bar Street, uMhlathuze Ward 2, Richards Bay, 3900, South Africa",Richards Bay,uMhlathuze Ward 2,3900
21,Openserve Property,-28.44,21.29,"Patrys Road, Keidebees, Upington, 8815, South Africa",Upington,Keidebees,8815
12501,Openserve Property,-28.83,24.27,"Sol Plaatjie Nu, South Africa",Sol Plaatjie Nu,N/A,
1350,Openserve Property,-24.59,30.16,"Maglopi, South Africa",Maglopi,N/A,
57561,Openserve Property,-33.42,25.24,"R75, Sundays River Valley Ward 7, Sundays River Valley Local Municipality, South Africa",Sundays River Valley Local Municipality,Sundays River Valley Ward 7,N/A
3290,Openserve Property,-24.76,29.87,"Jane Furse, South Africa",Jane Furse,N/A,
1802,Openserve Property,-29.47,28.99,No result found,No result found,No result found,No result found
3107,Openserve Property,-33.46,18.71,"Darling Way, Wesbank, South Africa",Wesbank,N/A,
5092,Openserve Property,-29.02,24.63,"N12, Sol Plaatje Ward 26, Sol Plaatje Local Municipality, South Africa",Sol Plaatje Local Municipality,Sol Plaatje Ward 26,N/A
108,Openserve Property,-32.71,27.55,"Null, Emthonjini, South Africa",Emthonjini,N/A,
45565,Openserve Property,-29.83,30.96,"Lincoln Terrace, eThekwini Ward 24, Durban, 4001, South Africa",Durban,eThekwini Ward 24,4001
3989,Openserve Property,-27.78,30.06,"1724 Mf57 Street, Madadeni, South Africa",Madadeni,N/A,
1627,Openserve Property,-26.84,30.53,"1169 Unknown Street, Iswepe, South Africa",Iswepe,N/A,
768,Openserve Property,-33.98,18.77,"Lynedoch, South Africa",Lynedoch,N/A,
1673,Openserve Property,-23.59,28.4,"D2643, Marken, Mogalakwena Local Municipality, South Africa",Mogalakwena Local Municipality,Marken,N/A
1619,Openserve Property,-27.01,26.01,"Maquassi Hills, South Africa",Maquassi Hills,N/A,
6176,Openserve Property,-27.35,31.58,"611 Unknown Street, Ncotshane B, South Africa",Ncotshane B,N/A,
1858,Openserve Property,-29.67,30.34,"Edendale, South Africa",Edendale,N/A,
373,Openserve Property,-29.39,30.68,"R614, uMshwathi Ward 7, uMshwathi Local Municipality, South Africa",uMshwathi Local Municipality,uMshwathi Ward 7,N/A
11317,Openserve Property,-32.9,27.29,"unnamed road, KwaNonkcampa, Gwaba, South Africa",Gwaba,KwaNonkcampa,N/A
1589,Openserve Property,-23.69,30.14,"Mephisto Drive, Greater Letaba Ward 29, Greater Letaba Local Municipality, South Africa",Greater Letaba Local Municipality,Greater Letaba Ward 29,N/A
1644,Openserve Property,-25.65,27.81,"Street, Brits, South Africa",Brits,N/A,
148,Openserve Property,-34.01,22.45,"Beach Road, George Ward 14, George, 6534, South Africa",George,George Ward 14,6534
1879,Openserve Property,-27.24,28.85,"Null, Cornelia, South Africa",Cornelia,N/A,
2178,Openserve Property,-34.06,18.79,"N2, Firgrove, Somerset West, 7110, South Africa",Somerset West,Firgrove,7110
228,Openserve Property,-28.01,30.38,"Street, Endumeni Nu, South Africa",Endumeni Nu,N/A,
16782,Openserve Property,-33.94,22.04,"unnamed road, Mossel Bay Ward 14, George, South Africa",George,Mossel Bay Ward 14,N/A
1651,Openserve Property,-24.91,27.73,"unnamed road, Thabazimbi Ward 4, Thabazimbi Local Municipality, South Africa",Thabazimbi Local Municipality,Thabazimbi Ward 4,N/A
1868,Openserve Property,-30.64,30.53,"174 6th Avenue, Phumula, South Africa",Phumula,N/A,
1074,Openserve Property,-28.8,23.72,"35 Klieniek Street, Campbell, South Africa",Campbell,N/A,
416,Openserve Property,-29.73,30.38,"unnamed road, Richmond Ward 3, Richmond Local Municipality, South Africa",Richmond Local Municipality,Richmond Ward 3,N/A
1900,Openserve Property,-27.65,28.13,"306 Eeufees Street, Petrus Steyn, South Africa",Petrus Steyn,N/A,
1493,Openserve Property,-25.01,28,"unnamed road, Mnukubyane, Moretele Local Municipality, South Africa",Moretele Local Municipality,Mnukubyane,N/A
107,Openserve Property,-33.95,24.29,"Baken Street, Kagiso Heights, Kou-Kamma Local Municipality, 6400, South Africa",Kou-Kamma Local Municipality,Kagiso Heights,6400
2239,Openserve Property,-34.07,19.12,"Theewaterskloof Nu, South Africa",Theewaterskloof Nu,N/A,
1146,Openserve Property,-29.03,19.15,"unnamed road, Khâi-Ma Ward 3, Khâi-Ma Local Municipality, South Africa",Khâi-Ma Local Municipality,Khâi-Ma Ward 3,N/A
5129,Openserve Property,-30.42,26.84,"Albertijn Street, Mohokare Ward 2, Mohokare Local Municipality, 9958, South Africa",Mohokare Local Municipality,Mohokare Ward 2,9958
728,Openserve Property,-34.05,19.61,"Cross Market Street, Heuwelkroon, Theewaterskloof Local Municipality, 7233, South Africa",Theewaterskloof Local Municipality,Heuwelkroon,7233
607,Openserve Property,-27.95,27.56,"Steynsrus, South Africa",Steynsrus,N/A,
250,Openserve Property,-30.95,30.28,"unnamed road, Hibiscus Coast Ward 1, Hibiscus Coast Local Municipality, South Africa",Hibiscus Coast Local Municipality,Hibiscus Coast Ward 1,N/A
1865,Openserve Property,-28.28,31.44,"1513 Mlilowothathe Street, Ulundi, South Africa",Ulundi,N/A,
3221,Openserve Property,-24.84,29.81,"unnamed road, Makhuduthamaga Ward 8, Makhuduthamaga Local Municipality, 1085, South Africa",Makhuduthamaga Local Municipality,Makhuduthamaga Ward 8,1085
8664,Openserve Property,-33.5,19.83,"Breede Valley Nu, South Africa",Breede Valley Nu,N/A,
783,Openserve Property,-33.83,18.83,"unnamed road, Stellenbosch Ward 19, Stellenbosch Local Municipality, 7607, South Africa",Stellenbosch Local Municipality,Stellenbosch Ward 19,7607
353,Openserve Property,-29.35,30.52,"P550, uMshwathi Ward 1, uMshwathi Local Municipality, 3230, South Africa",uMshwathi Local Municipality,uMshwathi Ward 1,3230
421,Openserve Property,-28.75,30.45,"unnamed road, Msinga Ward 14, Msinga Local Municipality, 3010, South Africa",Msinga Local Municipality,Msinga Ward 14,3010
79028,Openserve Property,-23.31,30.69,"Main, Greater Giyani Ward 11, Greater Giyani Local Municipality, 0826, South Africa",Greater Giyani Local Municipality,Greater Giyani Ward 11,0826
1755,Openserve Property,-23.01,28.57,"unnamed road, Blouberg Local Municipality, Tolwe, South Africa",Tolwe,Blouberg Local Municipality,N/A
273,Openserve Property,-28.44,30.42,"Msinga Nu, South Africa",Msinga Nu,N/A,
295,Openserve Property,-30.79,30.13,"unnamed road, Ezinqoleni Ward 6, Ezinqoleni Local Municipality, South Africa",Ezinqoleni Local Municipality,Ezinqoleni Ward 6,N/A
541,Openserve Property,-30.71,27.22,"Cloete Street, Lady Grey, South Africa",Lady Grey,N/A,
173,Openserve Property,-32.91,28.02,"unnamed road, Buffalo City Ward 27, Eastern Cape, 5257, South Africa",N/A,Buffalo City Ward 27,5257
1891,Openserve Property,-28.13,26.91,"Street, Meloding, South Africa",Meloding,N/A,
1843,Openserve Property,-33.35,18.87,"Riebeek West, South Africa",Riebeek West,N/A,
547,Openserve Property,-29.16,25.99,"Mangaung Nu, South Africa",Mangaung Nu,N/A,
769,Openserve Property,-34.06,18.76,"Felix Street, Cape Town Ward 109, Western Cape, 7134, South Africa",N/A,Cape Town Ward 109,7134
2244,Openserve Property,-33.67,18.92,"unnamed road, Drakenstein Ward 3, Paarl, 7630, South Africa",Paarl,Drakenstein Ward 3,7630
11188,Openserve Property,-31.57,28.66,"King Sabata Dalindyebo Nu, South Africa",King Sabata Dalindyebo Nu,N/A,
2390,Openserve Property,-33.98,23.81,"unnamed road, Kou-Kamma Ward 2, Kou-Kamma Local Municipality, South Africa",Kou-Kamma Local Municipality,Kou-Kamma Ward 2,N/A
4003,Openserve Property,-26.04,31.02,"53 Unknown Street, Ekulindeni, South Africa",Ekulindeni,N/A,
434,Openserve Property,-29.43,30.58,"High Street, uMshwathi Ward 7, uMshwathi Local Municipality, South Africa",uMshwathi Local Municipality,uMshwathi Ward 7,N/A
707,Openserve Property,-31.82,18.24,"Baker Street, Matzikama Ward 2, Matzikama Local Municipality, 8151, South Africa",Matzikama Local Municipality,Matzikama Ward 2,8151
3437,Openserve Property,-32.57,27.45,"2592 Null, Stutterheim, South Africa",Stutterheim,N/A,
2228,Openserve Property,-34.12,18.91,"679 Mandela, Somerset West, South Africa",Somerset West,N/A,
95,Openserve Property,-34.12,22.11,"Onzerust Avenue, Mossel Bay Ward 10, George, 6506, South Africa",George,Mossel Bay Ward 10,6506
303,Openserve Property,-28.97,30.87,"Kranskop, South Africa",Kranskop,N/A,
1556,Openserve Property,-25.85,29.25,"Street, Emalahleni, South Africa",Emalahleni,N/A,
15368,Openserve Property,-28.77,17.62,"287 Keerom Street, Vioolsdrift, South Africa",Vioolsdrift,N/A,
4141,Openserve Property,-33.73,26.57,"unnamed road, Ndlambe Ward 2, Ndlambe Local Municipality, South Africa",Ndlambe Local Municipality,Ndlambe Ward 2,N/A
29760,Openserve Property,-28.5,20.14,"Street, Kai !Garib Nu, South Africa",Kai !Garib Nu,N/A,
67,Openserve Property,-33.69,25.81,"unnamed road, Nelson Mandela Bay Ward 53, Colchester, South Africa",Colchester,Nelson Mandela Bay Ward 53,N/A
394,Openserve Property,-29.3,29.98,"R103, Mpofana Ward 2, Mpofana Local Municipality, South Africa",Mpofana Local Municipality,Mpofana Ward 2,N/A
64,Openserve Property,-32.82,28.11,"unnamed road, Cintsa East, Great Kei Local Municipality, 5275, South Africa",Great Kei Local Municipality,Cintsa East,5275
9757,Openserve Property,-32.32,28.2,"unnamed road, Mnquma Ward 4, Mnquma Local Municipality, 5240, South Africa",Mnquma Local Municipality,Mnquma Ward 4,5240
10595,Openserve Property,-28.72,24.78,"Kenilworth Road, Moghul Park, Sol Plaatje Local Municipality, 8301, South Africa",Sol Plaatje Local Municipality,Moghul Park,8301
569,Openserve Property,-28.3,27.95,"415 Voortrekker Street, Paul Roux, South Africa",Paul Roux,N/A,
2173,Openserve Property,-32.7,18.23,"Dwarskersbos, South Africa",Dwarskersbos,N/A,
828,Openserve Property,-33.18,19,"Wittewater Street, Saron, South Africa",Saron,N/A,
86,Openserve Property,-34.05,21.28,"Hessequa Ward 6, George, Western Cape, South Africa",George,Hessequa Ward 6,N/A
404,Openserve Property,-29.21,30.6,"Street, Umvoti Nu, South Africa",Umvoti Nu,N/A,
12586,Openserve Property,-25.86,28.33,"2018 Duiker, Rietfontein, South Africa",Rietfontein,N/A,
43585,Openserve Property,-29.78,31,"20 Imvubupark Close, Newlands East, South Africa",Newlands East,N/A,
1934,Openserve Property,-29.57,30.19,"3109 Zothi Road, Mpophomeni, South Africa",Mpophomeni,N/A,
715,Openserve Property,-34.03,18.75,"Old Main Road, Cape Town Ward 109, Western Cape, 7131, South Africa",N/A,Cape Town Ward 109,7131
1775,Openserve Property,-27.35,30.14,"Street, Wakkestroom, South Africa",Wakkestroom,N/A,
12368,Openserve Property,-30.03,30.88,"Moss Kolnik Drive, Zulwini Gardens, KwaMakhutha, 4125, South Africa",KwaMakhutha,Zulwini Gardens,4125
855,Openserve Property,-33.34,20.04,"2nd Street, Breede Valley Local Municipality, 6880, South Africa",Breede Valley Local Municipality,N/A,6880
6106,Openserve Property,-27.21,24.1,"Greater Taung Nu, South Africa",Greater Taung Nu,N/A,
11680,Openserve Property,-22.02,30,No result found,No result found,No result found,No result found
13437,Openserve Property,-33.08,25.85,"Street, Blue Crane Route Nu, South Africa",Blue Crane Route Nu,N/A,
621,Openserve Property,-29.99,27.01,"unnamed road, Naledi Ward 3, Naledi Local Municipality, South Africa",Naledi Local Municipality,Naledi Ward 3,N/A
57,Openserve Property,-34.06,23.02,"348 Dolphine Street, Knysna, South Africa",Knysna,N/A,
2184,Openserve Property,-34.04,19.56,"751 Volks Road, Genadendal, South Africa",Genadendal,N/A,
1890,Openserve Property,-27.39,26.65,"426 Lediga Street, Kgotsong, South Africa",Kgotsong,N/A,
4179,Openserve Property,-28.47,30.16,"Ekuvukeni, South Africa",Ekuvukeni,N/A,
1645,Openserve Property,-25.72,27.3,"Street, Waterkloof, South Africa",Waterkloof,N/A,
1565,Openserve Property,-23,31,"Thulamela Ward 40, Thulamela Local Municipality, Vhembe District Municipality, South Africa",Thulamela Local Municipality,Thulamela Ward 40,N/A
3349,Openserve Property,-26.51,27.87,"Lakeside, South Africa",Lakeside,N/A,
16,Openserve Property,-28.13,25.5,"79 Pretorius Street, Hertzogville, South Africa",Hertzogville,N/A,
2192,Openserve Property,-34.43,21.34,"Strand Street, Hessequa Ward 3, George, 6675, South Africa",George,Hessequa Ward 3,6675
2208,Openserve Property,-34.32,20.58,"Swellendam Nu, South Africa",Swellendam Nu,N/A,
27681,Openserve Property,-29.04,24.59,"261 Suiderkruis Street, Ritchie, South Africa",Ritchie,N/A,
1851,Openserve Property,-30.37,30.7,"21 Gamark, Scottburgh, South Africa",Scottburgh,N/A,
588,Openserve Property,-29.1,26.34,"Mangaung Nu, South Africa",Mangaung Nu,N/A,
791,Openserve Property,-31.38,19.11,"Nassua Street, Proteaville, Hantam Local Municipality, South Africa",Hantam Local Municipality,Proteaville,N/A
1575,Openserve Property,-26.5,28.06,"Meyerton, South Africa",Meyerton,N/A,
548,Openserve Property,-27.88,27.92,"3 George Lyon Street, Lindley, South Africa",Lindley,N/A,
4735,Openserve Property,-29.17,31.41,"Tugela, South Africa",Tugela,N/A,
2947,Openserve Property,-28.63,21.08,"Null, Bloemsmond, South Africa",Bloemsmond,N/A,
97,Openserve Property,-33.85,22.45,"George Nu, South Africa",George Nu,N/A,
6276,Openserve Property,-22.33,30.04,"22 Joubert Street, Musina, South Africa",Musina,N/A,
175,Openserve Property,-33.96,23.47,"N2, Bitou Ward 1, George, 6602, South Africa",George,Bitou Ward 1,6602
26,Openserve Property,-27.67,24.77,"N18, Phokwane Ward 4, Phokwane Local Municipality, South Africa",Phokwane Local Municipality,Phokwane Ward 4,N/A
1201,Openserve Property,-33.32,26.09,"1479 Null Street, Alicedale, South Africa",Alicedale,N/A,
1830,Openserve Property,-29.7,30.68,"Panekeni, South Africa",Panekeni,N/A,
17270,Openserve Property,-28.26,22.08,"unnamed road, Tsantsabane Ward 6, Tsantsabane Local Municipality, South Africa",Tsantsabane Local Municipality,Tsantsabane Ward 6,N/A
754,Openserve Property,-33.02,19.31,"14 Unknown Street, Op-die-berg, South Africa",Op-die-berg,N/A,
344,Openserve Property,-28.97,30.4,"R74, Muden, Umvoti Local Municipality, South Africa",Umvoti Local Municipality,Muden,N/A
648,Openserve Property,-33.56,18.5,"3 Calton Street, Atlantis, South Africa",Atlantis,N/A,
31,Openserve Property,-29.33,22.84,"unnamed road, Siyathemba Ward 4, Siyathemba Local Municipality, South Africa",Siyathemba Local Municipality,Siyathemba Ward 4,N/A
39141,Openserve Property,-28.09,20.01,"Null Street, Kai !Garib Nu, South Africa",Kai !Garib Nu,N/A,
711,Openserve Property,-32.69,18.88,"Stasie Way, Eendekuil, South Africa",Eendekuil,N/A,
100,Openserve Property,-33.97,22.62,"552 Duiwerivier Way, Wilderness, South Africa",Wilderness,N/A,
125,Openserve Property,-33.87,25.03,"Loerieheuwel, South Africa",Loerieheuwel,N/A,
9,Openserve Property,-27.6,22.88,"unnamed road, Gamagara Ward 2, Gamagara Local Municipality, South Africa",Gamagara Local Municipality,Gamagara Ward 2,N/A
3014,Openserve Property,-28.75,24.78,"5 Atlas Street, Kimberley, South Africa",Kimberley,N/A,
1193,Openserve Property,-31.34,20.92,"4 Kerk Street, Williston, South Africa",Williston,N/A,
589,Openserve Property,-28.5,27.94,"unnamed road, Rosendal, Dihlabeng Local Municipality, South Africa",Dihlabeng Local Municipality,Rosendal,N/A
165,Openserve Property,-32.87,28.09,"unnamed road, Great Kei Ward 1, Great Kei Local Municipality, South Africa",Great Kei Local Municipality,Great Kei Ward 1,N/A
838,Openserve Property,-32.76,18.03,"8 Vanguard Street, St Helena Bay, South Africa",St Helena Bay,N/A,
724,Openserve Property,-34.16,18.87,"Berg Street, Gordon's Bay, Western Cape, 7151, South Africa",N/A,Gordon's Bay,7151
465,Openserve Property,-30.5,25.97,"42 Collins Street, Bethulie, South Africa",Bethulie,N/A,
1718,Openserve Property,-24.78,27.75,"Street, Rooiberg, South Africa",Rooiberg,N/A,
14590,Openserve Property,-32.82,26.99,"R T Bokwe Street, Middledrift, South Africa",Middledrift,N/A,
159,Openserve Property,-33.86,25.31,"Street, Nelson Mandela Bay Nu, South Africa",Nelson Mandela Bay Nu,N/A,
1591,Openserve Property,-25.93,29.24,"42 Sekelbos Street, Emalahleni, South Africa",Emalahleni,N/A,
34,Openserve Property,-28.71,24.71,"Grootboom Street, Sol Plaatje Ward 9, Sol Plaatje Local Municipality, 8330, South Africa",Sol Plaatje Local Municipality,Sol Plaatje Ward 9,8330
1828,Openserve Property,-29.04,30.8,"Street, Umvoti Nu, South Africa",Umvoti Nu,N/A,
104,Openserve Property,-34.05,24.91,"61 Koraal Street, Jeffrey's Bay, South Africa",Jeffrey's Bay,N/A,
3992,Openserve Property,-23.91,29.44,"Piccadilly Polokwane, 65 Nelson Mandela Drive, Ivy Park, Polokwane, 0699, South Africa",Polokwane,Ivy Park,0699
5090,Openserve Property,-29.13,24.77,"Bouw Street, Letsemeng Ward 3, Letsemeng Local Municipality, South Africa",Letsemeng Local Municipality,Letsemeng Ward 3,N/A
60,Openserve Property,-34.08,22.97,"Buffalo Bay Trail, Knysna Ward 5, George, South Africa",George,Knysna Ward 5,N/A
185,Openserve Property,-34.03,24.92,"6 Null Avenue, Jeffrey's Bay, South Africa",Jeffrey's Bay,N/A,
227,Openserve Property,-29.85,30.8,"unnamed road, eThekwini Ward 14, KwaZulu-Natal, 3608, South Africa",N/A,eThekwini Ward 14,3608
283,Openserve Property,-30.46,30.65,"Bullock Road, Ifafa Beach, uMdoni Local Municipality, 4186, South Africa",uMdoni Local Municipality,Ifafa Beach,4186
122,Openserve Property,-33.81,23.73,"unnamed road, Kou-Kamma Ward 2, Kou-Kamma Local Municipality, South Africa",Kou-Kamma Local Municipality,Kou-Kamma Ward 2,N/A
6120,Openserve Property,-26.82,25.1,"Street, Naledi Nu, South Africa",Naledi Nu,N/A,
1055,Openserve Property,-27.25,25.05,"unnamed road, Amalia, Mamusa Local Municipality, South Africa",Mamusa Local Municipality,Amalia,N/A
5983,Openserve Property,-31.72,28.69,"Null, Ngqwala A, South Africa",Ngqwala A,N/A,
2231,Openserve Property,-28.88,19.92,"N14, Kai !Garib Ward 9, Kai !Garib Local Municipality, South Africa",Kai !Garib Local Municipality,Kai !Garib Ward 9,N/A
45020,Openserve Property,-29.76,30.79,"Inanda Road, eThekwini Ward 8, Hillcrest, 3652, South Africa",Hillcrest,eThekwini Ward 8,3652
1378,Openserve Property,-25.88,27.62,"Mogale City Nu, South Africa",Mogale City Nu,N/A,
1254,Openserve Property,-33.8,23.66,"Louterwater, South Africa",Louterwater,N/A,
422,Openserve Property,-28.34,31.41,"Street, Mkhazane, South Africa",Mkhazane,N/A,
2054,Openserve Property,-34.2,22.04,"P. Nerifolia Street, Mossel Bay Ward 11, George, 6510, South Africa",George,Mossel Bay Ward 11,6510
2126,Openserve Property,-34.04,20.54,"Swellendam Nu, South Africa",Swellendam Nu,N/A,
517,Openserve Property,-27.45,27.42,"Ngwathe Nu, South Africa",Ngwathe Nu,N/A,
3065,Openserve Property,-29.81,29.77,"06 Street, Bulwer, South Africa",Bulwer,N/A,
3596,Openserve Property,-24.6,29.08,"Prinloo str, Mookgophong Ward 3, Mookgopong Local Municipality, 0580, South Africa",Mookgopong Local Municipality,Mookgophong Ward 3,0580
1684,Openserve Property,-23.59,30.1,"Greater Letaba Nu, South Africa",Greater Letaba Nu,N/A,
850,Openserve Property,-34,20.65,"Oorkant River Way, Suurbraak, South Africa",Suurbraak,N/A,
2219,Openserve Property,-34.34,18.83,"572 Anne Road, Pringle Bay, South Africa",Pringle Bay,N/A,
15862,Openserve Property,-27.91,25.17,"Street, Christiana, South Africa",Christiana,N/A,
610,Openserve Property,-28.21,28.33,"3157 Mkhumbeni Street, Thorisong, South Africa",Thorisong,N/A,
4119,Openserve Property,-33.91,25.61,"Stanbridge Street, Nelson Mandela Bay Ward 60, Gqeberha / Port Elizabeth, 6012, South Africa",Gqeberha / Port Elizabeth,Nelson Mandela Bay Ward 60,6012
812,Openserve Property,-33.92,18.64,"33 Oop Street, Bellville, South Africa",Bellville,N/A,
16783,Openserve Property,-34.05,22.39,"4 Skuinsbank Street, Herolds Bay, South Africa",Herolds Bay,N/A,
53635,Openserve Property,-27.37,30.53,"Edumbe Nu, South Africa",Edumbe Nu,N/A,
1235,Openserve Property,-32.58,26.94,"Street, Nkonkobe Nu, South Africa",Nkonkobe Nu,N/A,
13862,Openserve Property,-29.17,26.47,"Mangaung Ward 17, Mangaung Metropolitan Municipality, South Africa",N/A,Mangaung Ward 17,N/A
7569,Openserve Property,-31.89,23.07,"N1;N12, Ubuntu Ward 3, Ubuntu Local Municipality, South Africa",Ubuntu Local Municipality,Ubuntu Ward 3,N/A
2206,Openserve Property,-33.95,19.83,"40 Kerk Street, Mcgregor, South Africa",Mcgregor,N/A,
2313,Openserve Property,-32.98,21.69,"N1, Prince Albert Ward 1, Prince Albert Local Municipality, South Africa",Prince Albert Local Municipality,Prince Albert Ward 1,N/A
5738,Openserve Property,-25.12,28.99,"unnamed road, Kameelrivier, Dr JS Moroka Local Municipality, South Africa",Dr JS Moroka Local Municipality,Kameelrivier,N/A
4012,Openserve Property,-25.68,30,"2795 Unknown Street, Siyathuthuka, South Africa",Siyathuthuka,N/A,
9752,Openserve Property,-28.69,25.78,"Tokologo Nu, South Africa",Tokologo Nu,N/A,
1962,Openserve Property,-32.01,26.26,"1 Null, Tarkastad, South Africa",Tarkastad,N/A,
14618,Openserve Property,-26.54,28.05,"15 Sunbury Chase Road, Meyerton, South Africa",Meyerton,N/A,
9701,Openserve Property,-27.39,24.72,"Street, Greater Taung Nu, South Africa",Greater Taung Nu,N/A,
19785,Openserve Property,-25.44,30.97,"7 Government Street, Mbombela, South Africa",Mbombela,N/A,
760,Openserve Property,-32.14,18.31,"R365, Cederberg Ward 5, Cederberg Local Municipality, South Africa",Cederberg Local Municipality,Cederberg Ward 5,N/A
1194,Openserve Property,-28.33,24.71,"R374, Corn's Village, Dikgatlong Local Municipality, South Africa",Dikgatlong Local Municipality,Corn's Village,N/A
1643,Openserve Property,-26.26,29.27,"24 Flamingo Avenue, Ga-nala, South Africa",Ga-nala,N/A,
11575,Openserve Property,-25.17,27.17,"Moruleng, South Africa",Moruleng,N/A,
1069,Openserve Property,-30.47,20.49,"583 Dyers Street, Brandvlei, South Africa",Brandvlei,N/A,
40955,Openserve Property,-25.07,31.05,"Mbombela Nu, South Africa",Mbombela Nu,N/A,
1158,Openserve Property,-27.56,24.18,"12 Griesel Street, Boipelo, South Africa",Boipelo,N/A,
137,Openserve Property,-33.82,25.59,"Mgwalana Street, Nelson Mandela Bay Ward 59, Motherwell, 6211, South Africa",Motherwell,Nelson Mandela Bay Ward 59,6211
3202,Openserve Property,-24.58,30.32,"322 Unknown Street, Prakteseer, South Africa",Prakteseer,N/A,
3632,Openserve Property,-24.75,30.1,"Greater Tubatse Ward 6, Greater Tubatse Local Municipality, Sekhukhune District Municipality, South Africa",Greater Tubatse Local Municipality,Greater Tubatse Ward 6,N/A
5498,Openserve Property,-33.97,18.93,"unnamed road, Stellenbosch Ward 5, Stellenbosch Local Municipality, 7601, South Africa",Stellenbosch Local Municipality,Stellenbosch Ward 5,7601
3047,Openserve Property,-23.95,29.79,"unnamed road, Polokwane Ward 4, Polokwane Local Municipality, South Africa",Polokwane Local Municipality,Polokwane Ward 4,N/A
5101,Openserve Property,-29.94,23.68,"Parks Street, Strydenburg, South Africa",Strydenburg,N/A,
4448,Openserve Property,-25.08,31.08,"unnamed road, Mbombela Ward 3, Mbombela, 1241, South Africa",Mbombela,Mbombela Ward 3,1241
3943,Openserve Property,-24.87,29.75,"Phokoane, South Africa",Phokoane,N/A,
1316,Openserve Property,-25.05,29.51,"Tafelkop, South Africa",Tafelkop,N/A,
42180,Openserve Property,-25.28,25.71,"N4, Ramotshere Moiloa Ward 6, Ramotshere Moiloa Local Municipality, South Africa",Ramotshere Moiloa Local Municipality,Ramotshere Moiloa Ward 6,N/A
128,Openserve Property,-33.92,25.54,"unnamed road, Nelson Mandela Bay Ward 12, Gqeberha / Port Elizabeth, 6020, South Africa",Gqeberha / Port Elizabeth,Nelson Mandela Bay Ward 12,6020
1787,Openserve Property,-26.84,27.86,"Zamdela, South Africa",Zamdela,N/A,
1854,Openserve Property,-27.75,29.98,"23 Stephenson Street, Newcastle, South Africa",Newcastle,N/A,
1562,Openserve Property,-26.57,27.12,"unnamed road, Tlokwe Ward 3, Tlokwe Local Municipality, South Africa",Tlokwe Local Municipality,Tlokwe Ward 3,N/A
2213,Openserve Property,-33.49,19.62,"Breede Valley Nu, South Africa",Breede Valley Nu,N/A,
5134,Openserve Property,-29.65,26.06,"Kopanong Ward 1, Kopanong Local Municipality, 5900, South Africa",Kopanong Local Municipality,Kopanong Ward 1,5900
220,Openserve Property,-27.68,31.06,"unnamed road, Coronation, Abaqulusi Local Municipality, South Africa",Abaqulusi Local Municipality,Coronation,N/A
121,Openserve Property,-33.41,25.34,"Sundays River Valley Nu, South Africa",Sundays River Valley Nu,N/A,
1820,Openserve Property,-28.83,31.89,"33 Church Avenue, Empangeni, South Africa",Empangeni,N/A,
247,Openserve Property,-28.39,29.98,"Emnambithi/Ladysmith Ward 24, Emnambithi/Ladysmith Local Municipality, Uthukela District Municipality, South Africa",Emnambithi/Ladysmith Local Municipality,Emnambithi/Ladysmith Ward 24,N/A
3454,Openserve Property,-25.1,29.46,"822 Unknown Street, Motetema, South Africa",Motetema,N/A,
4833,Openserve Property,-28.74,25.82,"R64, Tokologo Ward 1, Tokologo Local Municipality, South Africa",Tokologo Local Municipality,Tokologo Ward 1,N/A
9608,Openserve Property,-29.72,31.06,"Umhlanga, South Africa",Umhlanga,N/A,
632,Openserve Property,-27.01,27.36,"12 De Wet Street, Vredefort, South Africa",Vredefort,N/A,
13797,Openserve Property,-29.54,31.2,"455 Unknown Street, Ballito, South Africa",Ballito,N/A,
3583,Openserve Property,-33.95,22.95,"Knysna Nu, South Africa",Knysna Nu,N/A,
1114,Openserve Property,-28.01,20,"Kai !Garib Ward 7, Kai !Garib Local Municipality, ZF Mgcawu District Municipality, South Africa",Kai !Garib Local Municipality,Kai !Garib Ward 7,N/A
3857,Openserve Property,-24.69,29.75,"unnamed road, Makadikwe, Makhuduthamaga Local Municipality, South Africa",Makhuduthamaga Local Municipality,Makadikwe,N/A
1200,Openserve Property,-33.65,26.41,"Chowles Street, Ndlambe Ward 2, Ndlambe Local Municipality, South Africa",Ndlambe Local Municipality,Ndlambe Ward 2,N/A
747,Openserve Property,-29.68,17.07,"3rd Avenue, Nama Khoi Ward 8, Nama Khoi Local Municipality, 8282, South Africa",Nama Khoi Local Municipality,Nama Khoi Ward 8,8282
29208,Openserve Property,-33.99,22.53,"Street, George Nu, South Africa",George Nu,N/A,
5096,Openserve Property,-31.06,24.44,"unnamed road, Emthanjeni Ward 6, Emthanjeni Local Municipality, South Africa",Emthanjeni Local Municipality,Emthanjeni Ward 6,N/A
28530,Openserve Property,-28.2,23.39,"Tsantsabane Ward 3, Tsantsabane Local Municipality, ZF Mgcawu District Municipality, South Africa",Tsantsabane Local Municipality,Tsantsabane Ward 3,N/A
784,Openserve Property,-29.59,17.79,"Street, Nababeep, South Africa",Nababeep,N/A,
3294,Openserve Property,-33,27.6,"Street, Lovedale Sp, South Africa",Lovedale Sp,N/A,
20305,Openserve Property,-34.04,23.11,"Damsebos, Knysna, South Africa",Knysna,N/A,
17605,Openserve Property,-31.15,21.6,"Karoo Hoogland Nu, South Africa",Karoo Hoogland Nu,N/A,
4752,Openserve Property,-23.47,29.82,"Ramokgopa, South Africa",Ramokgopa,N/A,
5765,Openserve Property,-25.28,29.2,"Street, Elandsdoring, South Africa",Elandsdoring,N/A,
7659,Openserve Property,-24.41,29.75,"unnamed road, Apel, Fetakgomo Local Municipality, 0740, South Africa",Fetakgomo Local Municipality,Apel,0740
2889,Openserve Property,-34.18,19.07,"N2, Theewaterskloof Ward 7, Theewaterskloof Local Municipality, 7160, South Africa",Theewaterskloof Local Municipality,Theewaterskloof Ward 7,7160
17461,Openserve Property,-31.11,26.1,"Gariep Nu, South Africa",Gariep Nu,N/A,
24512,Openserve Property,-28.55,21.15,"30 Druiwe Street, Klippunt, South Africa",Klippunt,N/A,
10975,Openserve Property,-27.23,26.67,"Nala Nu, South Africa",Nala Nu,N/A,
186,Openserve Property,-29.05,31.53,"unnamed road, uMlalazi Ward 18, uMlalazi Local Municipality, South Africa",uMlalazi Local Municipality,uMlalazi Ward 18,N/A
4943,Openserve Property,-25.82,28.34,"12 Sea Cottage Crescent, Pretoria, South Africa",Pretoria,N/A,
1776,Openserve Property,-25.56,28.31,"unnamed road, Tshwane Ward 73, Gauteng, South Africa",N/A,Tshwane Ward 73,N/A
65,Openserve Property,-34,25.36,"Nelson Mandela Bay Nu, South Africa",Nelson Mandela Bay Nu,N/A,
98,Openserve Property,-34.05,22.39,"4 Skuinsbank Street, Herolds Bay, South Africa",Herolds Bay,N/A,
30072,Openserve Property,-33.26,18.6,"unnamed road, Oupos, Swartland Local Municipality, South Africa",Swartland Local Municipality,Oupos,N/A
6372,Openserve Property,-28.54,28.88,"Makwane, South Africa",Makwane,N/A,
3510,Openserve Property,-28.47,19.87,"unnamed road, Kai !Garib Ward 9, Kai !Garib Local Municipality, South Africa",Kai !Garib Local Municipality,Kai !Garib Ward 9,N/A
5109,Openserve Property,-26.18,25.99,"Street, Ditsobotla Nu, South Africa",Ditsobotla Nu,N/A,
17343,Openserve Property,-28.62,19.51,"Khâi-ma Nu, South Africa",Khâi-ma Nu,N/A,
152141,Openserve Property,-26.24,28.15,"Germiston, South Africa",Germiston,N/A,
1857,Openserve Property,-29.45,31.08,"KwaDukuza Ward 21, KwaDukuza Local Municipality, 4420, South Africa",KwaDukuza Local Municipality,KwaDukuza Ward 21,4420
436,Openserve Property,-27.99,31.08,"P219, Abaqulusi Ward 4, Abaqulusi Local Municipality, South Africa",Abaqulusi Local Municipality,Abaqulusi Ward 4,N/A
4028,Openserve Property,-25.66,31.68,"unnamed road, Sidlamafa, Nkomazi, 1337, South Africa",Nkomazi,Sidlamafa,1337
1620,Openserve Property,-26.53,28.06,"Iffley Road, Henley on Klip, Midvaal Local Municipality, 1960, South Africa",Midvaal Local Municipality,Henley on Klip,1960
11929,Openserve Property,-26.05,28.76,"unnamed road, Victor Khanye Ward 9, Victor Khanye Local Municipality, South Africa",Victor Khanye Local Municipality,Victor Khanye Ward 9,N/A
1738,Openserve Property,-26.62,27.9,"Vereeniging, South Africa",Vereeniging,N/A,
1262,Openserve Property,-31.96,23.76,"Street, Murraysburg, South Africa",Murraysburg,N/A,
31216,Openserve Property,-26.75,27.65,"unnamed road, Emfuleni Ward 25, Emfuleni Local Municipality, South Africa",Emfuleni Local Municipality,N/A,N/A
34133,Openserve Property,-26.51,28.13,"Karee Road, Midvaal Ward 4, Midvaal Local Municipality, South Africa",Midvaal Local Municipality,Midvaal Ward 4,N/A
49667,Openserve Property,-34.05,22.4,"Voelklip Street, Herolds Bay, South Africa",Herolds Bay,N/A,
25,Openserve Property,-28.04,23.1,"Null, Tsantsabane Nu, South Africa",Tsantsabane Nu,N/A,
24,Openserve Property,-28.36,23.47,"unnamed road, Norfin, Kgatelopele Local Municipality, South Africa",Kgatelopele Local Municipality,Norfin,N/A
616,Openserve Property,-26.47,20.61,"Null, Kalahari Gemsbok National Park, South Africa",Kalahari Gemsbok National Park,N/A,
1505,Openserve Property,-24.94,27.16,"Street, Thabazimbi, South Africa",Thabazimbi,N/A,
717,Openserve Property,-31.91,21.51,"Le Roux Street, Karoo Hoogland Ward 2, Karoo Hoogland Local Municipality, 6960, South Africa",Karoo Hoogland Local Municipality,Karoo Hoogland Ward 2,6960
2160,Openserve Property,-29.2,26.23,"Frank Kitsa Street, Blomanda, Bloemfontein, 9309, South Africa",Bloemfontein,Blomanda,9309
11661,Openserve Property,-31.08,30.19,"Null, Mzamba A, South Africa",Mzamba A,N/A,
1634,Openserve Property,-25.43,31.16,"unnamed road, Mbombela Ward 22, Mbombela, 1214, South Africa",Mbombela,Mbombela Ward 22,1214
3883,Openserve Property,-23.43,28.61,"Shirindi Street, Babirwa, South Africa",Babirwa,N/A,
626,Openserve Property,-27.92,29.28,"Street, Phumelela Nu, South Africa",Phumelela Nu,N/A,
32170,Openserve Property,-28.49,29.58,"Emnambithi/ladysmith Nu, South Africa",Emnambithi/ladysmith Nu,N/A,
1702,Openserve Property,-23.77,30.1,"Tzaneen Nu, South Africa",Tzaneen Nu,N/A,
9320,Openserve Property,-29.08,30.98,"Emthombeni, South Africa",Emthombeni,N/A,
2913,Openserve Property,-28.43,32.15,"Kwamsane, South Africa",Kwamsane,N/A,
2112,Openserve Property,-26.39,30.43,"unnamed road, Msukaligwa Ward 12, Msukaligwa, South Africa",Msukaligwa,Msukaligwa Ward 12,N/A
15770,Openserve Property,-27.7,23.05,"Hendrik van Eck Way, Gamagara Ward 1, Gamagara Local Municipality, 8446, South Africa",Gamagara Local Municipality,Gamagara Ward 1,8446
1847,Openserve Property,-30.69,29.83,"uMuziwabantu Ward 6, uMuziwabantu Local Municipality, Ugu District Municipality, South Africa",uMuziwabantu Local Municipality,uMuziwabantu Ward 6,N/A
1609,Openserve Property,-25.87,29.17,"5649 Z Mtstuki Street, Kwaguqa, South Africa",Kwaguqa,N/A,
1766,Openserve Property,-26.09,29.32,"unnamed road, Van Dyks, Emalahleni Local Municipality, South Africa",Emalahleni Local Municipality,Van Dyks,N/A
46483,Openserve Property,-34.06,18.43,"Forest Glade Road, Dennedal, Western Cape, 7945, South Africa",N/A,Dennedal,7945
11130,Openserve Property,-27.91,29.87,"unnamed road, Newcastle Ward 1, Newcastle Local Municipality, South Africa",Newcastle Local Municipality,Newcastle Ward 1,N/A
10977,Openserve Property,-25.01,26,"Ramotshere Moiloa Ward 3, Ramotshere Moiloa Local Municipality, Ngaka Modiri Molema District Municipality, South Africa",Ramotshere Moiloa Local Municipality,Ramotshere Moiloa Ward 3,N/A
794,Openserve Property,-29.6,17.88,"unnamed road, Nama Khoi Ward 6, Nama Khoi Local Municipality, South Africa",Nama Khoi Local Municipality,Nama Khoi Ward 6,N/A
9593,Openserve Property,-22.74,30.52,"Thengwe, South Africa",Thengwe,N/A,
9906,Openserve Property,-33.95,25.58,"Woolworths, Ring Road, Nelson Mandela Bay Ward 7, Gqeberha / Port Elizabeth, 7162, South Africa",Gqeberha / Port Elizabeth,Nelson Mandela Bay Ward 7,7162
4879,Openserve Property,-26.13,29.73,"488 Unknown Street, Kwazamokuhle, South Africa",Kwazamokuhle,N/A,
7872,Openserve Property,-32.04,27.82,"R409, Tsomo, Intsika Yethu Local Municipality, 5400, South Africa",Intsika Yethu Local Municipality,Tsomo,5400
1897,Openserve Property,-30.7,25.77,"unnamed road, Gariep Ward 1, Gariep Local Municipality, South Africa",Gariep Local Municipality,Gariep Ward 1,N/A
1751,Openserve Property,-25.67,28.13,"65 Main Street, Akasia, South Africa",Akasia,N/A,
1521,Openserve Property,-25.64,30.33,"Emgwenya, South Africa",Emgwenya,N/A,
241,Openserve Property,-29.59,30.42,"8922 Unknown Street, Pietermaritzburg, South Africa",Pietermaritzburg,N/A,
814,Openserve Property,-32.48,18.54,"Kerk Street, Nuwedorp, Bergrivier Local Municipality, South Africa",Bergrivier Local Municipality,Nuwedorp,N/A
2586,Openserve Property,-25.87,29.12,"1283 Udoye Street, Kwaguqa, South Africa",Kwaguqa,N/A,
1570,Openserve Property,-26.59,28.03,"24 Rietspruit Street, Meyerton, South Africa",Meyerton,N/A,
2644,Openserve Property,-28.97,25.09,"Letsemeng Nu, South Africa",Letsemeng Nu,N/A,
5952,Openserve Property,-22.01,30.01,No result found,No result found,No result found,No result found
274,Openserve Property,-30.59,30.56,"919 Canterbury Road, Hibberdene, South Africa",Hibberdene,N/A,
1913,Openserve Property,-30.78,25.8,"Albert Schweitzer Street, Gariep Ward 1, Gariep Local Municipality, 9798, South Africa",Gariep Local Municipality,Gariep Ward 1,9798
1597,Openserve Property,-26.45,27.36,"unnamed road, Elandsridge, Merafong City Local Municipality, South Africa",Merafong City Local Municipality,Elandsridge,N/A
1023,Openserve Property,-26.15,28.04,"10 Selby Road, Randburg, South Africa",Randburg,N/A,
993,Openserve Property,-26.2,28.06,"Upper Railway Road, Troyeville, Johannesburg, 2001, South Africa",Johannesburg,Troyeville,2001
203,Openserve Property,-29.86,31.02,"Anton Lembede Street, eThekwini Ward 28, Durban, 4057, South Africa",Durban,eThekwini Ward 28,4057
654,Openserve Property,-33.93,18.42,"49 Hope Street, Cape Town, South Africa",Cape Town,N/A,
1873,Openserve Property,-29.12,26.22,"2 Peet Avenue, Bloemfontein, South Africa",Bloemfontein,N/A,
943,Openserve Property,-26,28.13,"571 Gallapher, Midrand, South Africa",Midrand,N/A,
1740,Openserve Property,-25.01,28.01,"unnamed road, Mnukubyane, Moretele Local Municipality, South Africa",Moretele Local Municipality,Mnukubyane,N/A
1811,Openserve Property,-29.8,30.87,"8 Homestead Road, Pinetown, South Africa",Pinetown,N/A,
945,Openserve Property,-26,28.02,"Riverside And Robert Bruce, Sandton, South Africa",Sandton,N/A,
1323,Openserve Property,-25.75,28.21,"11 Bourke Street, Pretoria, South Africa",Pretoria,N/A,
904,Openserve Property,-26.12,28.08,"Glen Road, Bramley, Johannesburg, 2001, South Africa",Johannesburg,Bramley,2001
1687,Openserve Property,-25.01,30.01,"Greater Tubatse Ward 31, Greater Tubatse Local Municipality, 1133, South Africa",Greater Tubatse Local Municipality,Greater Tubatse Ward 31,1133
1769,Openserve Property,-26.67,27.93,"Leslie Street, Leeuhof, Emfuleni Local Municipality, 1939, South Africa",Emfuleni Local Municipality,Leeuhof,1939
895,Openserve Property,-26.1,28.05,"143 11th Street, Sandton, South Africa",Sandton,N/A,
2003,Openserve Property,-26.18,27.96,"Princess Road, Claremont, Johannesburg, 2001, South Africa",Johannesburg,Claremont,2001
939,Openserve Property,-26.21,28.16,"Meyer Street, Ekurhuleni Ward 36, Germiston, 1411, South Africa",Germiston,Ekurhuleni Ward 36,1411
634,Openserve Property,-27.98,26.73,"Octavia Street, Jim Fouche Park, Welkom, 9460, South Africa",Welkom,Jim Fouche Park,9460
16761,Openserve Property,-29.01,26.02,"S327, Free State, South Africa",N/A,N/A,N/A
1816,Openserve Property,-28.74,31.89,"Biyela Street, Addison Park, uMhlathuze Local Municipality, 3380, South Africa",uMhlathuze Local Municipality,Addison Park,3380
1015,Openserve Property,-26.1,28.01,"Blairgowrie Drive, Bordeaux, Rosebank, 2129, South Africa",Rosebank,Bordeaux,2129
1731,Openserve Property,-26.67,28.72,"Dipaleseng Nu, South Africa",Dipaleseng Nu,N/A,
1494,Openserve Property,-25.73,28.3,"547 Krige Street, Pretoria, South Africa",Pretoria,N/A,
78,Openserve Property,-33.01,27.9,"17 Park Street, East London, South Africa",East London,N/A,
1733,Openserve Property,-23.01,29.01,"Blouberg Local Municipality, Capricorn District Municipality, South Africa",N/A,Blouberg Local Municipality,N/A
879,Openserve Property,-34,18.47,"8 Indian Road, Cape Town, South Africa",Cape Town,N/A,
896,Openserve Property,-26.19,28.32,"Princess Avenue, Kleinfontein Lake, Benoni, 1500, South Africa",Benoni,Kleinfontein Lake,1500
1886,Openserve Property,-33.92,25.59,"Commercial Road, Nelson Mandela Bay Ward 11, Gqeberha / Port Elizabeth, 6200, South Africa",Gqeberha / Port Elizabeth,Nelson Mandela Bay Ward 11,6200
1478,Openserve Property,-25.67,27.24,"55 Loop Street, Rustenburg, South Africa",Rustenburg,N/A,
963,Openserve Property,-26.19,28.11,"Westmoreland Road, Johannesburg Ward 118, Johannesburg, 2001, South Africa",Johannesburg,Johannesburg Ward 118,2001
1431,Openserve Property,-25.77,29.46,"Viljoen Street, Steve Tshwete Ward 12, Steve Tshwete Local Municipality, 1055, South Africa",Steve Tshwete Local Municipality,Steve Tshwete Ward 12,1055
380,Openserve Property,-29.61,30.38,"Princess Elizbeth Drive, Pietermaritzburg, South Africa",Pietermaritzburg,N/A,
384,Openserve Property,-29.8,30.87,"8 Homestead Road, Pinetown, South Africa",Pinetown,N/A,
2100,Openserve Property,-26.1,28.23,"31 Kosmos Road, Kempton Park, South Africa",Kempton Park,N/A,
2033,Openserve Property,-26.26,28.44,"116 Fourth Street, Springs, South Africa",Springs,N/A,
822,Openserve Property,-33.96,18.47,"24 Main Road, Cape Town, South Africa",Cape Town,N/A,
985,Openserve Property,-26.2,28.01,"62 3rd Avenue, Johannesburg, South Africa",Johannesburg,N/A,
1360,Openserve Property,-25.01,28,"unnamed road, Mnukubyane, Moretele Local Municipality, South Africa",Moretele Local Municipality,Mnukubyane,N/A
835,Openserve Property,-34.08,18.85,"Huising Street, Cape Town Ward 84, Somerset West, 7136, South Africa",Somerset West,Cape Town Ward 84,7136
124,Openserve Property,-33.95,25.51,"73 Atlanta Crescent, Port Elizaberth, South Africa",Port Elizaberth,N/A,
1429,Openserve Property,-24.99,30.76,"unnamed road, Thaba Chweu Ward 13, Thaba Chweu Local Municipality, South Africa",Thaba Chweu Local Municipality,Thaba Chweu Ward 13,N/A
1764,Openserve Property,-26.77,27.85,"8 Schoman Street, Sasolburg, South Africa",Sasolburg,N/A,
1572,Openserve Property,-25.8,28.3,"542 Vleiland Street, Pretoria, South Africa",Pretoria,N/A,
2048,Openserve Property,-26.27,28.12,"Clinton Road, Raceview, Alberton, 1449, South Africa",Alberton,Raceview,1449
379,Openserve Property,-29.7,31,"Phoenix Highway, Whetstone, Phoenix, 4068, South Africa",Phoenix,Whetstone,4068
22,Openserve Property,-28.74,24.77,"Street, Kimberley, South Africa",Kimberley,N/A,
372,Openserve Property,-29.84,31,"250 John Zikhali Road, Durban, South Africa",Durban,N/A,
829,Openserve Property,-33.91,18.39,"Sea Point Promenade, Cape Town Ward 54, Cape Town, 8005, South Africa",Cape Town,Cape Town Ward 54,8005
926,Openserve Property,-26.16,28.15,"13 Garlick Avenue, Edenvale, South Africa",Edenvale,N/A,
1466,Openserve Property,-25.75,28.13,"856 Wf Nkomo Street, Pretoria, South Africa",Pretoria,N/A,
236,Openserve Property,-29.78,31.04,"92 Chelsea Drive, Durban, South Africa",Durban,N/A,
2012,Openserve Property,-26.26,27.93,"unnamed road, Power Park, Motsoaledi View, 1864, South Africa",Motsoaledi View,Power Park,1864
1527,Openserve Property,-25.87,29.22,"Rhodes Street, Emalahleni Ward 17, eMalahleni, 1038, South Africa",eMalahleni,Emalahleni Ward 17,1038
1032,Openserve Property,-26.2,27.96,"New Canada Road, Riverlea, Johannesburg, 2001, South Africa",Johannesburg,Riverlea,2001
770,Openserve Property,-33.92,18.48,"Koeberg Road, Cape Town Ward 56, Cape Town, 7295, South Africa",Cape Town,Cape Town Ward 56,7295
154,Openserve Property,-33.96,25.62,"8 Chapel Street, Port Elizaberth, South Africa",Port Elizaberth,N/A,
1016,Openserve Property,-26.18,27.71,"Street, Randfontein, South Africa",Randfontein,N/A,
5982,Openserve Property,-31.59,28.79,"Madeira Street, King Sabata Dalindyebo Ward 7, Mthatha, 7142, South Africa",Mthatha,King Sabata Dalindyebo Ward 7,7142
5839,Openserve Property,-32.85,27.44,"2 Independence Avenue, Bisho, South Africa",Bisho,N/A,
933,Openserve Property,-25.95,28.12,"Ash Street, Noordwyk, Gauteng, 1687, South Africa",N/A,Noordwyk,1687
2060,Openserve Property,-26.22,28.25,"Boksburg, South Africa",Boksburg,N/A,
112,Openserve Property,-32.88,27.39,"Cambridge Road, Schornville, Qonce, 5600, South Africa",Qonce,Schornville,5600
1831,Openserve Property,-29.98,30.93,"108 Phila Ndwandwe Road, Durban, South Africa",Durban,N/A,
395,Openserve Property,-29.9,30.98,"Sarnia Road, Clairwood, Durban, 4094, South Africa",Durban,Clairwood,4094
910,Openserve Property,-25.98,28.08,"Midrand, South Africa",Midrand,N/A,
484,Openserve Property,-29,26.01,"S327, Free State, South Africa",N/A,N/A,N/A
354,Openserve Property,-27.76,29.93,"81 Scott Street, Newcastle, South Africa",Newcastle,N/A,
1599,Openserve Property,-25.84,28.16,"1026 Nina Road, Centurion, South Africa",Centurion,N/A,
1679,Openserve Property,-26.56,28.01,"Shippard Street, Midvaal Ward 9, Midvaal Local Municipality, 1960, South Africa",Midvaal Local Municipality,Midvaal Ward 9,1960
798,Openserve Property,-33.73,18.96,"8A Nantes Street, Paarl, South Africa",Paarl,N/A,
968,Openserve Property,-26.1,27.77,"76 Joubert Street, Krugersdorp, South Africa",Krugersdorp,N/A,
1761,Openserve Property,-26.88,28.23,"Garrick Road, Midvaal Ward 1, Midvaal Local Municipality, South Africa",Midvaal Local Municipality,Midvaal Ward 1,N/A
961,Openserve Property,-26.07,28.09,"Eastern Service, Wendywood, Sandton, 2054, South Africa",Sandton,Wendywood,2054
975,Openserve Property,-26.32,27.84,"Violet Street, Johannesburg Ward 9, Lenasia, 1821, South Africa",Lenasia,Johannesburg Ward 9,1821
801,Openserve Property,-33.91,18.59,"Hofmeyer Street, Parowvallei, Parow, 7501, South Africa",Parow,Parowvallei,7501
952,Openserve Property,-26.13,28.2,"3 Botany Place, Kempton Park, South Africa",Kempton Park,N/A,
925,Openserve Property,-26.13,28.16,"9 Lucas Road, Edenvale, South Africa",Edenvale,N/A,
2647,Openserve Property,-23.91,29.45,"13 Grobler Street, Polokwane, South Africa",Polokwane,N/A,
979,Openserve Property,-26.14,28,"92 10th Street, Randburg, South Africa",Randburg,N/A,
149,Openserve Property,-33.95,25.59,"41 Conyngham Street, Port Elizaberth, South Africa",Port Elizaberth,N/A,
906,Openserve Property,-26,28.01,"28 Raintree Crescent, Sandton, South Africa",Sandton,N/A,
1037,Openserve Property,-26.01,28.22,"George Nyanga Street, Tembisa, South Africa",Tembisa,N/A,
882,Openserve Property,-26.13,27.96,"72 Dawn Drive, Randburg, South Africa",Randburg,N/A,
15803,Openserve Property,-25.69,30.04,"664 Coetzee Street, Emakhazeni A, South Africa",Emakhazeni A,N/A,
84,Openserve Property,-33.96,22.46,"Meade Street, George Ward 19, George, 6530, South Africa",George,George Ward 19,6530
338,Openserve Property,-29.72,31.04,"24 Hillhead Drive, Mount Edgecombe, South Africa",Mount Edgecombe,N/A,
1026,Openserve Property,-26.17,28.33,"25 Pretoria Road, Benoni, South Africa",Benoni,N/A,
909,Openserve Property,-26.23,28.09,"Houer Street, Roseacre, Johannesburg, 2001, South Africa",Johannesburg,Roseacre,2001
1765,Openserve Property,-26.79,27.84,"Sasolburg, South Africa",Sasolburg,N/A,
2246,Openserve Property,-33.64,19.45,"24 Riebeeck Street, Worcester, South Africa",Worcester,N/A,
2130,Openserve Property,-34.23,19.43,"11 Watsonia Street, Caledon, South Africa",Caledon,N/A,
1624,Openserve Property,-26.72,27.05,"4366 Monyemore, Ikageng, South Africa",Ikageng,N/A,
181,Openserve Property,-33.77,25.4,"Pep, Chase Street, Nelson Mandela Bay Ward 48, Kariega, 6229, South Africa",Kariega,Nelson Mandela Bay Ward 48,6229
1735,Openserve Property,-25.68,28.22,"259 Mirca Avenue, Pretoria, South Africa",Pretoria,N/A,
143,Openserve Property,-33.86,25.61,"Nelson Mandela Bay Ward 60, Gqeberha / Port Elizabeth, 6210, South Africa",Gqeberha / Port Elizabeth,Nelson Mandela Bay Ward 60,6210
1709,Openserve Property,-25.09,28.31,"Bela-bela Nu, South Africa",Bela-bela Nu,N/A,
1658,Openserve Property,-26.15,26.16,"Nelson Mandela Drive, Kieserville, Ditsobotla Local Municipality, 2740, South Africa",Ditsobotla Local Municipality,Kieserville,2740
777,Openserve Property,-34.03,18.6,"Erica Way, Lentegeur, Mitchells Plain, 7785, South Africa",Mitchells Plain,Lentegeur,7785
1007,Openserve Property,-26.13,27.91,"Kudu Street, Johannesburg Ward 89, Roodepoort, 1735, South Africa",Roodepoort,Johannesburg Ward 89,1735
5797,Openserve Property,-25.84,25.61,"unnamed road, Mmabatho, Mahikeng, 2790, South Africa",Mahikeng,Mmabatho,2790
776,Openserve Property,-33.88,18.5,"Koeberg Road, Tijgerhof, Milnerton, 2251, South Africa",Milnerton,Tijgerhof,2251
1759,Openserve Property,-23.01,30.01,"Makhado Nu, South Africa",Makhado Nu,N/A,
1520,Openserve Property,-25.78,28.24,"225 Rose Avenue, Pretoria, South Africa",Pretoria,N/A,
1670,Openserve Property,-25.71,28.38,"33 Madevu Street, Mamelodi, South Africa",Mamelodi,N/A,
942,Openserve Property,-26.4,27.83,"unnamed road, Johannesburg Ward 121, Ennerdale, 1830, South Africa",Ennerdale,Johannesburg Ward 121,1830
1555,Openserve Property,-26.46,29.46,"32 Du Plooy Street, Bethal, South Africa",Bethal,N/A,
415,Openserve Property,-29.01,31.01,"Esiweni/amambulwa, South Africa",Esiweni/amambulwa,N/A,
1002,Openserve Property,-26.05,27.98,"Randburg, South Africa",Randburg,N/A,
905,Openserve Property,-26.09,27.96,"unnamed road, Bromhof, Randburg, 2154, South Africa",Randburg,Bromhof,2154
1825,Openserve Property,-29.84,31.02,"7 Second Avenue, Durban, South Africa",Durban,N/A,
452,Openserve Property,-30.01,26.01,"Kopanong Ward 2, Kopanong Local Municipality, 9913, South Africa",Kopanong Local Municipality,Kopanong Ward 2,9913
114,Openserve Property,-33.4,25.44,"Main Road, Sundays River Valley Ward 2, Sundays River Valley Local Municipality, 6120, South Africa",Sundays River Valley Local Municipality,Sundays River Valley Ward 2,6120
843,Openserve Property,-33.94,18.86,"30 Piet Retief Street, Stellenbosch, South Africa",Stellenbosch,N/A,
1998,Openserve Property,-26.27,27.88,"unnamed road, Dlamini, Soweto, 1860, South Africa",Soweto,Dlamini,1860
4636,Openserve Property,-22.97,30.46,"Thohoyandou, South Africa",Thohoyandou,N/A,
463,Openserve Property,-28.23,28.31,"Naude Street, Old Location, Dihlabeng Local Municipality, 9700, South Africa",Dihlabeng Local Municipality,Old Location,9700
897,Openserve Property,-26.06,28.23,"21 Rooiels Avenue, Kempton Park, South Africa",Kempton Park,N/A,
2203,Openserve Property,-33.46,18.73,"12 Biccard Street, Malmesbury, South Africa",Malmesbury,N/A,
841,Openserve Property,-34.08,18.47,"Tortoise Track, Marina Da Gama, Western Cape, 7945, South Africa",N/A,Marina Da Gama,7945
4938,Openserve Property,-29.72,31.06,"Umhlanga, South Africa",Umhlanga,N/A,
892,Openserve Property,-26.18,28.27,"15 North Rand Road, Boksburg, South Africa",Boksburg,N/A,
441,Openserve Property,-29.83,30.94,"3 Meerut Road, Westville, South Africa",Westville,N/A,
1750,Openserve Property,-27.4,24.59,"Greater Taung Ward 23, Greater Taung Local Municipality, Dr Ruth Segomotsi Mompati District Municipality, South Africa",Greater Taung Local Municipality,Greater Taung Ward 23,N/A
2164,Openserve Property,-33.98,18.47,"16 Chaucer Road, Cape Town, South Africa",Cape Town,N/A,
9940,Openserve Property,-31.97,28.68,"Street, Elliotdale, South Africa",Elliotdale,N/A,
1324,Openserve Property,-25.81,28.74,"43 Botha Street, Bronkhorstspruit, South Africa",Bronkhorstspruit,N/A,
2232,Openserve Property,-33.83,18.51,"221 Blaauwberg Road, Blouberg, South Africa",Blouberg,N/A,
2092,Openserve Property,-26.34,28.36,"721 Nimf Street, Geluksdal, South Africa",Geluksdal,N/A,
899,Openserve Property,-26.14,28.27,"Merlin Rose Road, Atlasville, Gauteng, 1622, South Africa",N/A,Atlasville,1622
734,Openserve Property,-33.99,18.54,"13 Maslamoney Road, Athlone, South Africa",Athlone,N/A,
972,Openserve Property,-25.93,27.93,"1 Street, City Of Johannesburg Nu, South Africa",City Of Johannesburg Nu,N/A,
389,Openserve Property,-30.74,30.45,"Denis Shepstone Street, Hibiscus Coast Ward 18, Hibiscus Coast Local Municipality, 4235, South Africa",Hibiscus Coast Local Municipality,Hibiscus Coast Ward 18,4235
870,Openserve Property,-31.66,18.51,"Voortrekker Street, Matzikama Ward 5, Matzikama Local Municipality, 8160, South Africa",Matzikama Local Municipality,Matzikama Ward 5,8160
1014,Openserve Property,-26.28,27.84,"43 Colman Street, Soweto, South Africa",Soweto,N/A,
62,Openserve Property,-32.98,27.9,"Leicester Road, Vincent, East London, 5217, South Africa",East London,Vincent,5217
1631,Openserve Property,-25.66,28.31,"Kameeldrift, South Africa",Kameeldrift,N/A,
949,Openserve Property,-26.16,28.08,"Johannesburg, South Africa",Johannesburg,N/A,
11510,Openserve Property,-25.35,26.53,"unnamed road, Moses Kotane Ward 19, Moses Kotane Local Municipality, South Africa",Moses Kotane Local Municipality,Moses Kotane Ward 19,N/A
1376,Openserve Property,-25.05,31.13,"R40, Mbombela Ward 1, Mbombela, 1242, South Africa",Mbombela,Mbombela Ward 1,1242
1708,Openserve Property,-25.67,28.25,"Street, Pretoria, South Africa",Pretoria,N/A,
1662,Openserve Property,-23.04,29.91,"Burger Street, Makhado, South Africa",Makhado,N/A,
2227,Openserve Property,-34.19,18.43,"3 St Georges Street, Simon's Town, South Africa",Simon's Town,N/A,
300,Openserve Property,-29.01,30,"Umtshezi Ward 9, Umtshezi Local Municipality, Uthukela District Municipality, South Africa",Umtshezi Local Municipality,Umtshezi Ward 9,N/A
2067,Openserve Property,-26.08,28.2,"2 Bloekomdraai Crescent, Kempton Park, South Africa",Kempton Park,N/A,
339,Openserve Property,-29.58,30,"Impendle Ward 4, Impendle Local Municipality, uMgungundlovu District Municipality, South Africa",Impendle Local Municipality,Impendle Ward 4,N/A
1618,Openserve Property,-26.5,28.36,"56 Van Der Westhuizen Street, Heidelberg, South Africa",Heidelberg,N/A,
305,Openserve Property,-29.75,30.97,"Indolobane Place, eThekwini Ward 45, KwaMashu, 4359, South Africa",KwaMashu,eThekwini Ward 45,4359
2209,Openserve Property,-33.72,18.99,"34 Willow Avenue, Paarl, South Africa",Paarl,N/A,
430,Openserve Property,-29.64,31.05,"Court Lane, Lotusville, Verulam, 4340, South Africa",Verulam,Lotusville,4340
2086,Openserve Property,-34.05,18.46,"41 Alphen Way, Cape Town, South Africa",Cape Town,N/A,
209,Openserve Property,-29.73,30.59,"Alice Goswell Road, Cato Ridge, KwaZulu-Natal, 3680, South Africa",N/A,Cato Ridge,3680
1835,Openserve Property,-28.01,32,"unnamed road, Hlabisa Ward 5, Hlabisa Local Municipality, South Africa",Hlabisa Local Municipality,Hlabisa Ward 5,N/A
2185,Openserve Property,-33.9,18.55,"Alexander Street, Goodwood Ext. 1, Western Cape, 7460, South Africa",N/A,Goodwood Ext. 1,7460
294,Openserve Property,-30.15,30.06,"Ixopo, South Africa",Ixopo,N/A,
413,Openserve Property,-29.01,31,"unnamed road, Maphumulo Ward 2, Maphumulo Local Municipality, South Africa",Maphumulo Local Municipality,Maphumulo Ward 2,N/A
1605,Openserve Property,-26.52,29.98,"33 Murray Street, Ermelo, South Africa",Ermelo,N/A,
4284,Openserve Property,-28.94,27.06,"unnamed road, Mantsopa Ward 8, Mantsopa Local Municipality, 9760, South Africa",Mantsopa Local Municipality,Mantsopa Ward 8,9760
782,Openserve Property,-34.1,18.47,"3 Royal Close, Muizenberg, South Africa",Muizenberg,N/A,
182,Openserve Property,-33.74,25.43,"R75, Nelson Mandela Bay Ward 51, Eastern Cape, 6230, South Africa",N/A,Nelson Mandela Bay Ward 51,6230
980,Openserve Property,-26.11,28.11,"21st Avenue, Alexandra, Johannesburg, 2001, South Africa",Johannesburg,Alexandra,2001
1048,Openserve Property,-26.12,27.86,"476 Sonderend West Street, Roodepoort, South Africa",Roodepoort,N/A,
2167,Openserve Property,-33.97,18.51,"13 Garth Road, Athlone, South Africa",Athlone,N/A,
846,Openserve Property,-34.12,18.83,"Beach Road, Cape Town Ward 85, Strand, 7140, South Africa",Strand,Cape Town Ward 85,7140
1375,Openserve Property,-25.75,28.23,"Street, Pretoria, South Africa",Pretoria,N/A,
5846,Openserve Property,-32.94,27.76,"11335 Street, Mdantsane, South Africa",Mdantsane,N/A,
33,Openserve Property,-29.67,22.75,"Voortrekker Street, Siyathemba Ward 4, Siyathemba Local Municipality, South Africa",Siyathemba Local Municipality,Siyathemba Ward 4,N/A
1898,Openserve Property,-26.9,27.46,"Buiten Street, Sunnyside, Ngwathe Local Municipality, 1907, South Africa",Ngwathe Local Municipality,Sunnyside,1907
941,Openserve Property,-26.29,28.07,"237 Bellairs Drive, Johannesburg, South Africa",Johannesburg,N/A,
1916,Openserve Property,-27.43,29.16,"Vrede, South Africa",Vrede,N/A,
903,Openserve Property,-26.24,28.36,"Goods Street, Ekurhuleni Ward 97, Brakpan, 1541, South Africa",Brakpan,Ekurhuleni Ward 97,1541
1404,Openserve Property,-25.01,28,"unnamed road, Mnukubyane, Moretele Local Municipality, South Africa",Moretele Local Municipality,Mnukubyane,N/A
377,Openserve Property,-29.01,30.4,"unnamed road, Umvoti Ward 11, Umvoti Local Municipality, South Africa",Umvoti Local Municipality,Umvoti Ward 11,N/A
4118,Openserve Property,-25.87,28.19,"26 Pieter Street, Centurion, South Africa",Centurion,N/A,
89,Openserve Property,-33.31,26.53,"17 Queen Street, Grahamstown, South Africa",Grahamstown,N/A,
1864,Openserve Property,-28.3,31.43,"Street, Ulundi, South Africa",Ulundi,N/A,
1567,Openserve Property,-26.36,27.4,"Talc Road, Merafong City Ward 18, Merafong City Local Municipality, 2500, South Africa",Merafong City Local Municipality,Merafong City Ward 18,2500
755,Openserve Property,-33.85,18.72,"Van Riebeeck Street, Peerless Park, Kraaifontein, 7500, South Africa",Kraaifontein,Peerless Park,7500
869,Openserve Property,-32.91,17.99,"13 Voortrekker Street, Vredenburg, South Africa",Vredenburg,N/A,
4056,Openserve Property,-29.91,30.87,"296 Arena Park Drive, Chatsworth, South Africa",Chatsworth,N/A,
934,Openserve Property,-26,27.01,"Kgetlengrivier Nu, South Africa",Kgetlengrivier Nu,N/A,
1019,Openserve Property,-26.26,28.02,"Scaw Road, Chrisville, Johannesburg, 2001, South Africa",Johannesburg,Chrisville,2001
1576,Openserve Property,-25.71,28.15,"659 Van Der Stell Street, Pretoria, South Africa",Pretoria,N/A,
391,Openserve Property,-29.81,30.94,"74 Bardia Avenue, Durban, South Africa",Durban,N/A,
1415,Openserve Property,-25.1,30.45,"Street, Mashishing, South Africa",Mashishing,N/A,
821,Openserve Property,-33.8,19.88,"Reuben's at the Robertson Small Hotel, Van Reenen Street, Langeberg Ward 1, Langeberg Local Municipality, 6705, South Africa",Langeberg Local Municipality,Langeberg Ward 1,6705
2089,Openserve Property,-29.87,30.27,"40 Harding Street, Richmond, South Africa",Richmond,N/A,
190,Openserve Property,-29.02,30,"Umtshezi Ward 9, Umtshezi Local Municipality, Uthukela District Municipality, South Africa",Umtshezi Local Municipality,Umtshezi Ward 9,N/A
1918,Openserve Property,-30.29,30.75,"Allen Street, Renishaw, uMdoni Local Municipality, 4182, South Africa",uMdoni Local Municipality,Renishaw,4182
651,Openserve Property,-33.56,18.5,"3 Calton Street, Atlantis, South Africa",Atlantis,N/A,
419,Openserve Property,-29.57,31.12,"High Street, Tongaat, South Africa",Tongaat,N/A,
135,Openserve Property,-34.18,22.14,"7 Santos Bay, Mossel Bay, South Africa",Mossel Bay,N/A,
916,Openserve Property,-26.24,27.95,"6 Patrick Street, Soweto, South Africa",Soweto,N/A,
1717,Openserve Property,-26.66,27.89,"6 Ken Viljoen Street, Vereeniging, South Africa",Vereeniging,N/A,
194,Openserve Property,-29,31.21,"Silambo, South Africa",Silambo,N/A,
433,Openserve Property,-27,30.01,"Pixley ka Seme Ward 7, Pixley Ka Seme Local Municipality, Gert Sibande, South Africa",Pixley Ka Seme Local Municipality,Pixley ka Seme Ward 7,N/A
208,Openserve Property,-29.86,30.97,"750 Mary Thiphe Road, Durban, South Africa",Durban,N/A,
10784,Openserve Property,-30.96,29.3,"unnamed road, Ntabankulu Ward 9, Ntabankulu Local Municipality, South Africa",Ntabankulu Local Municipality,Ntabankulu Ward 9,N/A
4249,Openserve Property,-27.8,28.43,"Kerk Street, Reitz, South Africa",Reitz,N/A,
960,Openserve Property,-26.34,28.15,"371 Khumalo Street, Katlehong, South Africa",Katlehong,N/A,
679,Openserve Property,-33.95,18.38,"St Theresa's Cath. Church, 11 The Fairway, Camps Bay, Cape Town, 8005, South Africa",Cape Town,Camps Bay,8005
326,Openserve Property,-30.85,30.35,"7 Iris Street, Margate, South Africa",Margate,N/A,
368,Openserve Property,-29.96,30.89,"35 Dwala Grove, Umlazi, South Africa",Umlazi,N/A,
10570,Openserve Property,-24.51,29.78,"Fetakgomo Ward 7, Fetakgomo Local Municipality, Sekhukhune District Municipality, South Africa",Fetakgomo Local Municipality,Fetakgomo Ward 7,N/A
1752,Openserve Property,-26.66,27.97,"Nile Drive, Three Rivers, Emfuleni Local Municipality, 1805, South Africa",Emfuleni Local Municipality,Three Rivers,1805
9029,Openserve Property,-26.02,28.17,"Stilt Avenue, Rabie Ridge, Gauteng, 1692, South Africa",N/A,Rabie Ridge,1692
4416,Openserve Property,-26.12,28.46,"Caltex, Eiselen Street, Etwatwa, 1519, South Africa",Etwatwa,Etwatwa,1519
559,Openserve Property,-27.98,26.77,"Fuel Street, Voorspoed, Welkom, 9462, South Africa",Welkom,Voorspoed,9462
1691,Openserve Property,-24.7,28.41,"Chris Hani Street, Modimolle Ward 8, Modimolle Local Municipality, 0510, South Africa",Modimolle Local Municipality,Modimolle Ward 8,0510
1580,Openserve Property,-26.15,28.68,"6 5th Street, Delmas, South Africa",Delmas,N/A,
63,Openserve Property,-33.98,25.55,"3 Mark Street, Port Elizaberth, South Africa",Port Elizaberth,N/A,
537,Openserve Property,-27.66,27.23,"Kroonstad, South Africa",Kroonstad,N/A,
883,Openserve Property,-26.24,27.99,"Crown Mines Country Club, Lakewood Terrace, Theta, Johannesburg, 2001, South Africa",Johannesburg,Theta,2001
1417,Openserve Property,-25.83,28.2,"174 Pretorius Avenue, Centurion, South Africa",Centurion,N/A,
2176,Openserve Property,-33.93,18.55,"Christian Avenue, Cape Town Ward 30, Western Cape, 7475, South Africa",N/A,Cape Town Ward 30,7475
5032,Openserve Property,-25.7,28.24,"Pretoria, South Africa",Pretoria,N/A,
147,Openserve Property,-33.59,22.2,"unnamed road, West Bank, George, 6620, South Africa",George,West Bank,6620
994,Openserve Property,-26.25,28.4,"Street, Springs, South Africa",Springs,N/A,
808,Openserve Property,-33.01,18.99,"West Street, Bergrivier Ward 1, Bergrivier Local Municipality, 6810, South Africa",Bergrivier Local Municipality,Bergrivier Ward 1,6810
837,Openserve Property,-29.67,17.88,"Springbok, South Africa",Springbok,N/A,
912,Openserve Property,-26.03,28.16,"16 Keeshond Close, Midrand, South Africa",Midrand,N/A,
10997,Openserve Property,-32.83,27.2,"Siwani, Buffalo City Ward 36, Dimbaza, South Africa",Dimbaza,Buffalo City Ward 36,N/A
1613,Openserve Property,-25,29.01,"Marble Hall Nu, South Africa",Marble Hall Nu,N/A,
694,Openserve Property,-33.37,19.31,"84 Voortrekker Street, Ceres, South Africa",Ceres,N/A,
1050,Openserve Property,-26.16,27.82,"24 Proot Street, Roodepoort, South Africa",Roodepoort,N/A,
1917,Openserve Property,-29.02,26.01,"Mangaung Metropolitan Municipality, South Africa",N/A,N/A,N/A
1839,Openserve Property,-29.01,29.02,No result found,No result found,No result found,No result found
11500,Openserve Property,-25.91,25.68,"unnamed road, Mahikeng Ward 27, Mahikeng, South Africa",Mahikeng,Mahikeng Ward 27,N/A
873,Openserve Property,-33.64,19,"Schwartz Street, Drakenstein Ward 18, Drakenstein Local Municipality, 7655, South Africa",Drakenstein Local Municipality,Drakenstein Ward 18,7655
328,Openserve Property,-30.34,28.81,"Station Road, Matatiele Ward 19, Matatiele Local Municipality, 4470, South Africa",Matatiele Local Municipality,Matatiele Ward 19,4470
1768,Openserve Property,-26.32,26.83,"Wilson Road, Ventersdorp, South Africa",Ventersdorp,N/A,
1654,Openserve Property,-25.71,28.19,"286 Booysen Street, Pretoria, South Africa",Pretoria,N/A,
120,Openserve Property,-34.04,23.05,"Knysna, South Africa",Knysna,N/A,
1727,Openserve Property,-26.82,27.83,"9 Piet Uys Street, Sasolburg, South Africa",Sasolburg,N/A,
663,Openserve Property,-33.8,18.46,"Linde Road, Bloubergstrand, Western Cape, 7436, South Africa",N/A,Bloubergstrand,7436
88,Openserve Property,-32.25,24.54,"3 Null, Graaff Reinet, South Africa",Graaff Reinet,N/A,
2218,Openserve Property,-32.91,18.76,"6 Blesbok Street, Piketberg, South Africa",Piketberg,N/A,
1817,Openserve Property,-28.88,31.9,"Maqinase Street, uMhlathuze Ward 20, uMhlathuze Local Municipality, South Africa",uMhlathuze Local Municipality,uMhlathuze Ward 20,N/A
321,Openserve Property,-29.99,30.88,"122219 Street, Malukazi, KwaZulu-Natal, 4066, South Africa",N/A,Malukazi,4066
91,Openserve Property,-33.04,27.86,"Coronation Road, Sunnyridge, East London, 5208, South Africa",East London,Sunnyridge,5208
4531,Openserve Property,-26,28.07,"Hyperion Road, Barbeque Downs, Randburg, 1684, South Africa",Randburg,Barbeque Downs,1684
2128,Openserve Property,-26.3,28.19,"Aberdein Street, Leondale, Gauteng, 1430, South Africa",N/A,Leondale,1430
618,Openserve Property,-29.22,26.7,"Leratong/Hlonamang Secondary School, 2307 Mzala Molise Road, Botshabelo-J, Botshabelo, 9781, South Africa",Botshabelo,Botshabelo-J,9781
474,Openserve Property,-29.22,26.71,"469 Unknown Street, Botshabelo, South Africa",Botshabelo,N/A,
893,Openserve Property,-26.17,28.14,"unnamed road, Bedfordview, Gauteng, 2013, South Africa",N/A,Bedfordview,2013
998,Openserve Property,-26.09,27.81,"Libertas Street, Mogale City Ward 21, Krugersdorp, 1733, South Africa",Krugersdorp,Mogale City Ward 21,1733
1176,Openserve Property,-28,24,"Dikgatlong Ward 6, Dikgatlong Local Municipality, 8377, South Africa",Dikgatlong Local Municipality,Dikgatlong Ward 6,8377
282,Openserve Property,-29.49,30.22,"unnamed road, KwaMevana, uMgeni Local Municipality, 3290, South Africa",uMgeni Local Municipality,KwaMevana,3290
1181,Openserve Property,-28.46,21.25,"Palm Avenue, Khara Hais Nu, South Africa",Khara Hais Nu,N/A,
171,Openserve Property,-33.99,25.67,"52 Brighton, Port Elizaberth, South Africa",Port Elizaberth,N/A,
1151,Openserve Property,-26.16,24.41,"unnamed road, Piet Plessis, Kagisano-Molopo Local Municipality, South Africa",Kagisano-Molopo Local Municipality,Piet Plessis,N/A
913,Openserve Property,-26.15,28.42,"10588 Kwena Street, Daveyton, South Africa",Daveyton,N/A,
277,Openserve Property,-29.56,30.3,"55 Hilton Avenue, Hilton, South Africa",Hilton,N/A,
676,Openserve Property,-25.96,28.24,"Clayville, South Africa",Clayville,N/A,
848,Openserve Property,-34.13,18.39,"Kommetjie Road, Cape Town Ward 69, Masiphumelele, 7985, South Africa",Masiphumelele,Cape Town Ward 69,7985
530,Openserve Property,-28.31,28.7,"28 Raath Street, Kestell, South Africa",Kestell,N/A,
450,Openserve Property,-30,30.01,"Ingwe Ward 6, Ingwe Local Municipality, Sisonke District Municipality, South Africa",Ingwe Local Municipality,Ingwe Ward 6,N/A
1711,Openserve Property,-25.74,28.01,"Pretoria, South Africa",Pretoria,N/A,
1029,Openserve Property,-26.3,28.45,"6 Beryl Road, Springs, South Africa",Springs,N/A,
43,Openserve Property,-33.9,25.56,"157 Dyke Road, Port Elizaberth, South Africa",Port Elizaberth,N/A,
937,Openserve Property,-26.02,28.01,"3192 Forest Drive, Sandton, South Africa",Sandton,N/A,
1598,Openserve Property,-25.84,28.27,"685 Viscount Street, Pretoria, South Africa",Pretoria,N/A,
826,Openserve Property,-33.01,17.95,"23 Main Road, Saldanha, South Africa",Saldanha,N/A,
3924,Openserve Property,-25.01,28.01,"unnamed road, Mnukubyane, Moretele Local Municipality, South Africa",Moretele Local Municipality,Mnukubyane,N/A
473,Openserve Property,-27.39,26.62,"Theron Street, Nala Ward 12, Nala Local Municipality, 9660, South Africa",Nala Local Municipality,Nala Ward 12,9660
810,Openserve Property,-33.22,22.03,"Church Street, Prince Albert, South Africa",Prince Albert,N/A,
11,Openserve Property,-28.01,24.01,"Dikgatlong Ward 6, Dikgatlong Local Municipality, 8377, South Africa",Dikgatlong Local Municipality,Dikgatlong Ward 6,8377
1819,Openserve Property,-28.61,29.92,"Ezakheni, South Africa",Ezakheni,N/A,
2911,Openserve Property,-23,30.69,"Malamulele, South Africa",Malamulele,N/A,
1887,Openserve Property,-27.01,27.01,"R501, Moqhaka Ward 22, Moqhaka Local Municipality, South Africa",Moqhaka Local Municipality,Moqhaka Ward 22,N/A
280,Openserve Property,-28.02,32.27,"R22, Big Five False Bay Ward 3, The Big Five False Bay Local Municipality, 3960, South Africa",The Big Five False Bay Local Municipality,Big Five False Bay Ward 3,3960
739,Openserve Property,-34.04,18.36,"6 St Anthonys Road, Hout Bay, South Africa",Hout Bay,N/A,
1781,Openserve Property,-25.48,30.96,"1 Apiesdoring Street, Mbombela, South Africa",Mbombela,N/A,
1689,Openserve Property,-23.89,30.29,"unnamed road, Greater Tzaneen Ward 19, Greater Tzaneen Local Municipality, South Africa",Greater Tzaneen Local Municipality,Greater Tzaneen Ward 19,N/A
2156,Openserve Property,-26.28,27.7,"Bekkersdal, South Africa",Bekkersdal,N/A,
4414,Openserve Property,-25.01,27.01,"Magong, South Africa",Magong,N/A,
5798,Openserve Property,-25.02,28.01,"unnamed road, Moretele Ward 6, Moretele Local Municipality, South Africa",Moretele Local Municipality,Moretele Ward 6,N/A
854,Openserve Property,-33.92,18.59,"10 Tredoux Street, Parow, South Africa",Parow,N/A,
44599,Openserve Property,-22,30.02,No result found,No result found,No result found,No result found
997,Openserve Property,-26.42,28.47,"Court Street, Glenvarloch, Nigel, 1491, South Africa",Nigel,Glenvarloch,1491
727,Openserve Property,-34.15,19.02,"Prins Street, Theewaterskloof Ward 14, Theewaterskloof Local Municipality, 7160, South Africa",Theewaterskloof Local Municipality,Theewaterskloof Ward 14,7160
11912,Openserve Property,-25.28,25.87,"Ramotshere Moiloa Nu, South Africa",Ramotshere Moiloa Nu,N/A,
29767,Openserve Property,-29.62,24.09,"unnamed road, Thembelihle Ward 2, Thembelihle Local Municipality, South Africa",Thembelihle Local Municipality,Thembelihle Ward 2,N/A
87,Openserve Property,-32.94,28.02,"1 Humphries Street, Gonubie, South Africa",Gonubie,N/A,
1606,Openserve Property,-26.47,29.11,"Bologna Road, Govan Mbeki Ward 18, Govan Mbeki Local Municipality, 2280, South Africa",Govan Mbeki Local Municipality,Govan Mbeki Ward 18,2280
232,Openserve Property,-28.16,30.23,"Union Street, Craigside, Endumeni Local Municipality, South Africa",Endumeni Local Municipality,Craigside,N/A
3644,Openserve Property,-25.65,31.51,"Mhlambanyatsi, South Africa",Mhlambanyatsi,N/A,
1610,Openserve Property,-26.49,27.49,"67 Wulfsohn Street, Fochville, South Africa",Fochville,N/A,
637,Openserve Property,-27.85,26.36,"Louis Botha Street, Nala Ward 2, Nala Local Municipality, 9680, South Africa",Nala Local Municipality,Nala Ward 2,9680
309,Openserve Property,-29,31.02,"Esiweni/amambulwa, South Africa",Esiweni/amambulwa,N/A,
1588,Openserve Property,-25.65,28.24,"Katjiepiering Road, Doornpoort, Pretoria, 0017, South Africa",Pretoria,Doornpoort,0017
11906,Openserve Property,-31.16,28.87,"Null, Qumbu, South Africa",Qumbu,N/A,
5852,Openserve Property,-32.2,26.82,"R67, Lukhanji Ward 5, Lukhanji Local Municipality, 1409, South Africa",Lukhanji Local Municipality,Lukhanji Ward 5,1409
1719,Openserve Property,-25.84,28.16,"1026 Nina Road, Centurion, South Africa",Centurion,N/A,
18267,Openserve Property,-28.56,28.85,"Marakong, South Africa",Marakong,N/A,
369,Openserve Property,-29.74,30.94,"30 108327 Street, Ntuzuma, South Africa",Ntuzuma,N/A,
701,Openserve Property,-34.02,18.44,"Dale Avenue, Silverhurst, Cape Town, 7806, South Africa",Cape Town,Silverhurst,7806
412,Openserve Property,-30.09,30.86,"11 Madeline Road, Kingsburgh, South Africa",Kingsburgh,N/A,
1875,Openserve Property,-28.29,26.15,"12 Viljoen Street, Bultfontein, South Africa",Bultfontein,N/A,
152,Openserve Property,-34.06,23.37,"4237 Mlele, Plettenberg Bay, South Africa",Plettenberg Bay,N/A,
797,Openserve Property,-34.02,18.51,"20 Louis, Cape Town, South Africa",Cape Town,N/A,
1001,Openserve Property,-25.96,28.23,"1 West View Road, Clayville, South Africa",Clayville,N/A,
1564,Openserve Property,-26.3,29.99,"170 Hoy Street, Breyten, South Africa",Breyten,N/A,
761,Openserve Property,-33.09,18.03,"Street, Langebaan, South Africa",Langebaan,N/A,
363,Openserve Property,-29,30.01,"Umtshezi Ward 9, Umtshezi Local Municipality, Uthukela District Municipality, South Africa",Umtshezi Local Municipality,Umtshezi Ward 9,N/A
1668,Openserve Property,-25.49,31.5,"Kroonarend Street, Fisheaglebend, Nkomazi, 1320, South Africa",Nkomazi,Fisheaglebend,1320
123,Openserve Property,-33.81,25.39,"Jabavu Street, Nelson Mandela Bay Ward 44, KwaNobuhle, 6242, South Africa",KwaNobuhle,Nelson Mandela Bay Ward 44,6242
4102,Openserve Property,-26.72,27.12,"15 Fredrik Street, Potchefstroom, South Africa",Potchefstroom,N/A,
758,Openserve Property,-33.49,21.27,"Albert Street, Kannaland Ward 4, George, 6655, South Africa",George,Kannaland Ward 4,6655
1714,Openserve Property,-25.71,28.22,"641 20th Avenue, Pretoria, South Africa",Pretoria,N/A,
1443,Openserve Property,-27.26,24.96,"Mamusa [Schweizer-reneke] Nu, South Africa",Mamusa [Schweizer-reneke]  Nu,N/A,
156,Openserve Property,-31.9,26.87,"Komani Street, Lukhanji Ward 24, Lukhanji Local Municipality, 5320, South Africa",Lukhanji Local Municipality,Lukhanji Ward 24,5320
1678,Openserve Property,-25.74,28.32,"125 Analees Street, Pretoria, South Africa",Pretoria,N/A,
1747,Openserve Property,-26.85,26.77,"15 Umgeni Street, Stilfontein, South Africa",Stilfontein,N/A,
927,Openserve Property,-26.25,28.31,"Kipling Crescent, Dalpark, Gauteng, 1567, South Africa",N/A,Dalpark,1567
387,Openserve Property,-27.38,31.62,"Bokmakierie Street, uPhongolo Ward 11, uPhongolo Local Municipality, 3170, South Africa",uPhongolo Local Municipality,uPhongolo Ward 11,3170
1612,Openserve Property,-26.74,28.75,"Hertsog Street, Willemsdal, Dipaleseng Local Municipality, 2415, South Africa",Dipaleseng Local Municipality,Willemsdal,2415
1614,Openserve Property,-26.8,28.5,"Grootvlei, South Africa",Grootvlei,N/A,
1686,Openserve Property,-24.52,28.71,"25 5th Street, Mookgopong, South Africa",Mookgopong,N/A,
184,Openserve Property,-33.98,25.6,"19 5th Avenue, Port Elizaberth, South Africa",Port Elizaberth,N/A,
2210,Openserve Property,-33.99,18.69,"Eersriv Way, Mfuleni, Blue Downs, 7103, South Africa",Blue Downs,Mfuleni,7103
45,Openserve Property,-32.99,27.86,"Woolwash Road, Rosedale Park, East London, 5252, South Africa",East London,Rosedale Park,5252
80,Openserve Property,-33.99,22.58,"Wilderness, South Africa",Wilderness,N/A,
1786,Openserve Property,-27.2,25.98,"Smit Street, Maquassi Hills Ward 5, Maquassi Hills Local Municipality, 2630, South Africa",Maquassi Hills Local Municipality,Maquassi Hills Ward 5,2630
252,Openserve Property,-28.9,31.47,"Street, Eshowe, South Africa",Eshowe,N/A,
1707,Openserve Property,-25.68,28.18,"Koos de la Rey Street, Pretoria North, Pretoria, 0066, South Africa",Pretoria,Pretoria North,0066
840,Openserve Property,-34.44,19.46,"R43, Overstrand Ward 11, Overstrand Local Municipality, 7210, South Africa",Overstrand Local Municipality,Overstrand Ward 11,7210
2207,Openserve Property,-33.73,18.44,"19 6th Avenue, Melkbosstrand, South Africa",Melkbosstrand,N/A,
71,Openserve Property,-32.16,25.62,"9 Null, Cradock, South Africa",Cradock,N/A,
964,Openserve Property,-26.31,28.01,"25 Milner Drive, Johannesburg, South Africa",Johannesburg,N/A,
2608,Openserve Property,-24.02,29,"D1501, Mogalakwena Ward 13, Mogalakwena Local Municipality, South Africa",Mogalakwena Local Municipality,Mogalakwena Ward 13,N/A
1695,Openserve Property,-26.98,26.67,"15 Kingsley Road, Orkney, South Africa",Orkney,N/A,
1041,Openserve Property,-26.25,28.19,"De Haas Street, Estera, Germiston, 1428, South Africa",Germiston,Estera,1428
1241,Openserve Property,-33.83,23.85,"Joubertina, South Africa",Joubertina,N/A,
730,Openserve Property,-33.86,18.97,"unnamed road, Stellenbosch Ward 3, Stellenbosch Local Municipality, 7680, South Africa",Stellenbosch Local Municipality,Stellenbosch Ward 3,7680
2127,Openserve Property,-26.54,27.87,"Sebokeng, South Africa",Sebokeng,N/A,
1035,Openserve Property,-26.26,28.27,"260 Kingfisher Corner, Boksburg, South Africa",Boksburg,N/A,
317,Openserve Property,-27.75,30.03,"1399 Mb30 Street, Madadeni, South Africa",Madadeni,N/A,
1487,Openserve Property,-25.1,30.78,"Trichardt Street, Thaba Chweu Ward 7, Thaba Chweu Local Municipality, 1498, South Africa",Thaba Chweu Local Municipality,Thaba Chweu Ward 7,1498
4178,Openserve Property,-26.16,28.22,"Derick Coetzee Street, Ekurhuleni Ward 92, Gauteng, 1478, South Africa",N/A,Ekurhuleni Ward 92,1478
936,Openserve Property,-26.17,27.92,"57 The Highway Highway, Roodepoort, South Africa",Roodepoort,N/A,
2182,Openserve Property,-33.91,19.12,"Dirkie Uys Street, Stellenbosch Ward 1, Stellenbosch Local Municipality, 7690, South Africa",Stellenbosch Local Municipality,Stellenbosch Ward 1,7690
4418,Openserve Property,-26.38,28.16,"2233 Unknown Street, Katlehong, South Africa",Katlehong,N/A,
264,Openserve Property,-25.73,28.22,"139 Nuffield Street, Pretoria, South Africa",Pretoria,N/A,
1639,Openserve Property,-26.64,27.26,"Street, Tlokwe City Council Nu, South Africa",Tlokwe City Council Nu,N/A,
371,Openserve Property,-27.79,30.12,"unnamed road, Newcastle Ward 30, Newcastle Local Municipality, South Africa",Newcastle Local Municipality,Newcastle Ward 30,N/A
1022,Openserve Property,-26.16,27.86,"12 Berlandina Street, Roodepoort, South Africa",Roodepoort,N/A,
9967,Openserve Property,-25.75,27.83,"Street, Hartebeespoort, South Africa",Hartebeespoort,N/A,
38736,Openserve Property,-25.84,28.14,"29 Diane Street, Centurion, South Africa",Centurion,N/A,
164,Openserve Property,-34.02,22.8,"Kingfisher Drive, Knysna Ward 2, George, 6573, South Africa",George,Knysna Ward 2,6573
37,Openserve Property,-27.19,25.33,"31 Buiten Street, Schweizer-reneke, South Africa",Schweizer-reneke,N/A,
2166,Openserve Property,-33.77,18.96,"8 3rd Avenue, Paarl, South Africa",Paarl,N/A,
965,Openserve Property,-26.42,28.11,"Midvaal Nu, South Africa",Midvaal Nu,N/A,
316,Openserve Property,-27.58,31.28,"Avenue Road, Abaqulusi Ward 1, Abaqulusi Local Municipality, South Africa",Abaqulusi Local Municipality,Abaqulusi Ward 1,N/A
563,Openserve Property,-27.87,26.69,"59B Erleigh Boulevard, Odendaalsrus, South Africa",Odendaalsrus,N/A,
1103,Openserve Property,-27.84,25.91,"Tikwana, South Africa",Tikwana,N/A,
14736,Openserve Property,-25,28.02,"Moretele Ward 6, Moretele Local Municipality, Bojanala Platinum District Municipality, South Africa",Moretele Local Municipality,Moretele Ward 6,N/A
1187,Openserve Property,-31.4,23.12,"De Ville Street, Ubuntu Ward 2, Ubuntu Local Municipality, 7070, South Africa",Ubuntu Local Municipality,Ubuntu Ward 2,7070
1594,Openserve Property,-25.01,28.01,"unnamed road, Mnukubyane, Moretele Local Municipality, South Africa",Moretele Local Municipality,Mnukubyane,N/A
406,Openserve Property,-29.89,30.88,"22 Parvati Street, Queensburgh, South Africa",Queensburgh,N/A,
630,Openserve Property,-28,26.01,"Tswelopele Nu, South Africa",Tswelopele Nu,N/A,
642,Openserve Property,-28,27.01,"unnamed road, Matjhabeng Ward 3, Matjhabeng Local Municipality, 9445, South Africa",Matjhabeng Local Municipality,Matjhabeng Ward 3,9445
1622,Openserve Property,-24.35,30.95,"27 Plover Crescent, Hoedspruit, South Africa",Hoedspruit,N/A,
5974,Openserve Property,-30.9,28.99,"Null, Mount Frere, South Africa",Mount Frere,N/A,
992,Openserve Property,-26.29,27.91,"62 Milnerton Street, Johannesburg, South Africa",Johannesburg,N/A,
1402,Openserve Property,-25.44,28.71,"2 Unknown Street, Kwamhlanga, South Africa",Kwamhlanga,N/A,
2177,Openserve Property,-33.94,18.63,"11 Static, Belhar, South Africa",Belhar,N/A,
138,Openserve Property,-32.98,27.92,"32 Linaria Drive, East London, South Africa",East London,N/A,
1653,Openserve Property,-33.98,18.59,"90 Aviation, Matroosfontein, South Africa",Matroosfontein,N/A,
75,Openserve Property,-33.8,25.47,"51 Main Street, Despatch, South Africa",Despatch,N/A,
410,Openserve Property,-28.38,32.41,"McKenzie Street, Mtubatuba Ward 4, Mtubatuba Local Municipality, 3936, South Africa",Mtubatuba Local Municipality,Mtubatuba Ward 4,3936
1910,Openserve Property,-27.65,27.19,"Damane Street, Maokeng, Moqhaka Local Municipality, 1499, South Africa",Moqhaka Local Municipality,Maokeng,1499
219,Openserve Property,-29.88,30.99,"771 Umbilo Road, Durban, South Africa",Durban,N/A,
170,Openserve Property,-32.57,27.43,"Hill Street, Amahlathi Ward 17, Amahlathi Local Municipality, South Africa",Amahlathi Local Municipality,Amahlathi Ward 17,N/A
189,Openserve Property,-30.02,30.92,"688 Andrew Zondo Street, Durban, South Africa",Durban,N/A,
2222,Openserve Property,-34.09,21.26,"Pro Motors, Warden Street, Hessequa Ward 7, George, South Africa",George,Hessequa Ward 7,N/A
1282,Openserve Property,-32.72,25.59,"9 Charles Street, Somerset East, South Africa",Somerset East,N/A,
1793,Openserve Property,-29.66,30.45,"23 Popeellis Drive, Ashburton, South Africa",Ashburton,N/A,
224,Openserve Property,-29.34,30.63,"Ikamanzi Road, Dalton, South Africa",Dalton,N/A,
4998,Openserve Property,-28.62,28.21,"De Villiers Street, Dihlabeng Ward 14, Dihlabeng Local Municipality, South Africa",Dihlabeng Local Municipality,Dihlabeng Ward 14,N/A
1568,Openserve Property,-26.07,30.12,"Van Riebeeck Street, Albert Luthuli Ward 21, Albert Luthuli Local Municipality, 1185, South Africa",Albert Luthuli Local Municipality,Albert Luthuli Ward 21,1185
5808,Openserve Property,-28.73,20.97,"Rooikopeiland, South Africa",Rooikopeiland,N/A,
847,Openserve Property,-34.07,18.58,"1 Vesuvius Avenue, Cape Town Ward 43, Western Cape, 7798, South Africa",N/A,Cape Town Ward 43,7798
1724,Openserve Property,-25.85,28.25,"11 Ventura Avenue, Centurion, South Africa",Centurion,N/A,
428,Openserve Property,-29.79,29.49,"1 Berg Road, Underberg, South Africa",Underberg,N/A,
2188,Openserve Property,-34.13,18.85,"Mbadu Lane, Cape Town Ward 86, Strand, 7140, South Africa",Strand,Cape Town Ward 86,7140
671,Openserve Property,-34.53,20.04,"Hoffman Street, Cape Agulhas Ward 4, Cape Agulhas Local Municipality, 7280, South Africa",Cape Agulhas Local Municipality,Cape Agulhas Ward 4,7280
1531,Openserve Property,-25.74,27.91,"Street, Rietfontein, South Africa",Rietfontein,N/A,
1043,Openserve Property,-26.18,28.18,"5 Almond Road, Germiston, South Africa",Germiston,N/A,
9756,Openserve Property,-32.1,28.31,"Guido Street, Idutywa, South Africa",Idutywa,N/A,
890,Openserve Property,-26.01,27.01,"Kgetlengrivier Ward 3, Kgetleng River Local Municipality, 8348, South Africa",Kgetleng River Local Municipality,Kgetlengrivier Ward 3,8348
3,Openserve Property,-27.65,25.61,"Street, Bloemhof, South Africa",Bloemhof,N/A,
1803,Openserve Property,-29.01,30.01,"Umtshezi Ward 9, Umtshezi Local Municipality, Uthukela District Municipality, South Africa",Umtshezi Local Municipality,Umtshezi Ward 9,N/A
5812,Openserve Property,-25.38,28.26,"1541 A23637 Street, Temba, South Africa",Temba,N/A,
2084,Openserve Property,-26.05,30.8,"86 Unknown Street, Lukwatini, South Africa",Lukwatini,N/A,
1877,Openserve Property,-28.52,28.42,"188 Van Reenen Street, Kgubetswana, Dihlabeng Local Municipality, 9707, South Africa",Dihlabeng Local Municipality,Kgubetswana,9707
1796,Openserve Property,-29.61,30.33,"34 Peter Harwood Place, Pietermaritzburg, South Africa",Pietermaritzburg,N/A,
664,Openserve Property,-33.94,20.1,"Main Street, Bonnievale, South Africa",Bonnievale,N/A,
1797,Openserve Property,-27.9,30.58,"P54, eMadlangeni Ward 3, eMadlangeni Local Municipality, South Africa",eMadlangeni Local Municipality,eMadlangeni Ward 3,N/A
1255,Openserve Property,-31.07,28.35,"Fourie Street, Elundini Ward 3, Elundini Local Municipality, South Africa",Elundini Local Municipality,Elundini Ward 3,N/A
3038,Openserve Property,-23,29,"unnamed road, Blouberg Local Municipality, Limpopo, South Africa",N/A,Blouberg Local Municipality,N/A
2216,Openserve Property,-34.07,18.53,"26 Peridot Crescent, Pelican Park, Western Cape, 7941, South Africa",N/A,Pelican Park,7941
1427,Openserve Property,-25.7,27.49,"unnamed road, Rustenburg Ward 32, Rustenburg Local Municipality, South Africa",Rustenburg Local Municipality,Rustenburg Ward 32,N/A
1821,Openserve Property,-29.75,30.83,"unnamed road, Waterfall, Forest Hills, 3652, South Africa",Forest Hills,Waterfall,3652
924,Openserve Property,-26.35,28.43,"89 Prinsep Avenue, Nigel, South Africa",Nigel,N/A,
1818,Openserve Property,-29.01,29.87,"58 Hellet Road, Estcourt, South Africa",Estcourt,N/A,
453,Openserve Property,-27.75,26.64,"Caledon Street, Allanridge, Matjhabeng Local Municipality, South Africa",Matjhabeng Local Municipality,Allanridge,N/A
2233,Openserve Property,-33.29,19.14,"Station Road, Chris Hani Informal Settlement, Witzenberg Local Municipality, 6820, South Africa",Witzenberg Local Municipality,Chris Hani Informal Settlement,6820
9946,Openserve Property,-31.62,29.55,"Null, Ferry Point, South Africa",Ferry Point,N/A,
376,Openserve Property,-27.42,30.82,"Smit Street, eDumbe Ward 3, eDumbe Local Municipality, 3180, South Africa",eDumbe Local Municipality,eDumbe Ward 3,3180
2202,Openserve Property,-31.55,18.35,"unnamed road, Lutzville, Matzikama Local Municipality, 8165, South Africa",Matzikama Local Municipality,Lutzville,8165
542,Openserve Property,-29.2,27.46,"6 Voortekker Street, Ladybrand, South Africa",Ladybrand,N/A,
16263,Openserve Property,-34.02,24.74,"Humansdorp, South Africa",Humansdorp,N/A,
599,Openserve Property,-28.32,27.62,"1 Voortrekker Street, Senekal, South Africa",Senekal,N/A,
510,Openserve Property,-29.01,26,"Mangaung Metropolitan Municipality, South Africa",N/A,N/A,N/A
12,Openserve Property,-29.06,23.78,"41 Darcy Street, Douglas, South Africa",Douglas,N/A,
2194,Openserve Property,-33.91,18.51,"154 Tenth Avenue, Cape Town, South Africa",Cape Town,N/A,
5920,Openserve Property,-26.86,26.42,"Matlosana Nu, South Africa",Matlosana Nu,N/A,
1502,Openserve Property,-24.73,30.21,"R555, Greater Tubatse Ward 31, Greater Tubatse Local Municipality, 1133, South Africa",Greater Tubatse Local Municipality,Greater Tubatse Ward 31,1133
697,Openserve Property,-32.18,18.89,"2 Robertson Street, Clanwilliam, South Africa",Clanwilliam,N/A,
2422,Openserve Property,-29.41,26.44,"Mangaung Nu, South Africa",Mangaung Nu,N/A,
11798,Openserve Property,-25.39,27.01,"29 Unknown Street, Phatsima B, South Africa",Phatsima B,N/A,
9948,Openserve Property,-31.31,28.76,"Null Street, Tsolo, South Africa",Tsolo,N/A,
785,Openserve Property,-34.47,19.9,"26 Eskom Street, Napier, South Africa",Napier,N/A,
5904,Openserve Property,-26.73,27.1,"226 Rivier Street, Potchefstroom, South Africa",Potchefstroom,N/A,
256,Openserve Property,-30.51,29.85,"Street, Rawuka, South Africa",Rawuka,N/A,
6149,Openserve Property,-26,28.17,"Camelia Street, Johannesburg Ward 111, Gauteng, 1685, South Africa",N/A,Johannesburg Ward 111,1685
1025,Openserve Property,-26.09,27.87,"Peter Road, Johannesburg Ward 97, Roodepoort, 1724, South Africa",Roodepoort,Johannesburg Ward 97,1724
2230,Openserve Property,-34.8,20.05,"63 Main Road, Struisbaai, South Africa",Struisbaai,N/A,
1401,Openserve Property,-25.86,26.9,"51 Rand Street, Koster, South Africa",Koster,N/A,
1592,Openserve Property,-24.73,26.81,"6 Hardekool, Dwaalboom, South Africa",Dwaalboom,N/A,
17275,Openserve Property,-31.97,29.15,"Kujonga, South Africa",Kujonga,N/A,
2234,Openserve Property,-31.61,18.73,"Vanrhynsdorp, South Africa",Vanrhynsdorp,N/A,
1813,Openserve Property,-29.65,30.3,"unnamed road, Dambuza, Msunduzi Local Municipality, 3217, South Africa",Msunduzi Local Municipality,Dambuza,3217
94,Openserve Property,-34.04,23.24,"N2, Bitou Ward 7, George, 6604, South Africa",George,Bitou Ward 7,6604
7867,Openserve Property,-32.68,27.15,"Null, Keiskammahoek, South Africa",Keiskammahoek,N/A,
151,Openserve Property,-32.58,25.14,"Buitekant Street, Vaalblok, Blue Crane Route Local Municipality, 5860, South Africa",Blue Crane Route Local Municipality,Vaalblok,5860
655,Openserve Property,-33.9,20.72,"Bain Street, Barrydale, South Africa",Barrydale,N/A,
667,Openserve Property,-34.23,19.21,"unnamed road, Vredendal, Theewaterskloof Local Municipality, South Africa",Theewaterskloof Local Municipality,Vredendal,N/A
2245,Openserve Property,-33.41,19.2,"43 Merriman Street, Wolseley, South Africa",Wolseley,N/A,
6408,Openserve Property,-30.26,29.94,"Main Street, Umzimkhulu Ward 16, Umzimkhulu Local Municipality, 3297, South Africa",Umzimkhulu Local Municipality,Umzimkhulu Ward 16,3297
1893,Openserve Property,-28.58,28.83,"Street, Ha-sethunya, South Africa",Ha-sethunya,N/A,
13566,Openserve Property,-26,25.02,"Ratlou Ward 4, Ratlou Local Municipality, Ngaka Modiri Molema District Municipality, South Africa",Ratlou Local Municipality,Ratlou Ward 4,N/A
15,Openserve Property,-27.75,24.81,"unnamed road, Phokwane Ward 6, Phokwane Local Municipality, 8570, South Africa",Phokwane Local Municipality,Phokwane Ward 6,8570
25933,Openserve Property,-25.52,29.67,"unnamed road, Emakhazeni Ward 2, Emakhazeni Local Municipality, South Africa",Emakhazeni Local Municipality,Emakhazeni Ward 2,N/A
28,Openserve Property,-26.15,25.42,"unnamed road, Ratlou Ward 11, Ratlou Local Municipality, South Africa",Ratlou Local Municipality,Ratlou Ward 11,N/A
310,Openserve Property,-28.56,29.78,"41 Queen Street, Ladysmith, South Africa",Ladysmith,N/A,
1330,Openserve Property,-26.33,26.32,"OK Value, Voortrekker Street, Ditsobotla Ward 16, Ditsobotla Local Municipality, 2725, South Africa",Ditsobotla Local Municipality,Ditsobotla Ward 16,2725
4415,Openserve Property,-26.38,28.13,"Wolseley Street, Greenfields, Gauteng, 3521, South Africa",N/A,Greenfields,3521
109,Openserve Property,-33.68,26.67,"Kenton On Sea, South Africa",Kenton On Sea,N/A,
1582,Openserve Property,-26.36,28.79,"unnamed road, Lesedi Ward 13, Lesedi Local Municipality, 2260, South Africa",Lesedi Local Municipality,Lesedi Ward 13,2260
1985,Openserve Property,-26.46,27.87,"Orange Farm, South Africa",Orange Farm,N/A,
52,Openserve Property,-33.88,25.52,"Harebell Street, Nelson Mandela Bay Ward 35, Bethelsdorp, 6059, South Africa",Bethelsdorp,Nelson Mandela Bay Ward 35,6059
2165,Openserve Property,-33.91,18.85,"5 Carriem Street, Cloetesville, South Africa",Cloetesville,N/A,
2235,Openserve Property,-32.78,18.17,"28 Church Street, Velddrif, South Africa",Velddrif,N/A,
2103,Openserve Property,-33.33,19.32,"Joseph Kruger Street, Witzenberg Ward 6, Witzenberg Local Municipality, 6835, South Africa",Witzenberg Local Municipality,Witzenberg Ward 6,6835
1914,Openserve Property,-27.21,26.95,"Church Street, Moqhaka Ward 25, Moqhaka Local Municipality, South Africa",Moqhaka Local Municipality,Moqhaka Ward 25,N/A
21219,Openserve Property,-31.64,27.26,"Emalahleni Ward 5, Emalahleni Local Municipality, Chris Hani District Municipality, South Africa",Emalahleni Local Municipality,Emalahleni Ward 5,N/A
1312,Openserve Property,-26.39,25.9,"Biesiesvlei, South Africa",Biesiesvlei,N/A,
364,Openserve Property,-29.36,29.99,"unnamed road, uMngeni Ward 3, uMgeni Local Municipality, South Africa",uMgeni Local Municipality,uMngeni Ward 3,N/A
174,Openserve Property,-33.86,25.6,"unnamed road, Nelson Mandela Bay Ward 60, Eastern Cape, 6209, South Africa",N/A,Nelson Mandela Bay Ward 60,6209
2254,Openserve Property,-34.2,21.59,"Street, Albertinia, South Africa",Albertinia,N/A,
229,Openserve Property,-29.93,29.88,"D731, Ingwe Ward 5, Ingwe Local Municipality, South Africa",Ingwe Local Municipality,Ingwe Ward 5,N/A
5970,Openserve Property,-32,27.58,"Null Street, Cofimvaba, South Africa",Cofimvaba,N/A,
1809,Openserve Property,-29.01,30.01,"Umtshezi Ward 9, Umtshezi Local Municipality, Uthukela District Municipality, South Africa",Umtshezi Local Municipality,Umtshezi Ward 9,N/A
780,Openserve Property,-33.15,18.66,"53 Tuin Street, Moorreesburg, South Africa",Moorreesburg,N/A,
12952,Openserve Property,-30,28.01,No result found,No result found,No result found,No result found
1199,Openserve Property,-32.7,26.3,"Mthathi Street, Lingelethu, South Africa",Lingelethu,N/A,
11660,Openserve Property,-30.87,29.82,"unnamed road, Mbizana Ward 7, Mbizana Local Municipality, 4800, South Africa",Mbizana Local Municipality,Mbizana Ward 7,4800
1661,Openserve Property,-25.01,28.01,"unnamed road, Mnukubyane, Moretele Local Municipality, South Africa",Moretele Local Municipality,Mnukubyane,N/A
2229,Openserve Property,-34.37,21.41,"6 Keerom Avenue, Still Bay, South Africa",Still Bay,N/A,
161,Openserve Property,-33.75,25.38,"3 Wahab Tiry Street, Uitenhage, South Africa",Uitenhage,N/A,
9734,Openserve Property,-28.48,28.85,"Street, Phuthaditjhaba, South Africa",Phuthaditjhaba,N/A,
614,Openserve Property,-30.03,25.78,"Abel Street, Madikgetla, Kopanong Local Municipality, 9913, South Africa",Kopanong Local Municipality,Madikgetla,9913
7868,Openserve Property,-31.68,28,"unnamed road, Engcobo Ward 11, Engcobo Local Municipality, South Africa",Engcobo Local Municipality,Engcobo Ward 11,N/A
4298,Openserve Property,-28,26.01,"Tswelopele Nu, South Africa",Tswelopele Nu,N/A,
1895,Openserve Property,-29.27,26.69,"65 Street, Botshabelo, South Africa",Botshabelo,N/A,
1454,Openserve Property,-24.88,30.75,"Thaba Chweu Ward 13, Thaba Chweu Local Municipality, 1290, South Africa",Thaba Chweu Local Municipality,Thaba Chweu Ward 13,1290
243,Openserve Property,-24.73,31.21,"Thulamahashe, South Africa",Thulamahashe,N/A,
2241,Openserve Property,-33.97,18.85,"unnamed road, Paradyskloof, Stellenbosch Local Municipality, 7487, South Africa",Stellenbosch Local Municipality,Paradyskloof,7487
2212,Openserve Property,-34.41,19.17,"Douglas Street, Overstrand Ward 13, Overstrand Local Municipality, 7201, South Africa",Overstrand Local Municipality,Overstrand Ward 13,7201
1075,Openserve Property,-30.97,22.13,"Carnarvon Magistrate's Court, Hanau, Die Bult, Kareeberg Local Municipality, 8925, South Africa",Kareeberg Local Municipality,Die Bult,8925
1883,Openserve Property,-27.01,28.01,"Metsimaholo Ward 20, Metsimaholo Local Municipality, 2008, South Africa",Metsimaholo Local Municipality,Metsimaholo Ward 20,2008
329,Openserve Property,-27.48,32.58,"unnamed road, uMhlabuyalingana Ward 2, uMhlabuyalingana Local Municipality, South Africa",uMhlabuyalingana Local Municipality,uMhlabuyalingana Ward 2,N/A
959,Openserve Property,-26.16,27.79,"Msidi Drive, Mogale City Ward 8, Krugersdorp, 1754, South Africa",Krugersdorp,Mogale City Ward 8,1754
325,Openserve Property,-29.16,31.07,"Nyamazane, South Africa",Nyamazane,N/A,
1153,Openserve Property,-29.13,19.4,"unnamed road, Khâi-Ma Ward 4, Khâi-Ma Local Municipality, 8890, South Africa",Khâi-Ma Local Municipality,Khâi-Ma Ward 4,8890
319,Openserve Property,-27.01,31,No result found,No result found,No result found,No result found
1892,Openserve Property,-27.68,29.56,"unnamed road, Phumelela Ward 1, Phumelela Local Municipality, South Africa",Phumelela Local Municipality,Phumelela Ward 1,N/A
932,Openserve Property,-26.29,28.59,"Street, Viskuil, South Africa",Viskuil,N/A,
313,Openserve Property,-27.77,29.91,"Carringtonweg, Lennoxton, Newcastle Local Municipality, 2940, South Africa",Newcastle Local Municipality,Lennoxton,2940
2630,Openserve Property,-29.35,26.21,"N6, Mangaung Ward 18, Free State, South Africa",N/A,Mangaung Ward 18,N/A
746,Openserve Property,-34.34,19.03,"28 Main Road, Kleinmond, South Africa",Kleinmond,N/A,
58,Openserve Property,-33.6,22.24,"3rd Avenue, Oudtshoorn Local Municipality, George, 6625, South Africa",George,N/A,6625
6327,Openserve Property,-25.77,27.85,"unnamed road, Madibeng Ward 29, Madibeng Local Municipality, 0216, South Africa",Madibeng Local Municipality,Madibeng Ward 29,0216
388,Openserve Property,-31.05,30.22,"Boundary Road, Hibiscus Coast Ward 1, Hibiscus Coast Local Municipality, 4295, South Africa",Hibiscus Coast Local Municipality,Hibiscus Coast Ward 1,4295
308,Openserve Property,-28.6,32.09,"unnamed road, KwaMbonambi, uMfolozi Local Municipality, South Africa",uMfolozi Local Municipality,KwaMbonambi,N/A
1445,Openserve Property,-26.05,29.05,"Ogies, South Africa",Ogies,N/A,
3862,Openserve Property,-24.99,31.24,"Nhongo Street, Bushbuckridge Ward 1, Mkhuhlu, 1246, South Africa",Mkhuhlu,Bushbuckridge Ward 1,1246
6124,Openserve Property,-30.26,25.27,"Philippolis, South Africa",Philippolis,N/A,
586,Openserve Property,-27.92,26.8,"14 Europa Street, Riebeeckstad, South Africa",Riebeeckstad,N/A,
225,Openserve Property,-28.01,30.01,"Dannhauser Ward 1, Dannhauser Local Municipality, Amajuba District Municipality, South Africa",Dannhauser Local Municipality,Dannhauser Ward 1,N/A
991,Openserve Property,-26.01,27.86,"Rietfontein, South Africa",Rietfontein,N/A,
4572,Openserve Property,-24.17,30.4,"Street, Maruleng Nu, South Africa",Maruleng Nu,N/A,
719,Openserve Property,-30.56,17.99,"unnamed road, Kamiesberg Ward 2, Kamiesberg Local Municipality, South Africa",Kamiesberg Local Municipality,Kamiesberg Ward 2,N/A
16548,Openserve Property,-26.18,27.79,"17395 Blouberg Street, Kagiso, South Africa",Kagiso,N/A,
498,Openserve Property,-29.16,26.18,"33 Annie Pretorius Street, Bloemfontein, South Africa",Bloemfontein,N/A,
11903,Openserve Property,-31.7,27.23,"unnamed road, Emalahleni Ward 5, Emalahleni Local Municipality, 5410, South Africa",Emalahleni Local Municipality,Emalahleni Ward 5,5410
1348,Openserve Property,-26.9,26.39,"Street, Dominionville, South Africa",Dominionville,N/A,
268,Openserve Property,-29.06,30.6,"Linum Place, Umvoti Ward 9, Umvoti Local Municipality, 3250, South Africa",Umvoti Local Municipality,Umvoti Ward 9,3250
929,Openserve Property,-26.09,27.68,"unnamed road, Mogale City Ward 30, Krugersdorp, South Africa",Krugersdorp,Mogale City Ward 30,N/A
1581,Openserve Property,-26.89,28.1,"32 Voortrekker Street, Deneysville, South Africa",Deneysville,N/A,
1059,Openserve Property,-27.33,23.5,"Ga-Segonyana Ward 12, Ga-Segonyana Local Municipality, John Taolo Gaetsewe District Municipality, South Africa",Ga-Segonyana Local Municipality,Ga-Segonyana Ward 12,N/A
1326,Openserve Property,-24.68,30.33,"13 Justisie Street, Burgersfort, South Africa",Burgersfort,N/A,
1419,Openserve Property,-26,27.55,"37 Park Street, Magaliesburg, South Africa",Magaliesburg,N/A,
1294,Openserve Property,-31.19,28.23,"271 Null, Ugie, South Africa",Ugie,N/A,
1792,Openserve Property,-30.68,30.51,"4A Fiddlewood Lane, Port Shepstone, South Africa",Port Shepstone,N/A,
1737,Openserve Property,-25.49,30.97,"Edith Street, Sonheuwel, Mbombela, 1212, South Africa",Mbombela,Sonheuwel,1212
158,Openserve Property,-33.84,25.55,"20 Kurland Road, Port Elizaberth, South Africa",Port Elizaberth,N/A,
920,Openserve Property,-26.22,27.87,"Ludirile Lower Primary School, Sebege Street, Mofolo North, Soweto, 1875, South Africa",Soweto,Mofolo North,1875
133,Openserve Property,-34,22.37,"Moerasrivier, George Nu, South Africa",George Nu,N/A,
223,Openserve Property,-29.74,30.84,"48 Debengeni Road, Waterfall, South Africa",Waterfall,N/A,
759,Openserve Property,-33.2,20.86,"Laingsburg, South Africa",Laingsburg,N/A,
1245,Openserve Property,-32.68,28.38,"unnamed road, Kei Mouth, Great Kei Local Municipality, 5292, South Africa",Great Kei Local Municipality,Kei Mouth,5292
82,Openserve Property,-32.79,26.62,"R67, Newtown, Nkonkobe Local Municipality, 5720, South Africa",Nkonkobe Local Municipality,Newtown,5720
735,Openserve Property,-34.09,20.96,"12 Reitz Street, Heidelberg, South Africa",Heidelberg,N/A,
74,Openserve Property,-33.49,22.54,"De Rust, South Africa",De Rust,N/A,
1694,Openserve Property,-26.99,28.21,"Pretorius Street, Oranjeville, Metsimaholo Local Municipality, South Africa",Metsimaholo Local Municipality,Oranjeville,N/A
2133,Openserve Property,-31.47,19.78,"7 Strauss Avenue, Calvinia, South Africa",Calvinia,N/A,
713,Openserve Property,-32.31,18.35,"4 Malgas Street, Elands Bay, South Africa",Elands Bay,N/A,
11499,Openserve Property,-25.89,25.62,"Magogoe Tlhabologo, South Africa",Magogoe Tlhabologo,N/A,
5133,Openserve Property,-29.58,26.66,"Dewetsdorp, South Africa",Dewetsdorp,N/A,
819,Openserve Property,-34.15,19.91,"Klip Street, Theewaterskloof Ward 1, Theewaterskloof Local Municipality, 7250, South Africa",Theewaterskloof Local Municipality,Theewaterskloof Ward 1,7250
535,Openserve Property,-27.11,27.65,"unnamed road, Ngwathe Ward 18, Ngwathe Local Municipality, South Africa",Ngwathe Local Municipality,Ngwathe Ward 18,N/A
32,Openserve Property,-28.33,23.06,"12 Sarie Mare Street, Postmansburg, South Africa",Postmansburg,N/A,
1238,Openserve Property,-31.47,27.34,"Fletcher Street, Indwe, South Africa",Indwe,N/A,
2189,Openserve Property,-34.39,19.14,"Protea Road, Overstrand Ward 8, Overstrand Local Municipality, 7202, South Africa",Overstrand Local Municipality,Overstrand Ward 8,7202
4010,Openserve Property,-25.76,29.43,"Phathudi Street, Steve Tshwete Ward 21, Steve Tshwete Local Municipality, 1050, South Africa",Steve Tshwete Local Municipality,Steve Tshwete Ward 21,1050
3265,Openserve Property,-25.47,30.97,"Prime Corner, Mbombela Ward 14, Mbombela, 1201, South Africa",Mbombela,Mbombela Ward 14,1201
51,Openserve Property,-32.88,27.57,"32 Street, Berlin, South Africa",Berlin,N/A,
157,Openserve Property,-32.94,27.98,"Main Road, Gonubie West, East London, 5257, South Africa",East London,Gonubie West,5257
2170,Openserve Property,-33.48,19.66,"24 Voortrekker Road, De Doorns, South Africa",De Doorns,N/A,
3145,Openserve Property,-23.5,29.72,"Botlokwa (Mphakane), South Africa",Botlokwa (Mphakane),N/A,
5102,Openserve Property,-27.94,22.74,"Null Street, Olifantshoek, South Africa",Olifantshoek,N/A,
702,Openserve Property,-33.38,18.38,"10 Hildebrandt Street, Darling, South Africa",Darling,N/A,
666,Openserve Property,-33.87,18.54,"27 De Boerin Street, Milnerton, South Africa",Milnerton,N/A,
1239,Openserve Property,-32.95,24.67,"Boom Street, Ikwezi Ward 1, Ikwezi Local Municipality, South Africa",Ikwezi Local Municipality,Ikwezi Ward 1,N/A
2402,Openserve Property,-32.3,27.15,"Null, Carthcart, South Africa",Carthcart,N/A,
1547,Openserve Property,-26.53,27.85,"1046 Easton Road, Evaton, South Africa",Evaton,N/A,
1611,Openserve Property,-23.31,30.7,"322 Unknown Street, Giyani, South Africa",Giyani,N/A,
119,Openserve Property,-33.86,25.53,"Slovo Street, Nelson Mandela Bay Ward 33, iBhayi, 6201, South Africa",iBhayi,Nelson Mandela Bay Ward 33,6201
437,Openserve Property,-28.85,30.08,"Valley, Umtshezi Ward 7, Umtshezi Local Municipality, South Africa",Umtshezi Local Municipality,Umtshezi Ward 7,N/A
1574,Openserve Property,-25.67,28.53,"Range Road, Tshwane Ward 100, Cullinan, South Africa",Cullinan,Tshwane Ward 100,N/A
61,Openserve Property,-33.53,21.69,"Barry Street, Kannaland Ward 2, George, 6660, South Africa",George,Kannaland Ward 2,6660
492,Openserve Property,-27.56,27.67,"Street, Edenville, South Africa",Edenville,N/A,
2882,Openserve Property,-32.68,26.08,"R63, Nxuba Ward 4, Nxuba Local Municipality, South Africa",Nxuba Local Municipality,Nxuba Ward 4,N/A
18787,Openserve Property,-24.61,31.04,"Kgapamadi, South Africa",Kgapamadi,N/A,
1258,Openserve Property,-31.4,26.36,"Hall Street, Molteno, South Africa",Molteno,N/A,
2904,Openserve Property,-23.95,30.61,"Mopani Street, Gravelotte, Ba-Phalaborwa Local Municipality, South Africa",Ba-Phalaborwa Local Municipality,Gravelotte,N/A
2198,Openserve Property,-33.88,18.81,"unnamed road, Stellenbosch Ward 19, Stellenbosch Local Municipality, 7607, South Africa",Stellenbosch Local Municipality,Stellenbosch Ward 19,7607
153,Openserve Property,-33.59,26.88,"30 Null, Port Alfred, South Africa",Port Alfred,N/A,
522,Openserve Property,-31.12,26.81,"Jamestown, South Africa",Jamestown,N/A,
1590,Openserve Property,-25.42,30.11,"Dullstroom, South Africa",Dullstroom,N/A,
1477,Openserve Property,-25.19,29.93,"Roossenekal, South Africa",Roossenekal,N/A,
948,Openserve Property,-26.06,27.76,"Ysterklip Street, Mogale City Ward 25, Krugersdorp, South Africa",Krugersdorp,Mogale City Ward 25,N/A
2204,Openserve Property,-33.51,18.48,"Frans Street, Mamre, South Africa",Mamre,N/A,
5,Openserve Property,-27.91,25.17,"Street, Christiana, South Africa",Christiana,N/A,
2973,Openserve Property,-29.8,30.74,"Street, Ethekwini Nu, South Africa",Ethekwini Nu,N/A,
1033,Openserve Property,-26.19,28.55,"Sundra, South Africa",Sundra,N/A,
14102,Openserve Property,-23.13,30.42,"Street, Vuwani, South Africa",Vuwani,N/A,
4981,Openserve Property,-23.1,30.88,"Thulamela Ward 40, Thulamela Local Municipality, Vhembe District Municipality, South Africa",Thulamela Local Municipality,Thulamela Ward 40,N/A
4389,Openserve Property,-26.25,28.44,"10 Third Street, Springs, South Africa",Springs,N/A,
11187,Openserve Property,-31.57,28.8,"17 Null, Mthatha, South Africa",Mthatha,N/A,
1268,Openserve Property,-33.44,25.97,"Null, Paterson, South Africa",Paterson,N/A,
284,Openserve Property,-29.6,29.86,"D1223, Impendle, Impendle Local Municipality, South Africa",Impendle Local Municipality,Impendle,N/A
575,Openserve Property,-28.52,28.81,"unnamed road, Theosane, Maluti-a-Phofung Local Municipality, 9869, South Africa",Maluti-a-Phofung Local Municipality,Theosane,9869
29707,Openserve Property,-26.12,23.77,"Morokweng B, South Africa",Morokweng B,N/A,
1601,Openserve Property,-23.17,30.05,"Njhakanjhaka, South Africa",Njhakanjhaka,N/A,
514,Openserve Property,-30.6,25.49,"1 Lourier Street, Gariepdam, South Africa",Gariepdam,N/A,
21150,Openserve Property,-32.33,28.13,"unnamed road, Mnquma Ward 7, Mnquma Local Municipality, 4960, South Africa",Mnquma Local Municipality,Mnquma Ward 7,4960
18229,Openserve Property,-28.58,28.84,"Ha-sethunya, South Africa",Ha-sethunya,N/A,
4984,Openserve Property,-27.16,29.63,"Main Street, Pixley ka Seme Ward 6, Pixley Ka Seme Local Municipality, South Africa",Pixley Ka Seme Local Municipality,Pixley ka Seme Ward 6,N/A
1846,Openserve Property,-28.73,31.53,"Umlalazi Nu, South Africa",Umlalazi Nu,N/A,
1736,Openserve Property,-25.8,27.76,"R560, Madibeng Ward 29, Madibeng Local Municipality, 0232, South Africa",Madibeng Local Municipality,Madibeng Ward 29,0232
23518,Openserve Property,-32.24,28.85,"Null, Ntshangase, South Africa",Ntshangase,N/A,
1031,Openserve Property,-26.32,28.18,"928 Sibanze Street, Katlehong, South Africa",Katlehong,N/A,
10884,Openserve Property,-25.95,28.16,"Milner Road, Johannesburg Ward 92, Gauteng, 1683, South Africa",N/A,Johannesburg Ward 92,1683
17403,Openserve Property,-25.85,28.38,"unnamed road, Tshwane Ward 91, Gauteng, 0056, South Africa",N/A,Tshwane Ward 91,0056
13891,Openserve Property,-31.01,29.01,"unnamed road, Umzimvubu Ward 20, Umzimvubu Local Municipality, South Africa",Umzimvubu Local Municipality,Umzimvubu Ward 20,N/A
2884,Openserve Property,-23.37,29.33,"Keerom Street, Molemole Ward 10, Molemole Local Municipality, 0715, South Africa",Molemole Local Municipality,Molemole Ward 10,0715
1197,Openserve Property,-32.48,24.57,"Blue Crane Route Ward 4, Blue Crane Route Local Municipality, 5860, South Africa",Blue Crane Route Local Municipality,Blue Crane Route Ward 4,5860
4734,Openserve Property,-25.34,28.85,"274 Unknown Street, Tweefontein, South Africa",Tweefontein,N/A,
633,Openserve Property,-27.86,28.96,"West Street, Phumelela Ward 7, Phumelela Local Municipality, 9890, South Africa",Phumelela Local Municipality,Phumelela Ward 7,9890
44,Openserve Property,-33.81,25.63,"Chrysler Street, Nelson Mandela Bay Ward 60, Eastern Cape, 6211, South Africa",N/A,Nelson Mandela Bay Ward 60,6211
662,Openserve Property,-31.04,18.27,"N7, Matzikama Ward 8, Matzikama Local Municipality, South Africa",Matzikama Local Municipality,Matzikama Ward 8,N/A
2199,Openserve Property,-34.14,18.34,"Shrike Street, Cape Town Ward 61, Western Cape, 7976, South Africa",N/A,Cape Town Ward 61,7976
605,Openserve Property,-28.71,26.07,"Street, Masilonyana Nu, South Africa",Masilonyana Nu,N/A,
3008,Openserve Property,-23.87,28.76,"Bakenberg, South Africa",Bakenberg,N/A,
1833,Openserve Property,-29.64,31.13,"1 Jasmine Place, La Mercy, South Africa",La Mercy,N/A,
1391,Openserve Property,-25.01,31.01,"Thaba Chweu Ward 10, Thaba Chweu Local Municipality, 1270, South Africa",Thaba Chweu Local Municipality,Thaba Chweu Ward 10,1270
2864,Openserve Property,-26.49,29.23,"30 Voortrekker Street, Trichardt, South Africa",Trichardt,N/A,
1745,Openserve Property,-25.5,31,"Saturn Street, Mbombela Ward 17, Mbombela, 1201, South Africa",Mbombela,Mbombela Ward 17,1201
5105,Openserve Property,-26.98,20.78,"Askham, South Africa",Askham,N/A,
1490,Openserve Property,-25.81,26.53,"Ditsobotla Ward 13, Ditsobotla Local Municipality, Ngaka Modiri Molema District Municipality, South Africa",Ditsobotla Local Municipality,Ditsobotla Ward 13,N/A
93,Openserve Property,-33.83,24.88,"Null, Hankey, South Africa",Hankey,N/A,
15621,Openserve Property,-22.89,30.73,"unnamed road, Thulamela Ward 12, Thulamela Local Municipality, South Africa",Thulamela Local Municipality,Thulamela Ward 12,N/A
940,Openserve Property,-26.39,27.63,"Grootkloof Street, Glenharvie, Westonaria Local Municipality, 1779, South Africa",Westonaria Local Municipality,Glenharvie,1779
1734,Openserve Property,-24.96,28.54,"D1881, Bela-Bela Ward 4, Bela Bela Local Municipality, 0430, South Africa",Bela Bela Local Municipality,Bela-Bela Ward 4,0430
1812,Openserve Property,-26.97,29.21,"Tsubella Street, Lekwa Ward 2, Lekwa Local Municipality, 2430, South Africa",Lekwa Local Municipality,Lekwa Ward 2,2430
168,Openserve Property,-34.16,24.82,"Lyme Road North, Marina Glade, Kouga Local Municipality, 6312, South Africa",Kouga Local Municipality,Marina Glade,6312
18228,Openserve Property,-27.96,26.78,"Ntsonga Street, Matjhabeng Ward 28, Welkom, 9459, South Africa",Welkom,Matjhabeng Ward 28,9459
22301,Openserve Property,-24.3,28.12,"Vaalwater, South Africa",Vaalwater,N/A,
520,Openserve Property,-29.76,25.43,"unnamed road, Kopanong Ward 6, Kopanong Local Municipality, 9974, South Africa",Kopanong Local Municipality,Kopanong Ward 6,9974
511,Openserve Property,-28.27,29.13,"42 Murray Street, Harrismith, South Africa",Harrismith,N/A,
1641,Openserve Property,-25,31.01,"Thaba Chweu Ward 10, Thaba Chweu Local Municipality, 1270, South Africa",Thaba Chweu Local Municipality,Thaba Chweu Ward 10,1270
1171,Openserve Property,-26.55,24.87,"Saturn Way, Naledi Ward 1, Naledi Local Municipality, 8650, South Africa",Naledi Local Municipality,Naledi Ward 1,8650
612,Openserve Property,-28.4,26.71,"59 Pres Steyn Street, Theunissen, South Africa",Theunissen,N/A,
1537,Openserve Property,-25.79,29.45,"unnamed road, Steve Tshwete Ward 12, Steve Tshwete Local Municipality, 1050, South Africa",Steve Tshwete Local Municipality,Steve Tshwete Ward 12,1050
66,Openserve Property,-34.02,24.35,"R102, Kou-Kamma Ward 5, Kou-Kamma Local Municipality, South Africa",Kou-Kamma Local Municipality,Kou-Kamma Ward 5,N/A
5781,Openserve Property,-25.27,27.28,"Mogwase, South Africa",Mogwase,N/A,
19039,Openserve Property,-29.19,26.81,"unnamed road, Mangaung Ward 40, Selosesha-IA, 9783, South Africa",Selosesha-IA,Mangaung Ward 40,9783
48,Openserve Property,-33.5,26.82,"Yellowwood Lane, Ndlambe Ward 5, Ndlambe Local Municipality, 6166, South Africa",Ndlambe Local Municipality,Ndlambe Ward 5,6166
242,Openserve Property,-27,30,"unnamed road, Pixley ka Seme Ward 7, Pixley Ka Seme Local Municipality, South Africa",Pixley Ka Seme Local Municipality,Pixley ka Seme Ward 7,N/A
116,Openserve Property,-34.09,22.14,"Street, Klein Brakrivier, South Africa",Klein Brakrivier,N/A,
842,Openserve Property,-29.26,17.74,"N7, Nama Khoi Ward 3, Nama Khoi Local Municipality, South Africa",Nama Khoi Local Municipality,Nama Khoi Ward 3,N/A
1649,Openserve Property,-23.69,30.61,"Ba-phalaborwa Nu, South Africa",Ba-phalaborwa Nu,N/A,
1098,Openserve Property,-28.9,21.98,"Groblershoop Gholf Corse, Kerk Street, !Kheis Ward 3, !Kheis Local Municipality, 8850, South Africa",!Kheis Local Municipality,!Kheis Ward 3,8850
260,Openserve Property,-30.32,29.45,"unnamed road, Greater Kokstad Ward 2, Greater Kokstad Local Municipality, South Africa",Greater Kokstad Local Municipality,Greater Kokstad Ward 2,N/A
6110,Openserve Property,-28.74,19.3,"Viljoens Street, Onseepkans, South Africa",Onseepkans,N/A,
42,Openserve Property,-33.55,25.69,"Addo, South Africa",Addo,N/A,
169,Openserve Property,-33.97,23.88,"64 Null, Stormsrivier, South Africa",Stormsrivier,N/A,
117,Openserve Property,-33.54,27.04,"unnamed road, Kleinemonde, Ndlambe Local Municipality, South Africa",Ndlambe Local Municipality,Kleinemonde,N/A
496,Openserve Property,-29.75,25.32,"5 Voortrekker Street, Fauresmith, South Africa",Fauresmith,N/A,
1798,Openserve Property,-29.68,30.03,"Boston T Party, L215, Impendle Ward 4, Impendle Local Municipality, South Africa",Impendle Local Municipality,Impendle Ward 4,N/A
179,Openserve Property,-33.99,23.98,"Null, Kou-kamma Nu, South Africa",Kou-kamma Nu,N/A,
297,Openserve Property,-27.01,32,"Nkungwini, South Africa",Nkungwini,N/A,
459,Openserve Property,-30.97,27.6,"37 Null, Barkly East, South Africa",Barkly East,N/A,
1804,Openserve Property,-30.39,29.04,"unnamed road, Matatiele Ward 26, Matatiele Local Municipality, South Africa",Matatiele Local Municipality,Matatiele Ward 26,N/A
1283,Openserve Property,-31.56,26.55,"unnamed road, Inkwanca Ward 2, Inkwanca Local Municipality, South Africa",Inkwanca Local Municipality,Inkwanca Ward 2,N/A
736,Openserve Property,-34.42,19.24,"97 Main Road, Hermanus, South Africa",Hermanus,N/A,
540,Openserve Property,-28.73,24.71,"Tebogo Kock Street, Sol Plaatje Ward 31, Sol Plaatje Local Municipality, 8345, South Africa",Sol Plaatje Local Municipality,Sol Plaatje Ward 31,8345
425,Openserve Property,-30.21,30.8,"R102, Widenham, Umkomaas, 4170, South Africa",Umkomaas,Widenham,4170
248,Openserve Property,-27.99,30.72,"560 Nzima Street, Mondlo, South Africa",Mondlo,N/A,
1317,Openserve Property,-24.01,31,"Ba-Phalaborwa Ward 10, Ba-Phalaborwa Local Municipality, Mopani District Municipality, South Africa",Ba-Phalaborwa Local Municipality,Ba-Phalaborwa Ward 10,N/A
2325,Openserve Property,-34.39,20.84,"Elize Bruwer, Moodie Street, Oysterbeds, George, 6666, South Africa",George,Oysterbeds,6666
772,Openserve Property,-33.22,20.58,"unnamed road, Laingsburg Ward 2, Laingsburg Local Municipality, South Africa",Laingsburg Local Municipality,Laingsburg Ward 2,N/A
967,Openserve Property,-25.98,27.79,"Mogale City Nu, South Africa",Mogale City Nu,N/A,
619,Openserve Property,-28.37,29.38,"unnamed road, Maluti-a-Phofung Ward 22, Maluti-a-Phofung Local Municipality, South Africa",Maluti-a-Phofung Local Municipality,Maluti-a-Phofung Ward 22,N/A
1912,Openserve Property,-27.55,28.52,"8 3rd Street, Tweeling, South Africa",Tweeling,N/A,
1948,Openserve Property,-34.36,18.89,"4705 Oxalis Road, Betty's Bay, South Africa",Betty's Bay,N/A,
212,Openserve Property,-28,31.39,"Godlankomo, South Africa",Godlankomo,N/A,
1885,Openserve Property,-27.29,27.97,"Pierce Street, Ngwathe Ward 3, Ngwathe Local Municipality, 9650, South Africa",Ngwathe Local Municipality,Ngwathe Ward 3,9650
4985,Openserve Property,-27.01,29.87,"Kort Street, Pixley ka Seme Ward 7, Pixley Ka Seme Local Municipality, South Africa",Pixley Ka Seme Local Municipality,Pixley ka Seme Ward 7,N/A
131,Openserve Property,-33.76,23.5,"unnamed road, Kou-Kamma Ward 1, Kou-Kamma Local Municipality, South Africa",Kou-Kamma Local Municipality,Kou-Kamma Ward 1,N/A
1133,Openserve Property,-29.41,22.11,"unnamed road, Siyathemba Ward 3, Siyathemba Local Municipality, South Africa",Siyathemba Local Municipality,Siyathemba Ward 3,N/A
17876,Openserve Property,-31.44,22.36,"Ubuntu Ward 3, Ubuntu Local Municipality, 6985, South Africa",Ubuntu Local Municipality,Ubuntu Ward 3,6985
6560,Openserve Property,-32.97,27.9,"Two Rivers Drive, Cambridge, East London, 5247, South Africa",East London,Cambridge,5247
5803,Openserve Property,-25.3,26.7,"Moses Kotane Nu, South Africa",Moses Kotane Nu,N/A,
5103,Openserve Property,-29.75,24.79,"unnamed road, Relebohile, Letsemeng Local Municipality, South Africa",Letsemeng Local Municipality,Relebohile,N/A
970,Openserve Property,-26.29,28.39,"151 More Street, Kwa-thema, South Africa",Kwa-thema,N/A,
15620,Openserve Property,-22.87,30.75,"Tshikonelo, South Africa",Tshikonelo,N/A,
1424,Openserve Property,-25.71,28.38,"33 Madevu Street, Mamelodi, South Africa",Mamelodi,N/A,
1550,Openserve Property,-26.65,28.6,"31b Charles Street, Balfour, South Africa",Balfour,N/A,
374,Openserve Property,-30.76,30.25,"Ezingoleni Nu, South Africa",Ezingoleni Nu,N/A,
24090,Openserve Property,-32.98,27.82,"11 Leo Laden Street, East London, South Africa",East London,N/A,
33103,Openserve Property,-27.96,26.83,"19775 L Notsi Street, Thabong, South Africa",Thabong,N/A,
5796,Openserve Property,-26.46,25.26,"Street, Tswaing Nu, South Africa",Tswaing Nu,N/A,
1178,Openserve Property,-25.88,23.96,"Kagisano Nu, South Africa",Kagisano Nu,N/A,
3657,Openserve Property,-23.02,29.02,"Blouberg Local Municipality, Capricorn District Municipality, South Africa",N/A,Blouberg Local Municipality,N/A
172,Openserve Property,-33.5,25.63,"Sundays River Valley Nu, South Africa",Sundays River Valley Nu,N/A,
13071,Openserve Property,-30.69,28.51,"unnamed road, Elundini Ward 9, Elundini Local Municipality, South Africa",Elundini Local Municipality,Elundini Ward 9,N/A
2312,Openserve Property,-31.15,18.36,"Madeliefie Street, Nuwerus, South Africa",Nuwerus,N/A,
4171,Openserve Property,-26.46,27.86,"Orange Farm, South Africa",Orange Farm,N/A,
982,Openserve Property,-26.34,28.25,"Boksburg, South Africa",Boksburg,N/A,
718,Openserve Property,-34.58,19.35,"15 Church Street, Gans Bay, South Africa",Gans Bay,N/A,
3816,Openserve Property,-33.5,21.44,"197 Karoolande Street, Zoar, South Africa",Zoar,N/A,
4658,Openserve Property,-29.8,17.49,"unnamed road, Nama Khoi Ward 8, Nama Khoi Local Municipality, South Africa",Nama Khoi Local Municipality,Nama Khoi Ward 8,N/A
1284,Openserve Property,-31.3,25.82,"unnamed road, Gariep Ward 3, Gariep Local Municipality, 5920, South Africa",Gariep Local Municipality,Gariep Ward 3,5920
16395,Openserve Property,-32.24,26.66,"Null, Lukhanji Nu, South Africa",Lukhanji Nu,N/A,
1471,Openserve Property,-26.02,29.6,"2 Palm, Pullens Hope, South Africa",Pullens Hope,N/A,
272,Openserve Property,-30.01,29.01,"Matatiele Ward 7, Matatiele Local Municipality, Alfred Nzo District Municipality, South Africa",Matatiele Local Municipality,Matatiele Ward 7,N/A
267,Openserve Property,-27.97,31.03,"Abaqulusi Nu, South Africa",Abaqulusi Nu,N/A,
764,Openserve Property,-30.95,19.44,"Hoof Street, Loeriesfontein, South Africa",Loeriesfontein,N/A,
24490,Openserve Property,-26.04,28.18,"100 Kofifi Street, Tembisa, South Africa",Tembisa,N/A,
1822,Openserve Property,-30.81,30.33,"Ray Nkonyeni Road, Hibiscus Coast Ward 26, Hibiscus Coast Local Municipality, 4249, South Africa",Hibiscus Coast Local Municipality,Hibiscus Coast Ward 26,4249
20805,Openserve Property,-34.06,23.08,"17 Kennet Street, Knysna, South Africa",Knysna,N/A,
1571,Openserve Property,-23.01,30,"Makhado Ward 21, Makhado Local Municipality, Vhembe District Municipality, South Africa",Makhado Local Municipality,Makhado Ward 21,N/A
5097,Openserve Property,-30.08,24.66,"Street, Petrusville, South Africa",Petrusville,N/A,
2587,Openserve Property,-28.23,31.47,"Mahlabatini, South Africa",Mahlabatini,N/A,
1872,Openserve Property,-29.13,26.4,"Bloemfontein, South Africa",Bloemfontein,N/A,
5104,Openserve Property,-29.12,25.41,"Street, Petrusburg, South Africa",Petrusburg,N/A,
733,Openserve Property,-34.59,19.76,"Sand Street, Cape Agulhas Ward 1, Cape Agulhas Local Municipality, South Africa",Cape Agulhas Local Municipality,Cape Agulhas Ward 1,N/A
5804,Openserve Property,-25,27.01,"Magong, South Africa",Magong,N/A,
7885,Openserve Property,-25.6,28,"6074 Makoto Street, Ga-rankuwa, South Africa",Ga-rankuwa,N/A,
999,Openserve Property,-26.1,28.15,"3 Lyndale Close, Johannesburg, South Africa",Johannesburg,N/A,
1855,Openserve Property,-29.75,30.13,"unnamed road, Richmond Ward 3, Richmond Local Municipality, South Africa",Richmond Local Municipality,Richmond Ward 3,N/A
2196,Openserve Property,-33.8,18.87,"R44 Road, Stellenbosch Nu, South Africa",Stellenbosch Nu,N/A,
46,Openserve Property,-32.28,24.56,"Narsing Street, Asherville, Camdeboo Local Municipality, 6280, South Africa",Camdeboo Local Municipality,Asherville,6280
1473,Openserve Property,-25.95,29.81,"Rietkuil NG Kerk, 15th Avenue, Steve Tshwete Ward 7, Steve Tshwete Local Municipality, South Africa",Steve Tshwete Local Municipality,Steve Tshwete Ward 7,N/A
85,Openserve Property,-33.87,25.55,"18734 Mbethe Street, Bethelsdorp, South Africa",Bethelsdorp,N/A,
1285,Openserve Property,-33.33,24.35,"Bosman Street, Steytlerville, South Africa",Steytlerville,N/A,
3367,Openserve Property,-23,30.01,"Makhado Ward 31, Makhado Local Municipality, Vhembe District Municipality, South Africa",Makhado Local Municipality,Makhado Ward 31,N/A
298,Openserve Property,-27.92,30.65,"Kandaspunt, South Africa",Kandaspunt,N/A,
5849,Openserve Property,-33.22,27.13,"N2, Ngqushwa Ward 7, Ngqushwa Local Municipality, 5640, South Africa",Ngqushwa Local Municipality,Ngqushwa Ward 7,5640
16264,Openserve Property,-33.83,24.87,"21 Null, Hankey, South Africa",Hankey,N/A,
18062,Openserve Property,-26.2,25.47,"Bathobatho, South Africa",Bathobatho,N/A,
386,Openserve Property,-28.55,30.42,"unnamed road, Msinga Ward 17, Msinga Local Municipality, South Africa",Msinga Local Municipality,Msinga Ward 17,N/A
507,Openserve Property,-30.56,26.4,"Goedemoed, South Africa",Goedemoed,N/A,
1604,Openserve Property,-26.55,29.08,"Embalenhle, South Africa",Embalenhle,N/A,
27895,Openserve Property,-31.17,28.7,"Mhlontlo Ward 24, Mhlontlo Local Municipality, O.R. Tambo District Municipality, South Africa",Mhlontlo Local Municipality,Mhlontlo Ward 24,N/A
744,Openserve Property,-30.21,17.93,"unnamed road, Kamiesberg Ward 3, Kamiesberg Local Municipality, South Africa",Kamiesberg Local Municipality,Kamiesberg Ward 3,N/A
37562,Openserve Property,-26.5,28.01,"Street, Walkerville, South Africa",Walkerville,N/A,
16532,Openserve Property,-32.86,27.14,"Null, Debe Valley A, South Africa",Debe Valley A,N/A,
726,Openserve Property,-32.15,18.61,"Stasie Road, Graafwater, South Africa",Graafwater,N/A,
28168,Openserve Property,-31.69,29.37,"Null, Kwilini, South Africa",Kwilini,N/A,
43958,Openserve Property,-25.32,29.99,"Elias Motsoaledi Nu, South Africa",Elias Motsoaledi Nu,N/A,
28796,Openserve Property,-31.9,29.18,"unnamed road, Nyandeni Ward 26, Nyandeni Local Municipality, South Africa",Nyandeni Local Municipality,Nyandeni Ward 26,N/A
9736,Openserve Property,-26.21,27.65,"19827 6th Road, Randfontein, South Africa",Randfontein,N/A,
478,Openserve Property,-23.99,30.32,"Gabaza, South Africa",Gabaza,N/A,
1499,Openserve Property,-25,31.59,"H11, Mbombela Ward 39, Mbombela, South Africa",Mbombela,Mbombela Ward 39,N/A
12890,Openserve Property,-32.19,27.94,"unnamed road, Ngqamakhwe, Mnquma Local Municipality, South Africa",Mnquma Local Municipality,Ngqamakhwe,N/A
1011,Openserve Property,-26.09,28.28,"unnamed road, Pomona, Gauteng, 1623, South Africa",N/A,Pomona,1623
13365,Openserve Property,-30.8,29.35,"Null Street, Umzimvubu Nu, South Africa",Umzimvubu Nu,N/A,
1518,Openserve Property,-25.98,28.98,"New Largo, South Africa",New Largo,N/A,
2183,Openserve Property,-34.61,19.38,"Dyer Street, Overstrand Ward 1, Overstrand Local Municipality, South Africa",Overstrand Local Municipality,Overstrand Ward 1,N/A
1008,Openserve Property,-26.16,28.03,"Lower Park Drive, Parkview, Rosebank, 2001, South Africa",Rosebank,Parkview,2001
7489,Openserve Property,-26.32,28.2,"335 Lithemba Street, Germiston, South Africa",Germiston,N/A,
1184,Openserve Property,-30.35,21.82,"893 0 Street, Van Wyksvlei, South Africa",Van Wyksvlei,N/A,
807,Openserve Property,-29.25,16.87,"384 2nd Street, Port Nolloth, South Africa",Port Nolloth,N/A,
20400,Openserve Property,-26.97,23.98,"Cassel, South Africa",Cassel,N/A,
5098,Openserve Property,-30.44,24.47,"Street, Phillipstown, South Africa",Phillipstown,N/A,
1081,Openserve Property,-26,25.01,"Ratlou Ward 4, Ratlou Local Municipality, Ngaka Modiri Molema District Municipality, South Africa",Ratlou Local Municipality,Ratlou Ward 4,N/A
18,Openserve Property,-27.2,22.97,"unnamed road, Joe Morolong Ward 4, Joe Morolong Local Municipality, South Africa",Joe Morolong Local Municipality,Joe Morolong Ward 4,N/A
102,Openserve Property,-34.03,24.78,"46 Nico Malan Street, Humansdorp, South Africa",Humansdorp,N/A,
17113,Openserve Property,-32.69,24,"unnamed road, Camdeboo Ward 7, Camdeboo Local Municipality, South Africa",Camdeboo Local Municipality,Camdeboo Ward 7,N/A
342,Openserve Property,-28,31,"Ulundi Nu, South Africa",Ulundi Nu,N/A,
5810,Openserve Property,-25.01,28,"unnamed road, Mnukubyane, Moretele Local Municipality, South Africa",Moretele Local Municipality,Mnukubyane,N/A
2292,Openserve Property,-34.35,21.88,"21 River Street, Gouritsmond, South Africa",Gouritsmond,N/A,
17822,Openserve Property,-26.5,27.88,"unnamed road, Johannesburg Ward 2, Gauteng, 1841, South Africa",N/A,Johannesburg Ward 2,1841
803,Openserve Property,-33.67,18.58,"18 Gerf Street, Philadelphia, South Africa",Philadelphia,N/A,
15789,Openserve Property,-34.01,18.64,"24 Pholani Street, Khayelitsha, South Africa",Khayelitsha,N/A,
197,Openserve Property,-28.01,29,"unnamed road, Phumelela Ward 5, Phumelela Local Municipality, South Africa",Phumelela Local Municipality,Phumelela Ward 5,N/A
23747,Openserve Property,-23.1,30.39,"unnamed road, Makhado Ward 4, Makhado Local Municipality, South Africa",Makhado Local Municipality,Makhado Ward 4,N/A
20405,Openserve Property,-27.44,23.57,"Havard, South Africa",Havard,N/A,
553,Openserve Property,-28.66,27.43,"Setsoto Nu, South Africa",Setsoto Nu,N/A,
17295,Openserve Property,-28.52,24.7,"unnamed road, Sol Plaatje Ward 28, Sol Plaatje Local Municipality, South Africa",Sol Plaatje Local Municipality,Sol Plaatje Ward 28,N/A
2885,Openserve Property,-23.05,29.28,"Blouberg Munic Nu, South Africa",Blouberg Munic Nu,N/A,
2337,Openserve Property,-29.67,31.03,"Tottenham Road, Palmview, KwaZulu-Natal, 4339, South Africa",N/A,Palmview,4339
1688,Openserve Property,-25.57,30.67,"119 Windsor Street, Ngodwana, South Africa",Ngodwana,N/A,
28303,Openserve Property,-31.64,29.45,"Null, Port St Johns Nu, South Africa",Port St Johns Nu,N/A,
28165,Openserve Property,-31.6,29.29,"unnamed road, Port St Johns Ward 7, Port St Johns Local Municipality, South Africa",Port St Johns Local Municipality,Port St Johns Ward 7,N/A
315,Openserve Property,-28.94,29.59,"Mfolozi, South Africa",Mfolozi,N/A,
1296,Openserve Property,-33.66,23.13,"unnamed road, George Ward 25, George, 6460, South Africa",George,George Ward 25,6460
5761,Openserve Property,-26.47,24.71,"Street, Naledi Nu, South Africa",Naledi Nu,N/A,
144,Openserve Property,-31.18,24.96,"6 Conradie Street, Noupoort, South Africa",Noupoort,N/A,
16398,Openserve Property,-31.79,28.29,"Null Street, Clarkebury, South Africa",Clarkebury,N/A,
21146,Openserve Property,-32.31,28.19,"Upper Mchubakazi, South Africa",Upper Mchubakazi,N/A,
1099,Openserve Property,-28.56,21.76,"Null Street, !Kheis Nu, South Africa",!Kheis Nu,N/A,
24035,Openserve Property,-32.92,26.99,"unnamed road, eMatsamraleni, Nkonkobe Local Municipality, South Africa",Nkonkobe Local Municipality,eMatsamraleni,N/A
3450,Openserve Property,-32.73,28.02,"Great Kei Nu, South Africa",Great Kei Nu,N/A,
1225,Openserve Property,-31.33,27.85,"Dirkie Street, Elliot, South Africa",Elliot,N/A,
20453,Openserve Property,-32.5,27.4,"Amahlathi Ward 17, Amahlathi Local Municipality, Amathole District Municipality, South Africa",Amahlathi Local Municipality,Amahlathi Ward 17,N/A
25516,Openserve Property,-26.88,30.03,"unnamed road, Pixley ka Seme Ward 8, Pixley Ka Seme Local Municipality, South Africa",Pixley Ka Seme Local Municipality,Pixley ka Seme Ward 8,N/A
16781,Openserve Property,-33.94,22.47,"6th Avenue, Boerpark, George, 6530, South Africa",George,Boerpark,6530
3326,Openserve Property,-28.24,24.03,"Street, Dikgatlong Nu, South Africa",Dikgatlong Nu,N/A,
16048,Openserve Property,-26.42,27.86,"2231FT Central Street, Ennerdale, South Africa",Ennerdale,N/A,
2486,Openserve Property,-23.97,30.27,"1275 Unknown Street, Lenyenye, South Africa",Lenyenye,N/A,
1366,Openserve Property,-26.02,26,"Ditsobotla Ward 10, Ditsobotla Local Municipality, Ngaka Modiri Molema District Municipality, South Africa",Ditsobotla Local Municipality,Ditsobotla Ward 10,N/A
15841,Openserve Property,-24.34,29.29,"Mogoto, South Africa",Mogoto,N/A,
435,Openserve Property,-28.31,30.1,"Wasbank, South Africa",Wasbank,N/A,
32678,Openserve Property,-28.65,20.45,"Street, Kai !Garib Nu, South Africa",Kai !Garib Nu,N/A,
28169,Openserve Property,-31.5,29.31,"Null, Mhlotsheni, South Africa",Mhlotsheni,N/A,
1739,Openserve Property,-25.65,27.7,"Sonop, South Africa",Sonop,N/A,
16391,Openserve Property,-32.23,26.74,"unnamed road, eZweledinga, Lukhanji Local Municipality, South Africa",Lukhanji Local Municipality,eZweledinga,N/A
1219,Openserve Property,-31.37,27.05,"Marias Street, Dordrecht, South Africa",Dordrecht,N/A,
7089,Openserve Property,-33.69,23.25,"George Nu, South Africa",George Nu,N/A,
27892,Openserve Property,-31.24,28.65,"Street, Mhlontlo Nu, South Africa",Mhlontlo Nu,N/A,
1353,Openserve Property,-23.18,29.7,"Makhado Nu, South Africa",Makhado Nu,N/A,
20452,Openserve Property,-32.39,28.38,"unnamed road, Mnquma Ward 24, Mnquma Local Municipality, South Africa",Mnquma Local Municipality,Mnquma Ward 24,N/A
296,Openserve Property,-28.58,29.12,"Okhahlamba Ward 10, Okhahlamba Local Municipality, 3350, South Africa",Okhahlamba Local Municipality,Okhahlamba Ward 10,3350
343,Openserve Property,-30.5,30.63,"Cove Way, uMdoni Ward 7, uMdoni Local Municipality, 4186, South Africa",uMdoni Local Municipality,uMdoni Ward 7,4186
24043,Openserve Property,-32.79,27.32,"unnamed road, Buffalo City Ward 38, Eastern Cape, South Africa",N/A,Buffalo City Ward 38,N/A
1057,Openserve Property,-28.67,20.43,"18 0 Street, Augrabies, South Africa",Augrabies,N/A,
18145,Openserve Property,-28.61,28.83,"unnamed road, Thabang, Maluti-a-Phofung Local Municipality, South Africa",Maluti-a-Phofung Local Municipality,Thabang,N/A
7,Openserve Property,-30,24,"Thembelihle Ward 1, Thembelihle Local Municipality, 8765, South Africa",Thembelihle Local Municipality,Thembelihle Ward 1,8765
14308,Openserve Property,-30.58,22.88,"unnamed road, Kareeberg Ward 3, Kareeberg Local Municipality, South Africa",Kareeberg Local Municipality,Kareeberg Ward 3,N/A
17639,Openserve Property,-32.97,27.31,"Kwajubisa, South Africa",Kwajubisa,N/A,
150,Openserve Property,-33.76,24.81,"Railway Street, Patensie, South Africa",Patensie,N/A,
481,Openserve Property,-28.92,27.57,"1st Avenue, Setsoto Ward 9, Setsoto Local Municipality, 9735, South Africa",Setsoto Local Municipality,Setsoto Ward 9,9735
1234,Openserve Property,-31.65,25.8,"DR02611, Tsolwana Ward 5, Tsolwana Local Municipality, South Africa",Tsolwana Local Municipality,Tsolwana Ward 5,N/A
191,Openserve Property,-28.38,31.08,"Unknown Street, Babanango, South Africa",Babanango,N/A,
26564,Openserve Property,-26.66,29.26,"unnamed road, Lekwa Ward 12, Lekwa Local Municipality, South Africa",Lekwa Local Municipality,Lekwa Ward 12,N/A
1656,Openserve Property,-25.49,27.84,"3952 2nd Street, Letlhabile, South Africa",Letlhabile,N/A,
3339,Openserve Property,-27,32.75,"unnamed road, uMhlabuyalingana Local Municipality, 3973, South Africa",uMhlabuyalingana Local Municipality,N/A,3973
7892,Openserve Property,-31.52,27.7,"Mtentu Street, Cala, South Africa",Cala,N/A,
6126,Openserve Property,-30.03,25.78,"Abel Street, Madikgetla, Kopanong Local Municipality, 9913, South Africa",Kopanong Local Municipality,Madikgetla,9913
1635,Openserve Property,-26.84,26.86,"Street, Stilfontein, South Africa",Stilfontein,N/A,
270,Openserve Property,-29.8,30.66,"Kelly Road, Hammarsdale, Mpumalanga, 3700, South Africa",Mpumalanga,Hammarsdale,3700
696,Openserve Property,-32.59,19.01,"Oewr Street, Citrusdal, South Africa",Citrusdal,N/A,
16394,Openserve Property,-31.89,27.05,"Null, Mamfeneni, South Africa",Mamfeneni,N/A,
984,Openserve Property,-26.09,28.09,"1 15th Street, Sandton, South Africa",Sandton,N/A,
1367,Openserve Property,-24.02,30.01,"Lepelle-Nkumpi Ward 28, Lepelle-Nkumpi Local Municipality, Capricorn District Municipality, South Africa",Lepelle-Nkumpi Local Municipality,Lepelle-Nkumpi Ward 28,N/A
287,Openserve Property,-27.13,32,"Magugu, South Africa",Magugu,N/A,
24700,Openserve Property,-31.45,28.48,"Mhlontlo Ward 2, Mhlontlo Local Municipality, O.R. Tambo District Municipality, South Africa",Mhlontlo Local Municipality,Mhlontlo Ward 2,N/A
17502,Openserve Property,-25.79,28.64,"Leeu Fontein, Tshwane Ward 102, Gauteng, South Africa",N/A,Tshwane Ward 102,N/A
136,Openserve Property,-33.8,25.61,"Ngqika Street, Nelson Mandela Bay Ward 23, Motherwell, 6211, South Africa",Motherwell,Nelson Mandela Bay Ward 23,6211
36,Openserve Property,-27.12,22.84,"Main Road, Joe Morolong Ward 4, Joe Morolong Local Municipality, 8491, South Africa",Joe Morolong Local Municipality,Joe Morolong Ward 4,8491
23409,Openserve Property,-33.95,24.3,"Kareedouw, South Africa",Kareedouw,N/A,
31214,Openserve Property,-26.75,27.54,"Lindequesdrif, South Africa",Lindequesdrif,N/A,
27846,Openserve Property,-32.75,27.43,"unnamed road, Amahlathi Ward 19, Amahlathi Local Municipality, South Africa",Amahlathi Local Municipality,Amahlathi Ward 19,N/A
442,Openserve Property,-28.81,29.54,"10 Hillview Street, Winterton, South Africa",Winterton,N/A,
399,Openserve Property,-29.5,31.24,"12 Hewitt Road, Salt Rock, South Africa",Salt Rock,N/A,
17752,Openserve Property,-25.36,28.82,"unnamed road, Phumula, Thembisile Hani Local Municipality, South Africa",Thembisile Hani Local Municipality,Phumula,N/A
24372,Openserve Property,-32.4,24.19,"N9;R61, Camdeboo Ward 1, Camdeboo Local Municipality, South Africa",Camdeboo Local Municipality,Camdeboo Ward 1,N/A
849,Openserve Property,-32.4,20.66,"Republiek Street, Karoo Hoogland Ward 4, Karoo Hoogland Local Municipality, 6920, South Africa",Karoo Hoogland Local Municipality,Karoo Hoogland Ward 4,6920
13881,Openserve Property,-25.95,28.14,"91 Street, Midrand, South Africa",Midrand,N/A,
2118,Openserve Property,-26.74,29.62,"Street, Morgenzon, South Africa",Morgenzon,N/A,
9260,Openserve Property,-28.76,16.67,"Null Street, Richtersveld Nu, South Africa",Richtersveld Nu,N/A,
23312,Openserve Property,-34.01,22.49,"2994 Tabata Street, Thembalethu, South Africa",Thembalethu,N/A,
4748,Openserve Property,-29.01,30,"Umtshezi Ward 9, Umtshezi Local Municipality, Uthukela District Municipality, South Africa",Umtshezi Local Municipality,Umtshezi Ward 9,N/A
921,Openserve Property,-25.86,28.21,"118 Outeniqua Avenue, Centurion, South Africa",Centurion,N/A,
3003,Openserve Property,-24.34,29.93,"Gaselepe, South Africa",Gaselepe,N/A,
8449,Openserve Property,-25.69,27.32,"Rustenburg, South Africa",Rustenburg,N/A,
14099,Openserve Property,-31.26,25.8,"Gariep Ward 3, Gariep Local Municipality, 5920, South Africa",Gariep Local Municipality,Gariep Ward 3,5920
11318,Openserve Property,-32.93,27.73,"1299 Street, Mdantsane, South Africa",Mdantsane,N/A,
1180,Openserve Property,-28.33,24.21,"Ulco, South Africa",Ulco,N/A,
327,Openserve Property,-29.82,30.76,"unnamed road, eThekwini Ward 7, KwaZulu-Natal, 3603, South Africa",N/A,eThekwini Ward 7,3603
3263,Openserve Property,-29.75,29.51,"Himeville, South Africa",Himeville,N/A,
1436,Openserve Property,-25.75,27.56,"Meerlust Ave, Mooinooi, South Africa",Mooinooi,N/A,
18536,Openserve Property,-23.91,29.13,"unnamed road, Takalane, Aganang Local Municipality, South Africa",Aganang Local Municipality,Takalane,N/A
37159,Openserve Property,-27.98,26.73,"Octavia Street, Jim Fouche Park, Welkom, 9460, South Africa",Welkom,Jim Fouche Park,9460
571,Openserve Property,-29.15,26.17,"28 Vlakfontein Street, Bloemfontein, South Africa",Bloemfontein,N/A,
3698,Openserve Property,-26.17,30.63,"Albert Luthuli Nu, South Africa",Albert Luthuli Nu,N/A,
35024,Openserve Property,-26.16,27.94,"30 Lange Avenue, Roodepoort, South Africa",Roodepoort,N/A,
15034,Openserve Property,-26.03,27.97,"Randburg, South Africa",Randburg,N/A,
21847,Openserve Property,-25.91,28.06,"Centurion, South Africa",Centurion,N/A,
12256,Openserve Property,-31.8,27.77,"Street, Kunobopa, South Africa",Kunobopa,N/A,
1411,Openserve Property,-25.64,31.29,"Street, Umjindi Nu, South Africa",Umjindi Nu,N/A,
21549,Openserve Property,-24.7,29.75,"unnamed road, Makadikwe, Makhuduthamaga Local Municipality, South Africa",Makhuduthamaga Local Municipality,Makadikwe,N/A
1329,Openserve Property,-26.04,29.33,"unnamed road, Springbok, Emalahleni Local Municipality, 1451, South Africa",Emalahleni Local Municipality,Springbok,1451
1569,Openserve Property,-26.66,29.18,"Charl Cilliers, South Africa",Charl Cilliers,N/A,
24901,Openserve Property,-28.64,28.96,"D119, Okhahlamba Ward 10, Okhahlamba Local Municipality, South Africa",Okhahlamba Local Municipality,Okhahlamba Ward 10,N/A
5732,Openserve Property,-26.68,28.01,"unnamed road, Emfuleni Ward 1, Emfuleni Local Municipality, 1935, South Africa",Emfuleni Local Municipality,N/A,1935
6271,Openserve Property,-26.49,29.35,"Govan Mbeki Nu, South Africa",Govan Mbeki Nu,N/A,
24423,Openserve Property,-25.29,29.08,"Dipasana, South Africa",Dipasana,N/A,
46239,Openserve Property,-30.32,28.39,"unnamed road, Ditichereng, Matatiele Local Municipality, South Africa",Matatiele Local Municipality,Ditichereng,N/A
1064,Openserve Property,-27.82,23.91,"Street, Dikgatlong Nu, South Africa",Dikgatlong Nu,N/A,
246,Openserve Property,-29.69,30.09,"Kwamncane, South Africa",Kwamncane,N/A,
5857,Openserve Property,-27.2,20.51,"Mier Ward 2, Mier Local Municipality, ZF Mgcawu District Municipality, South Africa",Mier Local Municipality,Mier Ward 2,N/A
3723,Openserve Property,-27.56,32.08,"Unknown Street, Ubombo, South Africa",Ubombo,N/A,
14251,Openserve Property,-30.35,29.85,"Street, Umzimkhulu Nu, South Africa",Umzimkhulu Nu,N/A,
360,Openserve Property,-28.62,31.09,"Nkandla, South Africa",Nkandla,N/A,
5820,Openserve Property,-25.45,28.05,"unnamed road, Tshwane Ward 24, Gauteng, 0202, South Africa",N/A,Tshwane Ward 24,0202
1841,Openserve Property,-28.42,32.18,"Celtis Drive, Mtubatuba Ward 6, Mtubatuba Local Municipality, 3935, South Africa",Mtubatuba Local Municipality,Mtubatuba Ward 6,3935
35444,Openserve Property,-24.64,26.4,"Ramotshere Moiloa Nu, South Africa",Ramotshere Moiloa Nu,N/A,
17981,Openserve Property,-29.88,30.92,"4 Purity Lane, Queensburgh, South Africa",Queensburgh,N/A,
26327,Openserve Property,-23.8,29.35,"Perskebult, South Africa",Perskebult,N/A,
3761,Openserve Property,-23.31,30.3,"unnamed road, Makhado Ward 5, Makhado Local Municipality, 8450, South Africa",Makhado Local Municipality,Makhado Ward 5,8450
5776,Openserve Property,-26.5,25.37,"140 Street, Atamelang, South Africa",Atamelang,N/A,
15844,Openserve Property,-24.39,29.29,"D3605, Lepelle-Nkumpi Ward 11, Lepelle-Nkumpi Local Municipality, South Africa",Lepelle-Nkumpi Local Municipality,Lepelle-Nkumpi Ward 11,N/A
918,Openserve Property,-25.94,27.99,"unnamed road, Gauteng, 2189, South Africa",N/A,N/A,2189
22854,Openserve Property,-23.29,29.98,"Ha-nthabalala, South Africa",Ha-nthabalala,N/A,
2330,Openserve Property,-28.6,20.34,"Augrabies Falls National Park, South Africa",Augrabies Falls National Park,N/A,
20434,Openserve Property,-27.39,23.43,"Seoding, South Africa",Seoding,N/A,
15615,Openserve Property,-23,30.63,"Mavambe, South Africa",Mavambe,N/A,
3502,Openserve Property,-26.6,30.08,"unnamed road, Camden, Msukaligwa, South Africa",Msukaligwa,Camden,N/A
23562,Openserve Property,-31.58,28.88,"unnamed road, Nyandeni Ward 9, Nyandeni Local Municipality, South Africa",Nyandeni Local Municipality,Nyandeni Ward 9,N/A
129145,Openserve Property,-34.17,21.99,"Street, Mossdustria, South Africa",Mossdustria,N/A,
27838,Openserve Property,-31.13,28.57,"Elundini Ward 6, Elundini Local Municipality, Joe Gqabi District Municipality, South Africa",Elundini Local Municipality,Elundini Ward 6,N/A
15428,Openserve Property,-23.33,29.97,"Ha-mamphagi, South Africa",Ha-mamphagi,N/A,
15412,Openserve Property,-30.39,23.1,"Kareeberg Ward 3, Kareeberg Local Municipality, Pixley ka Seme District Municipality, South Africa",Kareeberg Local Municipality,Kareeberg Ward 3,N/A
28662,Openserve Property,-32.04,27.7,"Null, Kwampotulo, South Africa",Kwampotulo,N/A,
23703,Openserve Property,-27.28,31.35,"Whitecliff, South Africa",Whitecliff,N/A,
4242,Openserve Property,-29.5,25.52,"S284, Kopanong Ward 7, Kopanong Local Municipality, South Africa",Kopanong Local Municipality,Kopanong Ward 7,N/A
19436,Openserve Property,-28.12,16.89,"unnamed road, Richtersveld Ward 1, Richtersveld Local Municipality, South Africa",Richtersveld Local Municipality,Richtersveld Ward 1,N/A
5264,Openserve Property,-29.61,30.27,"Street, Zayeka, South Africa",Zayeka,N/A,
6735,Openserve Property,-25.67,31.53,"Nkomazi Nu, South Africa",Nkomazi Nu,N/A,
330,Openserve Property,-28.59,31.4,"Symmonds Street, Melmoth, South Africa",Melmoth,N/A,
41839,Openserve Property,-29.71,30.67,"3 95052 Street, Harare A, South Africa",Harare A,N/A,
2746,Openserve Property,-22.42,29.51,"D2692, Musina Ward 2, Musina Local Municipality, South Africa",Musina Local Municipality,Musina Ward 2,N/A
18080,Openserve Property,-25.14,25.96,"unnamed road, Ramotshere Moiloa Ward 3, Ramotshere Moiloa Local Municipality, South Africa",Ramotshere Moiloa Local Municipality,Ramotshere Moiloa Ward 3,N/A
1788,Openserve Property,-24.32,29.3,"Lepele-nkumpi Nu, South Africa",Lepele-nkumpi Nu,N/A,
1871,Openserve Property,-29.04,29.79,"Wembesi B, South Africa",Wembesi B,N/A,
815,Openserve Property,-33.38,18.9,"unnamed road, Swartland Ward 12, Swartland Local Municipality, 7307, South Africa",Swartland Local Municipality,Swartland Ward 12,7307
439,Openserve Property,-29.59,31.16,"16 Cycad Drive, Ethekwini Nu, South Africa",Ethekwini Nu,N/A,
565,Openserve Property,-29.41,24.75,"S1831, Oppermans, Letsemeng Local Municipality, South Africa",Letsemeng Local Municipality,Oppermans,N/A
15602,Openserve Property,-23.02,30.71,"Manele, South Africa",Manele,N/A,
5474,Openserve Property,-26.21,28.04,"Standard Bank, 6 Simmonds Street, Johannesburg Ward 124, Johannesburg, 2001, South Africa",Johannesburg,Johannesburg Ward 124,2001
16645,Openserve Property,-24.25,29.03,"unnamed road, Mogalakwena Ward 12, Mokopane, South Africa",Mokopane,Mogalakwena Ward 12,N/A
366,Openserve Property,-28.22,30.67,"Street, Nqutu, South Africa",Nqutu,N/A,
23855,Openserve Property,-31.82,25.84,"Tsolwana Nu, South Africa",Tsolwana Nu,N/A,
408,Openserve Property,-30.92,30.32,"2 Capt Smith's Road, Southbroom, South Africa",Southbroom,N/A,
18070,Openserve Property,-25.75,25.1,"unnamed road, Ratlou Ward 2, Ratlou Local Municipality, South Africa",Ratlou Local Municipality,Ratlou Ward 2,N/A
15636,Openserve Property,-23.53,29.84,"unnamed road, Molemole Ward 2, Molemole Local Municipality, South Africa",Molemole Local Municipality,Molemole Ward 2,N/A
14654,Openserve Property,-33.94,22.34,"unnamed road, George Ward 22, George, 6520, South Africa",George,George Ward 22,6520
18292,Openserve Property,-28.53,26.99,"unnamed road, Masilonyana Ward 5, Masilonyana Local Municipality, South Africa",Masilonyana Local Municipality,Masilonyana Ward 5,N/A
56822,Openserve Property,-26.6,24.19,"Ganyesa, South Africa",Ganyesa,N/A,
21499,Openserve Property,-24.54,30.7,"unnamed road, Greater Tubatse Ward 26, Greater Tubatse Local Municipality, South Africa",Greater Tubatse Local Municipality,Greater Tubatse Ward 26,N/A
2854,Openserve Property,-26.26,30.82,"Redhill, South Africa",Redhill,N/A,
383,Openserve Property,-28.64,29.86,"Brakfontein, South Africa",Brakfontein,N/A,
302,Openserve Property,-30.55,29.43,"24 Dower Street, Kokstad, South Africa",Kokstad,N/A,
5100,Openserve Property,-31.41,23.94,"N1, Ubuntu Ward 3, Ubuntu Local Municipality, South Africa",Ubuntu Local Municipality,Ubuntu Ward 3,N/A
1,Openserve Property,-29.24,18.84,"Aggeneys, South Africa",Aggeneys,N/A,
2370,Openserve Property,-29.97,17.09,"Northern Cape, South Africa",N/A,N/A,N/A
12267,Openserve Property,-25.66,30.24,"N4, Emakhazeni Ward 6, Emakhazeni Local Municipality, 1170, South Africa",Emakhazeni Local Municipality,Emakhazeni Ward 6,1170
1109,Openserve Property,-28.01,20,"Kai !Garib Ward 7, Kai !Garib Local Municipality, ZF Mgcawu District Municipality, South Africa",Kai !Garib Local Municipality,Kai !Garib Ward 7,N/A
28875,Openserve Property,-22.9,30.21,"unnamed road, Thulamela Ward 28, Thulamela Local Municipality, 0993, South Africa",Thulamela Local Municipality,Thulamela Ward 28,0993
31263,Openserve Property,-29.52,30.93,"Street, Hlomantethe, South Africa",Hlomantethe,N/A,
293,Openserve Property,-29.1,31.42,"183 Red Street, Mandeni, South Africa",Mandeni,N/A,
28865,Openserve Property,-22.95,30.19,"unnamed road, Makhado Ward 31, Makhado Local Municipality, 0993, South Africa",Makhado Local Municipality,Makhado Ward 31,0993
763,Openserve Property,-32.78,21.98,"Leeu Gamka, South Africa",Leeu Gamka,N/A,
1295,Openserve Property,-32.35,22.58,"Riverside Street, Beaufort West Ward 2, Beaufort West Local Municipality, South Africa",Beaufort West Local Municipality,Beaufort West Ward 2,N/A
1773,Openserve Property,-27.37,29.88,"Smit Street, Pixley ka Seme Ward 4, Pixley Ka Seme Local Municipality, 2470, South Africa",Pixley Ka Seme Local Municipality,Pixley ka Seme Ward 4,2470
10998,Openserve Property,-32.92,27.42,"unnamed road, Buffalo City Ward 41, Zwelitsha, 5601, South Africa",Zwelitsha,Buffalo City Ward 41,5601
2331,Openserve Property,-34.06,18.61,"26 Melk Close, Mitchells Plain, South Africa",Mitchells Plain,N/A,
15637,Openserve Property,-23.52,29.84,"Eisleben, South Africa",Eisleben,N/A,
1046,Openserve Property,-26.32,27.65,"8 Allen Street, Westonaria, South Africa",Westonaria,N/A,
18146,Openserve Property,-28.63,28.8,"Tshirela, South Africa",Tshirela,N/A,
8629,Openserve Property,-31.82,28.76,"Null, Mqanduli, South Africa",Mqanduli,N/A,
1753,Openserve Property,-26.78,29.3,"Street, Thuthukani, South Africa",Thuthukani,N/A,
5094,Openserve Property,-30.59,23.5,"Britstown Caravan Park, Market Street, Emthanjeni Ward 7, Emthanjeni Local Municipality, 8782, South Africa",Emthanjeni Local Municipality,Emthanjeni Ward 7,8782
650,Openserve Property,-33.97,18.54,"45 Winter Road, Athlone, South Africa",Athlone,N/A,
5089,Openserve Property,-28.54,25.24,"Boshof, South Africa",Boshof,N/A,
4106,Openserve Property,-27.62,23.65,"Ga-Segonyana Ward 2, Ga-Segonyana Local Municipality, 8460, South Africa",Ga-Segonyana Local Municipality,Ga-Segonyana Ward 2,8460
5811,Openserve Property,-29.2,26.82,"187 Street, Thabanchu, South Africa",Thabanchu,N/A,
13354,Openserve Property,-28.8,32.08,"unnamed road, The Village, Richards Bay, South Africa",Richards Bay,The Village,N/A
4505,Openserve Property,-27.4,23.49,"Street, Mothibistad, South Africa",Mothibistad,N/A,
923,Openserve Property,-26.37,28.41,"Mayabe, Duduza, South Africa",Duduza,N/A,
2070,Openserve Property,-26.45,29.67,"unnamed road, Msukaligwa Ward 10, Msukaligwa, South Africa",Msukaligwa,Msukaligwa Ward 10,N/A
103,Openserve Property,-33.94,25.46,"Carelse Street, Nelson Mandela Bay Ward 39, Eastern Cape, 6025, South Africa",N/A,Nelson Mandela Bay Ward 39,6025
1699,Openserve Property,-27,30.8,"Market Street, Mkhondo Ward 7, Mkhondo Local Municipality, 2380, South Africa",Mkhondo Local Municipality,Mkhondo Ward 7,2380
15400,Openserve Property,-23.2,30.13,"unnamed road, Makhado Ward 13, Makhado Local Municipality, South Africa",Makhado Local Municipality,Makhado Ward 13,N/A
278,Openserve Property,-28.15,31.88,"Hlabisa, South Africa",Hlabisa,N/A,
1652,Openserve Property,-25.9,29.24,"19 Baywood Avenue, Emalahleni, South Africa",Emalahleni,N/A,
1301,Openserve Property,-33.3,23.49,"Victoria Street, Willowmore, South Africa",Willowmore,N/A,
8620,Openserve Property,-31.08,29.5,"79 Null Street, Flagstaff, South Africa",Flagstaff,N/A,
18248,Openserve Property,-25.21,28.12,"Makapanstad, South Africa",Makapanstad,N/A,
17404,Openserve Property,-25.83,28.36,"unnamed road, Tshwane Ward 91, Gauteng, 0169, South Africa",N/A,Tshwane Ward 91,0169
20,Openserve Property,-27.7,23.05,"Hendrik van Eck Way, Gamagara Ward 1, Gamagara Local Municipality, 8446, South Africa",Gamagara Local Municipality,Gamagara Ward 1,8446
72,Openserve Property,-34.18,22.1,"1 Grunter Street, Mossel Bay, South Africa",Mossel Bay,N/A,
1741,Openserve Property,-23.88,29.73,"unnamed road, Polokwane Ward 31, Polokwane Local Municipality, 0727, South Africa",Polokwane Local Municipality,Polokwane Ward 31,0727
140,Openserve Property,-33.9,25.59,"20 Peter Street, Ibhayi, South Africa",Ibhayi,N/A,
1602,Openserve Property,-23.69,27.7,"Dopperkiaat Street, Lephalale Ward 5, Lephalale Local Municipality, 0557, South Africa",Lephalale Local Municipality,Lephalale Ward 5,0557
1052,Openserve Property,-26.37,27.89,"145 Street, Vlakfontein, South Africa",Vlakfontein,N/A,
1533,Openserve Property,-25.01,26.01,"Ramotshere Moiloa Ward 19, Ramotshere Moiloa Local Municipality, 2869, South Africa",Ramotshere Moiloa Local Municipality,Ramotshere Moiloa Ward 19,2869
18266,Openserve Property,-28.56,28.83,"Namahadi, South Africa",Namahadi,N/A,
1047,Openserve Property,-26.17,27.65,"Frans Road, Randfontein Ward 3, Randfontein Local Municipality, 1763, South Africa",Randfontein Local Municipality,Randfontein Ward 3,1763
276,Openserve Property,-29.78,30.76,"Hillcrest, South Africa",Hillcrest,N/A,
2221,Openserve Property,-33.68,19.31,"Die Street, Breede Valley Nu, South Africa",Breede Valley Nu,N/A,
27483,Openserve Property,-22.53,30.93,"unnamed road, Mutale Ward 13, Mutale Local Municipality, South Africa",Mutale Local Municipality,Mutale Ward 13,N/A
2215,Openserve Property,-34.66,19.5,"Broadway, Overstrand Ward 11, Overstrand Local Municipality, South Africa",Overstrand Local Municipality,Overstrand Ward 11,N/A
47175,Openserve Property,-26.03,28.17,"16 Ijobela Street, Mayibuye, South Africa",Mayibuye,N/A,
2445,Openserve Property,-26.4,27.58,"Westonaria Nu, South Africa",Westonaria Nu,N/A,
1524,Openserve Property,-22.67,29.14,"Blouberg Munic Nu, South Africa",Blouberg Munic Nu,N/A,
1020,Openserve Property,-26.31,28.23,"Loskop Street, Rondebult, Gauteng, 1430, South Africa",N/A,Rondebult,1430
1044,Openserve Property,-26.21,28.49,"Main Street, Welgedacht, Gauteng, South Africa",N/A,Welgedacht,N/A
1647,Openserve Property,-25.89,28.02,"Combrink Road, Tshwane Ward 48, Gauteng, 2069, South Africa",N/A,Tshwane Ward 48,2069
623,Openserve Property,-28.09,27.14,"N1, Matjhabeng Ward 1, Matjhabeng Local Municipality, 9450, South Africa",Matjhabeng Local Municipality,Matjhabeng Ward 1,9450
3740,Openserve Property,-24.3,28.11,"Voortrekker Street, Vaalwater, South Africa",Vaalwater,N/A,
1961,Openserve Property,-26.08,27.92,"Ridge Road, Johannesburg Ward 97, Roodepoort, 2040, South Africa",Roodepoort,Johannesburg Ward 97,2040
18143,Openserve Property,-28.55,28.83,"Namahadi, South Africa",Namahadi,N/A,
1406,Openserve Property,-27.24,26.24,"Brixton Street, Leeudoringstad, South Africa",Leeudoringstad,N/A,
1496,Openserve Property,-25.11,29.05,"unnamed road, Dr JS Moroka Ward 5, Dr JS Moroka Local Municipality, 0472, South Africa",Dr JS Moroka Local Municipality,Dr JS Moroka Ward 5,0472
6105,Openserve Property,-26.59,24.17,"Street, Ganyesa, South Africa",Ganyesa,N/A,
1806,Openserve Property,-28.74,29.82,"R103, Emnambithi/Ladysmith Ward 25, Emnambithi/Ladysmith Local Municipality, South Africa",Emnambithi/Ladysmith Local Municipality,Emnambithi/Ladysmith Ward 25,N/A
5805,Openserve Property,-25.57,27.16,"unnamed road, Saron, Rustenburg Local Municipality, 0335, South Africa",Rustenburg Local Municipality,Saron,0335
1546,Openserve Property,-25,28.01,"Moretele Ward 6, Moretele Local Municipality, Bojanala Platinum District Municipality, South Africa",Moretele Local Municipality,Moretele Ward 6,N/A
1777,Openserve Property,-24.88,28.29,"Reitz Street, Bela-Bela Ward 1, Bela Bela Local Municipality, 0481, South Africa",Bela Bela Local Municipality,Bela-Bela Ward 1,0481
1127,Openserve Property,-28.57,21.19,"Khara Hais Nu, South Africa",Khara Hais Nu,N/A,
1704,Openserve Property,-24.18,29.01,"KFC, Pretorius Street, Mogalakwena Ward 32, Mokopane, 0600, South Africa",Mokopane,Mogalakwena Ward 32,0600
2377,Openserve Property,-25.01,29,"Marble Hall Nu, South Africa",Marble Hall Nu,N/A,
5967,Openserve Property,-32.33,28.15,"N2 Road, Butterworth, South Africa",Butterworth,N/A,
4578,Openserve Property,-25.62,28.08,"Kitshoff Street, Hartebeesthoek, Gauteng, 0200, South Africa",N/A,Hartebeesthoek,0200
11911,Openserve Property,-25.45,25.87,"Dinokana, South Africa",Dinokana,N/A,
5814,Openserve Property,-25.64,27.21,"Segaole Street, Rustenburg Ward 9, Rustenburg, 0309, South Africa",Rustenburg,Rustenburg Ward 9,0309
981,Openserve Property,-26.22,27.78,"Soweto, South Africa",Soweto,N/A,
41,Openserve Property,-28.01,24.02,"Dikgatlong Ward 6, Dikgatlong Local Municipality, 8377, South Africa",Dikgatlong Local Municipality,Dikgatlong Ward 6,8377
1703,Openserve Property,-26.72,27.1,"Sylvia Street, Tlokwe Ward 5, Potchefstroom, 2520, South Africa",Potchefstroom,Tlokwe Ward 5,2520
880,Openserve Property,-33.35,18.16,"29 F Duckitt Street, Yzerfontein, South Africa",Yzerfontein,N/A,
2116,Openserve Property,-34.05,18.83,"4 Arlington Street, Somerset West, South Africa",Somerset West,N/A,
1448,Openserve Property,-26.81,26,"Otto Street, Ottosdal, South Africa",Ottosdal,N/A,
130,Openserve Property,-31.5,25.01,"unnamed road, Inxuba Yethemba Ward 8, Inxuba Yethemba Local Municipality, South Africa",Inxuba Yethemba Local Municipality,Inxuba Yethemba Ward 8,N/A
1309,Openserve Property,-25.79,31.05,"7 Stafford Street, Barberton, South Africa",Barberton,N/A,
2655,Openserve Property,-23.95,31.14,"48 Tambotie Street, Phalaborwa, South Africa",Phalaborwa,N/A,
647,Openserve Property,-28.61,16.49,"Alexander Bay, South Africa",Alexander Bay,N/A,
5790,Openserve Property,-25.41,28.28,"1885 Douglas Rens Road, Hammanskraal, South Africa",Hammanskraal,N/A,
1034,Openserve Property,-26.04,28.07,"Western Bypass, Woodmead East, Sandton, 2157, South Africa",Sandton,Woodmead East,2157
1774,Openserve Property,-25.79,28.16,"1010 Johannes Kock Road, Pretoria, South Africa",Pretoria,N/A,
1321,Openserve Property,-25.64,27.78,"Behrens Ave, Brits, South Africa",Brits,N/A,
1206,Openserve Property,-32.97,27.94,"Harrow Road, Beacon Bay, East London, 5241, South Africa",East London,Beacon Bay,5241
8502,Openserve Property,-25,27.01,"Magong, South Africa",Magong,N/A,
